station_id;station_name;latitude;longitude;elevation;lat_uncertainty;long_uncertainty;elev_uncertainty;country
1155;Missing Station ID - 99990;-999;-999;-999;-9.99999;-9.99999;-9.99999;[Missing]
1519;Missing Station ID - 08593;-999;-999;-999;-9.99999;-9.99999;-9.99999;[Missing]
3022;DUMONT-D-URVILLE;-66.65;140.03333;-999;0.00833;0.00833;-9.99999;Antarctica
5263;NAKHCHIVAN;39.2;45.41667;-999;0.00833;0.00833;-9.99999;Azerbaijan
5293;YEVLAKH;40.61667;47.15;-999;0.00833;0.00833;-9.99999;Azerbaijan
5299;GANJA;40.71667;46.41667;-999;0.00833;0.00833;-9.99999;Azerbaijan
5307;SHEKI;41.21667;47.16667;-999;0.00833;0.00833;-9.99999;Azerbaijan
5358;MONGLA;22.33333;89.6;-999;0.00833;0.00833;-9.99999;Bangladesh
5360;HATIYA;22.41667;91.1;-999;0.00833;0.00833;-9.99999;Bangladesh
5363;SANDUIP;22.48333;91.43333;-999;0.00833;0.00833;-9.99999;Bangladesh
5366;SITAKUNDA;22.63333;91.7;-999;0.00833;0.00833;-9.99999;Bangladesh
5373;MAIJDEE COURT;22.86667;91.1;-999;0.00833;0.00833;-9.99999;Bangladesh
5399;SYEDPUR;25.75;88.91667;-999;0.00833;0.00833;-9.99999;Bangladesh
5824;LAVRAS;-21.75;-45;-999;0.00833;0.00833;-9.99999;Brazil
6016;CEARA MIRIM;-5.65;-35.65;-999;0.00833;0.00833;-9.99999;Brazil
6078;MACAPA;-0.03333;-50.05;-999;0.00833;0.00833;-9.99999;Brazil
6182;YANGON;16.9;96.16667;-999;0.00833;0.00833;-9.99999;Burma / Myanmar
6187;PYAY;18.8;95.21667;-999;0.00833;0.00833;-9.99999;Burma / Myanmar
6199;KENG TUNG;21.3;99.61667;-999;0.00833;0.00833;-9.99999;Burma / Myanmar
6214;KALAWA;23.2;94.3;109;0.00833;0.00833;0.5;Burma / Myanmar
11456;PINBIAN;22.98333;103.68333;-999;0.00833;0.00833;-9.99999;China
12602;TIBACUY GRANGE;4.35;-74.41667;-999;0.00833;0.00833;-9.99999;Colombia
12605;PERALES AIRPORT;4.43333;-75.15;-999;0.00833;0.00833;-9.99999;Colombia
12611;UNIVERSIDAD NACIONAL;4.63333;-74.1;-999;0.00833;0.00833;-9.99999;Colombia
12614;MATECANA AIRPORT;4.81667;-75.73333;-999;0.00833;0.00833;-9.99999;Colombia
12618;NARANJAL;4.96667;-75.7;-999;0.00833;0.00833;-9.99999;Colombia
12630;PUERTO CARRENO AIRPORT;6.16667;-67.5;-999;0.08333;0.08333;-9.99999;Colombia
12647;SANTIAGO PEREZ AIRPORT;7.06667;-70.73333;-999;0.00833;0.00833;-9.99999;Colombia
13202;MACHALA MANUEL SERRANO;-3.26667;-79.96667;-999;0.00833;0.00833;-9.99999;Ecuador
13205;CUENCA MARISCAL LAMAR;-2.88333;-78.98333;-999;0.00833;0.00833;-9.99999;Ecuador
13219;BABAHOYO UTB;-1.78333;-79.53333;-999;0.00833;0.00833;-9.99999;Ecuador
13261;QUITO IAQUITO;-0.16667;-78.48333;-999;0.00833;0.00833;-9.99999;Ecuador
13276;ESMERALDAS TACHINA;0.96667;-79.61667;-999;0.00833;0.00833;-9.99999;Ecuador
13517;NABOUWALU - BUA;-16.98333;178.68333;-999;0.00833;0.00833;-9.99999;Fiji
13975;CAEN-CARPIQUET;49.16667;-2.78333;-999;0.00833;0.00833;-9.99999;France
14933;BAFATA;11.16667;-14.66667;-999;0.08333;0.08333;-9.99999;Guinea-Bissau
14935;BISSAU/OBSERVATORIO;11.86667;-15.6;-999;0.00833;0.00833;-9.99999;Guinea-Bissau
14947;C H EJAGAN AIRPORT;6.5;-58.25;-999;0.00833;0.00833;-9.99999;Guyana
15138;AURANGABAD(A);19.85;75.4;579;0.00833;0.00833;0.5;India
15180;BHUJ(A);23.25;69.66667;80;0.00833;0.00833;0.5;India
15215;KOTA(A);25.15;75.85;-999;0.00833;0.00833;-9.99999;India
15241;LUCKNOW(A);26.75;80.88333;128;0.00833;0.00833;0.5;India
15286;LEKUNIK;-10.88333;122.83333;-999;0.00833;0.00833;-9.99999;Indonesia
15289;TARDAMU;-10.5;121.85;-999;0.00833;0.00833;-9.99999;Indonesia
15293;LASIANA;-10.16667;123.6;-999;0.00833;0.00833;-9.99999;Indonesia
15296;DENPASAR;-8.75;115.16667;-999;0.00833;0.00833;-9.99999;Indonesia
15301;KARANG KEMIRI;-8.55;109.55;-999;0.00833;0.00833;-9.99999;Indonesia
15303;PANINJAUAN;-8.55;116.13333;-999;0.00833;0.00833;-9.99999;Indonesia
15304;BIMA;-8.55;116.7;-999;0.00833;0.00833;-9.99999;Indonesia
15307;MAUMERE;-8.46667;122.35;-999;0.00833;0.00833;-9.99999;Indonesia
15308;SUMBAWA BESAR;-8.43333;117.41667;-999;0.00833;0.00833;-9.99999;Indonesia
15310;KOMORO;-8.41667;125.56667;-999;0.00833;0.00833;-9.99999;Indonesia
15312;SUMBER ASIN;-8.23333;112.71667;-999;0.00833;0.00833;-9.99999;Indonesia
15315;MALI;-8.21667;124.56667;-999;0.00833;0.00833;-9.99999;Indonesia
15317;SENGKOL;-8.2;115.76667;-999;0.00833;0.00833;-9.99999;Indonesia
15318;KARANG KATES;-8.16667;112.45;-999;0.00833;0.00833;-9.99999;Indonesia
15319;JATIROTO;-8.16667;113.33333;-999;0.08333;0.08333;-9.99999;Indonesia
15321;PG.WRINGIN ANOM;-8;114;-999;0.5;0.5;-9.99999;Indonesia
15324;UNBRA-MALANG;-7.95;112.61667;-999;0.00833;0.00833;-9.99999;Indonesia
15327;CINDOGO;-7.88333;113.96667;-999;0.00833;0.00833;-9.99999;Indonesia
15329;WONOCATUR;-7.8;110.4;-999;0.00833;0.00833;-9.99999;Indonesia
15334;UGM JOGJA;-7.76667;110.38333;-999;0.00833;0.00833;-9.99999;Indonesia
15335;KARANGPLOSO;-7.75;112.58333;-999;0.00833;0.00833;-9.99999;Indonesia
15337;TRETES;-7.7;112.63333;-999;0.00833;0.00833;-9.99999;Indonesia
15338;PG.KEDAWUNG;-7.7;112.93333;-999;0.00833;0.00833;-9.99999;Indonesia
15339;PG.ASEMBAGUS;-7.65;114.2;-999;0.00833;0.00833;-9.99999;Indonesia
15340;PASURUAN;-7.63333;112.81667;-999;0.00833;0.00833;-9.99999;Indonesia
15343;WADASLINTANG;-7.61667;110.91667;-999;0.00833;0.00833;-9.99999;Indonesia
15344;ISWAHYUDI MADIUN;-7.61667;111.51667;-999;0.00833;0.00833;-9.99999;Indonesia
15345;SELOGIRI;-7.59167;110.46667;-999;0.21667;0.45833;-9.99999;Indonesia
15347;JABON;-7.53333;112.83333;-999;0.00833;0.00833;-9.99999;Indonesia
15349;MOJOSARI;-7.5;112.5;-999;0.08333;0.08333;-9.99999;Indonesia
15350;SENENG MAGELANG;-7.48333;101.23333;-999;0.00833;0.00833;-9.99999;Indonesia
15351;TASIKMALAYA;-7.48333;108.58333;-999;0.00833;0.00833;-9.99999;Indonesia
15352;SEMPOR;-7.48333;109.31667;-999;0.00833;0.00833;-9.99999;Indonesia
15353;BOJONGSARI;-7.41667;109.4;-999;0.00833;0.00833;-9.99999;Indonesia
15354;GETAS;-7.38333;110.43333;-999;0.00833;0.00833;-9.99999;Indonesia
15360;PG.WONOLANGUN;-7.23333;113.2;-999;0.00833;0.00833;-9.99999;Indonesia
15363;SURABAYA-PERAK;-7.21667;112.75;-999;0.00833;0.00833;-9.99999;Indonesia
15364;UNGARAN;-7.11667;110.38333;-999;0.00833;0.00833;-9.99999;Indonesia
15365;BOROBUDUR;-7.10833;110.19167;-999;0.01667;0.18333;-9.99999;Indonesia
15367;NGAMBAK KAPUNG;-7.01667;110.61667;-999;0.00833;0.00833;-9.99999;Indonesia
15368;SEMARANG AHMAD YANI;-6.98333;110.36667;-999;0.00833;0.00833;-9.99999;Indonesia
15369;SEMARANG KLIMAT II;-6.98333;110.38333;-999;0.00833;0.00833;-9.99999;Indonesia
15372;SEMARANG MARITIM;-6.95;110.41667;-999;0.00833;0.00833;-9.99999;Indonesia
15374;GEOFISIKA BANDUNG;-6.91667;107.6;-999;0.00833;0.00833;-9.99999;Indonesia
15377;GAMER PEKALONGAN;-6.88333;109.7;-999;0.00833;0.00833;-9.99999;Indonesia
15379;PAMEKASAN;-6.85;113.48333;-999;0.00833;0.00833;-9.99999;Indonesia
15384;RENDOLE PATI;-6.71667;111.01667;-999;0.00833;0.00833;-9.99999;Indonesia
15386;CITEKO;-6.7;106.93333;-999;0.00833;0.00833;-9.99999;Indonesia
15387;CIREBON JAWA BARAT;-6.68333;108.55;-999;0.00833;0.00833;-9.99999;Indonesia
15388;COLO KUDUS;-6.66667;111.08333;-999;0.00833;0.00833;-9.99999;Indonesia
15392;DARMAGA BOGOR;-6.5;106.75;-999;0.00833;0.00833;-9.99999;Indonesia
15394;CIKUMPAI;-6.46667;107.5;-999;0.00833;0.00833;-9.99999;Indonesia
15395;LAB.PHPTP TEMANGGUNG;-6.43333;110.8;-999;0.00833;0.00833;-9.99999;Indonesia
15396;JATISARI;-6.35;107.5;-999;0.00833;0.00833;-9.99999;Indonesia
15399;STA. KLIMATOLOGI CILEDUG;-6.26667;106.66667;-999;0.00833;0.00833;-9.99999;Indonesia
15400;HALIM PERDANA KUSUMA;-6.26667;106.88333;-999;0.00833;0.00833;-9.99999;Indonesia
15408;CENGKARENG;-6.11667;106.65;-999;0.00833;0.00833;-9.99999;Indonesia
15414;SANGKAPURA - BAWEAN;-5.85;112.63333;-999;0.00833;0.00833;-9.99999;Indonesia
15415;TUAL;-5.68333;132.8;-999;0.00833;0.00833;-9.99999;Indonesia
15418;BETOAMBARI;-5.46667;122.61667;-999;0.00833;0.00833;-9.99999;Indonesia
15420;BRANTI TANJUNG KARANG;-5.25;105.18333;-999;0.00833;0.00833;-9.99999;Indonesia
15422;UJUNG PANDANG(MARITIM);-5.13333;119.4;-999;0.00833;0.00833;-9.99999;Indonesia
15429;BANDANAIRE;-4.58333;129.91667;-999;0.00833;0.00833;-9.99999;Indonesia
15430;TIMIKA;-4.53333;136.86667;-999;0.00833;0.00833;-9.99999;Indonesia
15434;PANAKUKANG;-4.24167;119.24167;-999;0.95;0.25;-9.99999;Indonesia
15435;BELITANG;-4.15;104.65;-999;0.00833;0.00833;-9.99999;Indonesia
15440;P.G. BONE;-3.73333;120.33333;-999;0.00833;0.00833;-9.99999;Indonesia
15445;MUARA ENIM;-3.66667;103.76667;-999;0.00833;0.00833;-9.99999;Indonesia
15446;KAIMANA;-3.63333;133.71667;-999;0.00833;0.00833;-9.99999;Indonesia
15447;BANJAR BARU;-3.45;114.83333;-999;0.00833;0.00833;-9.99999;Indonesia
15450;KAYU AGUNG;-3.38333;104.85;-999;0.00833;0.00833;-9.99999;Indonesia
15452;TARAKAN;-3.33333;117.56667;-999;0.00833;0.00833;-9.99999;Indonesia
15454;PULAU BAI;-3.31667;102.88333;-999;0.00833;0.00833;-9.99999;Indonesia
15455;STAGEN;-3.28333;116.21667;-999;0.00833;0.00833;-9.99999;Indonesia
15456;KAIRATU;-3.25;128.4;-999;0.00833;0.00833;-9.99999;Indonesia
15457;NAMLEA;-3.25;128.88333;-999;0.00833;0.00833;-9.99999;Indonesia
15459;TANJUNG TEBAT LAHAT;-3.08333;103.48333;-999;0.00833;0.00833;-9.99999;Indonesia
15460;TUGU MULYO;-3.01667;102.83333;-999;0.00833;0.00833;-9.99999;Indonesia
15461;KENTEN;-3;107.75;-999;0.00833;0.00833;-9.99999;Indonesia
15462;BUKIT BESAR-UNSRI;-2.96667;104.76667;-999;0.00833;0.00833;-9.99999;Indonesia
15463;RIAS TOBOALI;-2.95;106.45;-999;0.00833;0.00833;-9.99999;Indonesia
15464;FAK-FAK;-2.9;132.25;-999;0.00833;0.00833;-9.99999;Indonesia
15466;SEKAYU;-2.88333;103.85;-999;0.00833;0.00833;-9.99999;Indonesia
15467;STN.METEOROLOGI KLAS III;-2.88333;140.71667;-999;0.00833;0.00833;-9.99999;Indonesia
15470;DEPATI PARBO;-2.76667;101.36667;-999;0.00833;0.00833;-9.99999;Indonesia
15472;BULUH TUMBANG TANJUNG PA;-2.75;107.75;-999;0.00833;0.00833;-9.99999;Indonesia
15474;MASAMBA;-2.61667;120.28333;-999;0.00833;0.00833;-9.99999;Indonesia
15475;GENYEM;-2.6;140.16667;-999;0.00833;0.00833;-9.99999;Indonesia
15478;SENTANI;-2.5;140.48333;-999;0.00833;0.00833;-9.99999;Indonesia
15479;SEI PINANG-DEWI SRI;-2.45;104.85;-999;0.00833;0.00833;-9.99999;Indonesia
15481;PALANGKARAYA-PENARUNG;-2.25;113.91667;-999;0.00833;0.00833;-9.99999;Indonesia
15489;SEBAPO;-1.5;103.25;-999;0.00833;0.00833;-9.99999;Indonesia
15495;MUARA TEWEH;-0.93333;114.88333;-999;0.00833;0.00833;-9.99999;Indonesia
15500;STN.KLIMATOLOGI KLAS III;-0.88333;134.13333;-999;0.00833;0.00833;-9.99999;Indonesia
15501;TERNATE;-0.83333;127.41667;-999;0.00833;0.00833;-9.99999;Indonesia
15506;SICINCIN;-0.56667;100.26667;-999;0.00833;0.00833;-9.99999;Indonesia
15507;DABO-SINGKEP;-0.48333;104.58333;-999;0.00833;0.00833;-9.99999;Indonesia
15513;SUPADIO-PONTIANAK;-0.01667;109.38333;-999;0.00833;0.00833;-9.99999;Indonesia
15516;PADANGKEMILING BENGKULU;0.10833;102.45;-999;3.76667;0.125;-9.99999;Indonesia
15518;ANJUNGAN;0.4;109.4;-999;0.00833;0.00833;-9.99999;Indonesia
15519;SIMPANGTIGA-PEKANBARU;0.46667;101.43333;-999;0.00833;0.00833;-9.99999;Indonesia
15523;SIANTAN;0.6;109.18333;-999;0.00833;0.00833;-9.99999;Indonesia
15524;GORONTALO;0.65;122.83333;-999;0.00833;0.00833;-9.99999;Indonesia
15530;TOLI TOLI;1;120.8;-999;0.00833;0.00833;-9.99999;Indonesia
15539;KAYUWATU;1.55;124.91667;-999;0.00833;0.00833;-9.99999;Indonesia
15546;TANJUNG SELOR;2.83333;117.36667;-999;0.00833;0.00833;-9.99999;Indonesia
15548;MARIHAT ST;2.91667;99.08333;-999;0.00833;0.00833;-9.99999;Indonesia
15551;POLONIA-MEDAN;3.56667;98.68333;-999;0.00833;0.00833;-9.99999;Indonesia
15555;SAMPALI;3.61667;98.8;-999;0.00833;0.00833;-9.99999;Indonesia
15556;NAHA;3.71667;125.36667;-999;0.00833;0.00833;-9.99999;Indonesia
15566;MERAUKE;-999;-999;-999;-9.99999;-9.99999;-9.99999;Indonesia
15567;SARMI;-999;-999;-999;-9.99999;-9.99999;-9.99999;Indonesia
15568;MAROS;-999;-999;-999;-9.99999;-9.99999;-9.99999;Indonesia
15569;SRIMARDONO;-999;-999;-999;-9.99999;-9.99999;-9.99999;Indonesia
15570;NEGARA;-999;-999;-999;-9.99999;-9.99999;-9.99999;Indonesia
15571;TUGUREJO;-999;-999;-999;-9.99999;-9.99999;-9.99999;Indonesia
15572;PUNTEN (BATU MALANG);-999;-999;-999;-9.99999;-9.99999;-9.99999;Indonesia
15573;ENAROTOLI;-999;-999;-999;-9.99999;-9.99999;-9.99999;Indonesia
15574;NYIUR GADING KEDIRI;-999;-999;-999;-9.99999;-9.99999;-9.99999;Indonesia
15575;DAWAM BPP;-999;-999;-999;-9.99999;-9.99999;-9.99999;Indonesia
15576;SPMA KUBUTAMBAHAN;-999;-999;-999;-9.99999;-9.99999;-9.99999;Indonesia
15578;KP.TLEKUNG;-999;-999;-999;-9.99999;-9.99999;-9.99999;Indonesia
15579;MOJOKERTO;-999;-999;-999;-9.99999;-9.99999;-9.99999;Indonesia
15580;LABUHA;-999;-999;-999;-9.99999;-9.99999;-9.99999;Indonesia
15581;LAB.PPHPTP MADIUN;-999;-999;-999;-9.99999;-9.99999;-9.99999;Indonesia
15582;TONDANO;-999;-999;-999;-9.99999;-9.99999;-9.99999;Indonesia
15583;CUKUR GONDANG;-999;-999;-999;-9.99999;-9.99999;-9.99999;Indonesia
15584;TRIMURJO;-999;-999;-999;-9.99999;-9.99999;-9.99999;Indonesia
15585;LITBANG II SMPK;-999;-999;-999;-9.99999;-9.99999;-9.99999;Indonesia
15586;NANGAPINOH;-999;-999;-999;-9.99999;-9.99999;-9.99999;Indonesia
15587;PT. UJF;-999;-999;-999;-9.99999;-9.99999;-9.99999;Indonesia
15588;DS. PALUR;-999;-999;-999;-9.99999;-9.99999;-9.99999;Indonesia
15589;SAWAHAN (GEOFISIKA);-999;-999;-999;-9.99999;-9.99999;-9.99999;Indonesia
15590;SMPK LAB PHPTPH;-999;-999;-999;-9.99999;-9.99999;-9.99999;Indonesia
15591;TANJUNG REDEP;-999;-999;-999;-9.99999;-9.99999;-9.99999;Indonesia
15592;SASARAN TONDANO;-999;-999;-999;-9.99999;-9.99999;-9.99999;Indonesia
15593;KEBON CURUG;-999;-999;-999;-9.99999;-9.99999;-9.99999;Indonesia
15594;PLOSO;-999;-999;-999;-9.99999;-9.99999;-9.99999;Indonesia
15595;SORONG;-999;-999;-999;-9.99999;-9.99999;-9.99999;Indonesia
15596;TIMBANUH;-999;-999;-999;-9.99999;-9.99999;-9.99999;Indonesia
15597;INDRAPURI;-999;-999;-999;-9.99999;-9.99999;-9.99999;Indonesia
15598;KOTA BUMI;-999;-999;-999;-9.99999;-9.99999;-9.99999;Indonesia
15599;KLUNGKUNG BALI;-999;-999;-999;-9.99999;-9.99999;-9.99999;Indonesia
15600;PG.TAKALAR;-999;-999;-999;-9.99999;-9.99999;-9.99999;Indonesia
15601;PANAIKANG;-999;-999;-999;-9.99999;-9.99999;-9.99999;Indonesia
15603;SPMA GEGER KALONG;-999;-999;-999;-9.99999;-9.99999;-9.99999;Indonesia
15604;TUNTUNGAN MEDAN;-999;-999;-999;-9.99999;-9.99999;-9.99999;Indonesia
15606;LANRANG;-999;-999;-999;-9.99999;-9.99999;-9.99999;Indonesia
15608;BANJARSARI;-999;-999;-999;-9.99999;-9.99999;-9.99999;Indonesia
15609;LEMBANG;-999;-999;-999;-9.99999;-9.99999;-9.99999;Indonesia
15610;PADANG PANJANG;-999;-999;-999;-9.99999;-9.99999;-9.99999;Indonesia
15611;SENDANG HARJO;-999;-999;-999;-9.99999;-9.99999;-9.99999;Indonesia
15612;KARANG ASEM;-999;-999;-999;-9.99999;-9.99999;-9.99999;Indonesia
15613;SMPK KUALA TUNGGAL;-999;-999;-999;-9.99999;-9.99999;-9.99999;Indonesia
15615;SANGLAH;-999;-999;-999;-9.99999;-9.99999;-9.99999;Indonesia
15617;KEBUN WONOSARI;-999;-999;-999;-9.99999;-9.99999;-9.99999;Indonesia
15618;KALIWINING JEMBER;-999;-999;-999;-9.99999;-9.99999;-9.99999;Indonesia
15629;JAZIREH KISH;26.5;53.98333;-999;0.00833;0.00833;-9.99999;Iran
15644;KAHNOUJ;27.96667;57.7;-999;0.00833;0.00833;-9.99999;Iran
15658;SHAHR BABAK;30.1;55.13333;-999;0.00833;0.00833;-9.99999;Iran
15664;DOGONBADAN;30.43333;50.76667;-999;0.00833;0.00833;-9.99999;Iran
15665;BANDAR MAHSHAHR;30.55;49.15;-999;0.00833;0.00833;-9.99999;Iran
15671;YASOUJ;30.83333;51.68333;-999;0.00833;0.00833;-9.99999;Iran
15677;BOSTAN;31.71667;48;-999;0.00833;0.00833;-9.99999;Iran
15679;MASJED SOLEYMAN;31.93333;49.28333;-999;0.00833;0.00833;-9.99999;Iran
15681;SAFIABAD DEZFUL;32.26667;48.41667;-999;0.00833;0.00833;-9.99999;Iran
15686;KOOHRANG;32.43333;50.11667;-999;0.00833;0.00833;-9.99999;Iran
15688;SHARGH ESFAHAN;32.66667;51.86667;-999;0.00833;0.00833;-9.99999;Iran
15690;DEHLORAN;32.68333;47.26667;-999;0.00833;0.00833;-9.99999;Iran
15692;DARAN;32.96667;50.36667;-999;0.00833;0.00833;-9.99999;Iran
15693;ALIGOODARZ;33.4;49.68333;-999;0.00833;0.00833;-9.99999;Iran
15697;KHORRAMABAD;33.48333;48.36667;-999;0.00833;0.00833;-9.99999;Iran
15703;KHOOR BIABANAK;33.78333;55.08333;-999;0.00833;0.00833;-9.99999;Iran
15707;ESLAMABAD GHARB;34.13333;46.43333;-999;0.00833;0.00833;-9.99999;Iran
15713;SAR POL ZOHAB;34.45;45.86667;-999;0.00833;0.00833;-9.99999;Iran
15714;KANGAVAR;34.5;48;-999;0.08333;0.08333;-9.99999;Iran
15717;RAVANSAR;34.71667;46.66667;-999;0.00833;0.00833;-9.99999;Iran
15722;GARMSAR;35.2;52.26667;-999;0.00833;0.00833;-9.99999;Iran
15732;DOUSHAN TAPPEH;35.7;51.33333;-999;0.00833;0.00833;-9.99999;Iran
15733;ABALI;35.75;51.88333;-999;0.00833;0.00833;-9.99999;Iran
15735;SHOMALE TEHRAN;35.78333;51.61667;-999;0.00833;0.00833;-9.99999;Iran
15736;BIJAR;35.88333;47.61667;-999;0.00833;0.00833;-9.99999;Iran
15737;KARAJ;35.91667;50.9;-999;0.00833;0.00833;-9.99999;Iran
15738;ZARINEH;36.06667;46.91667;-999;0.00833;0.00833;-9.99999;Iran
15751;NOUSHAHR;36.65;51.5;-999;0.00833;0.00833;-9.99999;Iran
15755;MAHABAD;36.76667;45.71667;-999;0.00833;0.00833;-9.99999;Iran
15758;GHOOCHAN;37.06667;58.5;-999;0.00833;0.00833;-9.99999;Iran
15765;BOJNURD;37.46667;57.31667;-999;0.00833;0.00833;-9.99999;Iran
15773;ASTARA;38.41667;48.86667;-999;0.00833;0.00833;-9.99999;Iran
15776;JOLFA;38.75;45.66667;-999;0.00833;0.00833;-9.99999;Iran
15778;MAKOO;39.33333;44.43333;-999;0.00833;0.00833;-9.99999;Iran
15780;PARSABAD MOGHAN;39.65;47.91667;-999;0.00833;0.00833;-9.99999;Iran
16089;MONTE TERMINILLO;42.45;12.21667;-999;0.00833;0.00833;-9.99999;Italy
16766;TORGAY;49.63333;63.5;-999;0.00833;0.00833;-9.99999;Kazakhstan
16838;KOKSHETAU;53.28333;69.38333;-999;0.00833;0.00833;-9.99999;Kazakhstan
17516;LILONGWE AIRPORT;-13.78333;33.78333;-999;0.00833;0.00833;-9.99999;Malawi
17532;SENAI (JOHORE);1.63333;103.66667;-999;0.00833;0.00833;-9.99999;Malaysia
17573;ALOR SETAR (KEDAH);6.2;100.4;-999;0.00833;0.00833;-9.99999;Malaysia
17587;GAN;-0.68333;72.98333;-999;0.00833;0.00833;-9.99999;Maldives
17590;HULHULE;4.18333;73.51667;-999;0.00833;0.00833;-9.99999;Maldives
18182;Tsogtovoo;44.41667;105.31667;-999;0.00833;0.00833;-9.99999;Mongolia
18191;Saikhanoboo;45.45;103.9;-999;0.00833;0.00833;-9.99999;Mongolia
18195;Bayandelger;45.8;112.7;-999;0.00833;0.00833;-9.99999;Mongolia
18245;Khalkhgol;48.66667;118.08333;-999;0.00833;0.00833;-9.99999;Mongolia
18254;Baruunkharaa;48.91667;106.73333;-999;0.00833;0.00833;-9.99999;Mongolia
18269;Murun;49.63333;100.16667;-999;0.00833;0.00833;-9.99999;Mongolia
18282;Tosontsengel;71.5;115.66667;-999;0.08333;0.08333;-9.99999;Mongolia
18363;XAIXAI;-25.05;33.63333;-999;0.00833;0.00833;-9.99999;Mozambique
18376;CHIMOIO;-19.11667;32.46667;-999;0.00833;0.00833;-9.99999;Mozambique
18711;IKEJA;6.58333;3.33333;-999;0.00833;0.00833;-9.99999;Nigeria
19212;Majis [Sohar];24.46667;56.63333;36;0.00833;0.00833;0.5;Oman
19223;KARACHI (AIRPORT);24.9;67.13333;-999;0.00833;0.00833;-9.99999;Pakistan
19445;VILLARRICA;-25.71667;-56.6;-999;0.00833;0.00833;-9.99999;Paraguay
19472;ASUNCION;-22.36667;-54.31667;-999;0.00833;0.00833;-9.99999;Paraguay
22319;RIYADH NEW;24.91667;46.71667;-999;0.00833;0.00833;-9.99999;Saudi Arabia
23805;SRA KAEW;13.78333;102.03333;-999;0.00833;0.00833;-9.99999;Thailand
23860;KAMALASAL;16.31667;103.58333;-999;0.00833;0.00833;-9.99999;Thailand
24779;RAS AL KHAIMAH INTL AP;25.61667;55.93333;-999;0.00833;0.00833;-9.99999;United Arab Emirates
25605;KAILUA/446;20.9;-156.21667;-999;0.00833;0.00833;-9.99999;United States
43683;MANLEY/HOT SPRINGS;65;-150.65;-999;0.00833;0.00833;-9.99999;United States
43975;AKBAJTAL;43.15;64.33333;-999;0.00833;0.00833;-9.99999;Uzbekistan
44039;Santo Domingo;7.58333;-72.06667;-999;0.00833;0.00833;-9.99999;Venezuela
44072;Caracas-La Carlota;10.48333;-66.83333;-999;0.00833;0.00833;-9.99999;Venezuela
44077;La Caada;10.51667;-71.65;-999;0.00833;0.00833;-9.99999;Venezuela
86051;PORT-AUX-FRANCAIS;-49.35;70.25;-999;0.00833;0.00833;-9.99999;[Missing]
86052;PITCAIRN ISLAND AWS A;-25.06667;-130.1;-999;0.00833;0.00833;-9.99999;[Missing]
86053;PITCAIRN;-25.06667;-130.1;-999;0.00833;0.00833;-9.99999;[Missing]
86054;PODGORICA;42.36667;19.25;-999;0.00833;0.00833;-9.99999;[Missing]
86055;VRANJE;42.55;21.91667;-999;0.00833;0.00833;-9.99999;[Missing]
86056;NIS;43.33333;21.9;-999;0.00833;0.00833;-9.99999;[Missing]
86057;KRALJEVO;43.7;20.7;-999;0.00833;0.00833;-9.99999;[Missing]
86058;VELIKOGRADISTE;44.75;21.51667;-999;0.00833;0.00833;-9.99999;[Missing]
86059;BELGRADE;44.8;20.46667;-999;0.00833;0.00833;-9.99999;[Missing]
86060;USHUAIA AERO;-54.83333;-68.31667;-999;0.00833;0.00833;-9.99999;Argentina
86061;RIO GALLEGOS AERO;-51.61667;-69.28333;-999;0.00833;0.00833;-9.99999;Argentina
86062;COMODORO RIVADAVIA AERO;-45.78333;-67.5;-999;0.00833;0.00833;-9.99999;Argentina
86063;VIEDMA AERO;-40.85;-63.01667;-999;0.00833;0.00833;-9.99999;Argentina
86064;NEUQUEN AERO;-38.95;-68.13333;-999;0.00833;0.00833;-9.99999;Argentina
86065;MAR DEL PLATA AERO;-37.93333;-57.58333;-999;0.00833;0.00833;-9.99999;Argentina
86066;SANTA ROSA AERO;-36.56667;-64.26667;-999;0.00833;0.00833;-9.99999;Argentina
86067;EZEIZA AERO;-34.81667;-58.53333;-999;0.00833;0.00833;-9.99999;Argentina
86068;BUENOS AIRES;-34.58333;-58.48333;-999;0.00833;0.00833;-9.99999;Argentina
86069;AEROPARQUE B. AIRES AERO;-34.56667;-58.41667;-999;0.00833;0.00833;-9.99999;Argentina
86070;DON TORCUATO AERO;-34.48333;-58.61667;-999;0.00833;0.00833;-9.99999;Argentina
86071;SAN LUIS AERO;-33.26667;-66.35;-999;0.00833;0.00833;-9.99999;Argentina
86072;ROSARIO AERO;-32.91667;-60.78333;-999;0.00833;0.00833;-9.99999;Argentina
86073;MENDOZA AERO;-32.83333;-68.78333;-999;0.00833;0.00833;-9.99999;Argentina
86074;PARANA AERO;-31.78333;-60.48333;-999;0.00833;0.00833;-9.99999;Argentina
86075;SAUCE VIEJO AERO;-31.7;-60.81667;-999;0.00833;0.00833;-9.99999;Argentina
86076;SAN JUAN AERO;-31.4;-68.41667;-999;0.00833;0.00833;-9.99999;Argentina
86077;CORDOBA AERO;-31.31667;-64.21667;-999;0.00833;0.00833;-9.99999;Argentina
86078;LA RIOJA AERO;-29.38333;-66.81667;-999;0.00833;0.00833;-9.99999;Argentina
86079;CATAMARCA AERO;-28.6;-65.76667;-999;0.00833;0.00833;-9.99999;Argentina
86080;SANTIAGO DEL ESTERO AERO;-27.76667;-64.3;-999;0.00833;0.00833;-9.99999;Argentina
86081;RESISTENCIA AERO;-27.45;-59.05;-999;0.00833;0.00833;-9.99999;Argentina
86082;CORRIENTES AERO;-27.45;-58.76667;-999;0.00833;0.00833;-9.99999;Argentina
86083;POSADAS AERO;-27.36667;-55.96667;-999;0.00833;0.00833;-9.99999;Argentina
86084;TUCUMAN AERO;-26.85;-65.1;-999;0.00833;0.00833;-9.99999;Argentina
86085;FORMOSA AERO;-26.2;-58.23333;-999;0.00833;0.00833;-9.99999;Argentina
86086;SALTA AERO;-24.85;-65.48333;-999;0.00833;0.00833;-9.99999;Argentina
86087;JUJUY AERO;-24.38333;-65.08333;-999;0.00833;0.00833;-9.99999;Argentina
86088;YEREVAN;40.2;44.5;-999;0.00833;0.00833;-9.99999;Armenia
86089;SEVAN;40.56667;45;-999;0.00833;0.00833;-9.99999;Armenia
86090;GUMRI;40.78333;43.83333;-999;0.00833;0.00833;-9.99999;Armenia
86091;DAVIS;-68.58333;77.96667;-999;0.00833;0.00833;-9.99999;Australia
86092;MAWSON;-67.6;62.86667;-999;0.00833;0.00833;-9.99999;Australia
86093;CASEY;-66.28333;110.53333;-999;0.00833;0.00833;-9.99999;Australia
86094;MACQUARIE ISLAND;-54.5;158.95;-999;0.00833;0.00833;-9.99999;Australia
86095;CAPE BRUNY LIGHTHOUSE;-43.48333;147.13333;-999;0.00833;0.00833;-9.99999;Australia
86096;GROVE RESEARCH STATION;-42.98333;147.08333;-999;0.00833;0.00833;-9.99999;Australia
86097;HOBART AIRPORT;-42.83333;147.5;-999;0.08333;0.08333;-9.99999;Australia
86098;LIAWENEE COMPARISON;-41.9;146.66667;-999;0.00833;0.00833;-9.99999;Australia
86099;LAUNCESTON AIRPORT;-41.53333;147.2;-999;0.00833;0.00833;-9.99999;Australia
86100;LOW HEAD;-41.06667;146.78333;-999;0.00833;0.00833;-9.99999;Australia
86101;EDDYSTONE POINT;-40.98333;148.35;-999;0.00833;0.00833;-9.99999;Australia
86102;CAPE GRIM BAPS;-40.68333;144.68333;-999;0.00833;0.00833;-9.99999;Australia
86103;WILSONS PROMONTORY LIGHT;-39.13333;146.41667;-999;0.00833;0.00833;-9.99999;Australia
86104;CAPE OTWAY LIGHTHOUSE;-38.86667;143.51667;-999;0.00833;0.00833;-9.99999;Australia
86105;CAPE NELSON LIGHTHOUSE;-38.43333;141.53333;-999;0.00833;0.00833;-9.99999;Australia
86106;EAST SALE AIRPORT;-38.11667;147.13333;-999;0.00833;0.00833;-9.99999;Australia
86107;LAVERTON RAAF;-37.86667;144.76667;-999;0.00833;0.00833;-9.99999;Australia
86108;MOUNT GAMBIER AERO;-37.75;140.76667;-999;0.00833;0.00833;-9.99999;Australia
86109;MELBOURNE AIRPORT;-37.68333;144.83333;-999;0.00833;0.00833;-9.99999;Australia
86110;ORBOST (COMPARISON);-37.68333;148.46667;-999;0.00833;0.00833;-9.99999;Australia
86111;ROBE;-37.16667;139.76667;-999;0.00833;0.00833;-9.99999;Australia
86112;THREDBO VILLAGE;-36.5;148.3;-999;0.00833;0.00833;-9.99999;Australia
86113;NHILL;-36.33333;141.63333;-999;0.00833;0.00833;-9.99999;Australia
86114;CABRAMURRA SMHEA AWS;-35.93333;148.38333;-999;0.00833;0.00833;-9.99999;Australia
86115;MORUYA HEADS PILOT STATI;-35.91667;150.15;-999;0.00833;0.00833;-9.99999;Australia
86116;CAPE BORDA;-35.75;136.58333;-999;0.00833;0.00833;-9.99999;Australia
86117;DENILIQUIN AIRPORT AWS;-35.56667;144.95;-999;0.00833;0.00833;-9.99999;Australia
86118;CANBERRA AIRPORT;-35.3;149.2;-999;0.00833;0.00833;-9.99999;Australia
86119;STRATHALBYN RACECOURSE;-35.28333;138.88333;-999;0.00833;0.00833;-9.99999;Australia
86120;WAGGA WAGGA AMO;-35.16667;147.46667;-999;0.00833;0.00833;-9.99999;Australia
86121;JERVIS BAY (POINT PERPEN;-35.08333;150.8;-999;0.00833;0.00833;-9.99999;Australia
86122;ADELAIDE AIRPORT;-34.95;138.51667;-999;0.00833;0.00833;-9.99999;Australia
86123;NOWRA RAN AIR STATION A;-34.95;150.53333;-999;0.00833;0.00833;-9.99999;Australia
86124;ALBANY AIRPORT;-34.93333;117.8;-999;0.00833;0.00833;-9.99999;Australia
86125;NURIOOTPA VITICULTURAL;-34.48333;139;-999;0.00833;0.00833;-9.99999;Australia
86126;CAPE LEEUWIN;-34.36667;115.13333;-999;0.00833;0.00833;-9.99999;Australia
86127;MILDURA AIRPORT;-34.23333;142.08333;-999;0.00833;0.00833;-9.99999;Australia
86128;BRIDGETOWN COMPARISON;-33.96667;116.13333;-999;0.00833;0.00833;-9.99999;Australia
86129;WYALONG POST OFFICE;-33.93333;147.23333;-999;0.00833;0.00833;-9.99999;Australia
86130;SYDNEY AIRPORT AMO;-33.93333;151.16667;-999;0.00833;0.00833;-9.99999;Australia
86131;ESPERANCE;-33.83333;121.88333;-999;0.00833;0.00833;-9.99999;Australia
86132;SNOWTOWN (RAYVILLE PARK);-33.76667;138.21667;-999;0.00833;0.00833;-9.99999;Australia
86133;RICHMOND RAAF;-33.6;150.78333;-999;0.00833;0.00833;-9.99999;Australia
86134;BATHURST AGRICULTURAL ST;-33.43333;149.56667;-999;0.00833;0.00833;-9.99999;Australia
86135;LAKE GRACE COMPARISON;-33.1;118.46667;-999;0.00833;0.00833;-9.99999;Australia
86136;CONDOBOLIN AG RESEARCH S;-33.06667;147.23333;-999;0.00833;0.00833;-9.99999;Australia
86137;WILLIAMTOWN RAAF;-32.78333;151.83333;-999;0.00833;0.00833;-9.99999;Australia
86138;WANDERING;-32.66667;116.66667;-999;0.08333;0.08333;-9.99999;Australia
86139;DUBBO AIRPORT AWS;-32.21667;148.58333;-999;0.00833;0.00833;-9.99999;Australia
86140;CEDUNA AMO;-32.13333;133.7;-999;0.00833;0.00833;-9.99999;Australia
86141;SCONE SCS;-32.06667;150.93333;-999;0.00833;0.00833;-9.99999;Australia
86142;ROTTNEST ISLAND;-32.01667;115.5;-999;0.00833;0.00833;-9.99999;Australia
86143;BROKEN HILL (PATTON STRE;-31.98333;141.46667;-999;0.00833;0.00833;-9.99999;Australia
86144;PERTH AIRPORT;-31.93333;115.98333;-999;0.00833;0.00833;-9.99999;Australia
86145;TAREE (RADIO STATION 2RE;-31.9;152.48333;-999;0.00833;0.00833;-9.99999;Australia
86146;EUCLA;-31.68333;128.88333;-999;0.00833;0.00833;-9.99999;Australia
86147;CUNDERDIN;-31.66667;117.25;-999;0.00833;0.00833;-9.99999;Australia
86148;LORD HOWE ISLAND AERO;-31.53333;159.08333;-999;0.00833;0.00833;-9.99999;Australia
86149;COBAR MO;-31.48333;145.83333;-999;0.00833;0.00833;-9.99999;Australia
86150;PORT MACQUARIE (HILL ST);-31.43333;152.91667;-999;0.00833;0.00833;-9.99999;Australia
86151;WOOMERA AERODROME;-31.16667;136.81667;-999;0.00833;0.00833;-9.99999;Australia
86152;GUNNEDAH SCS;-31.03333;150.26667;-999;0.00833;0.00833;-9.99999;Australia
86153;FORREST;-30.85;128.11667;-999;0.00833;0.00833;-9.99999;Australia
86154;KALGOORLIE-BOULDER AIRPO;-30.78333;121.45;-999;0.00833;0.00833;-9.99999;Australia
86155;TARCOOLA AERO;-30.71667;134.58333;-999;0.00833;0.00833;-9.99999;Australia
86156;COFFS HARBOUR MO;-30.31667;153.11667;-999;0.00833;0.00833;-9.99999;Australia
86157;DALWALLINU COMPARISON;-30.28333;116.66667;-999;0.00833;0.00833;-9.99999;Australia
86158;INVERELL RESEARCH CENTRE;-29.78333;151.08333;-999;0.00833;0.00833;-9.99999;Australia
86159;MARREE;-29.65;138.06667;-999;0.00833;0.00833;-9.99999;Australia
86160;MOREE AERO;-29.48333;149.85;-999;0.00833;0.00833;-9.99999;Australia
86161;TIBOOBURRA POST OFFICE;-29.43333;142.01667;-999;0.00833;0.00833;-9.99999;Australia
86162;YAMBA PILOT STATION;-29.43333;153.36667;-999;0.00833;0.00833;-9.99999;Australia
86163;NORFOLK ISLAND AERO;-29.03333;167.93333;-999;0.00833;0.00833;-9.99999;Australia
86164;GERALDTON AIRPORT;-28.8;114.7;-999;0.00833;0.00833;-9.99999;Australia
86165;ST GEORGE AIRPORT;-28.05;148.58333;-999;0.00833;0.00833;-9.99999;Australia
86166;THARGOMINDAH POST OFFICE;-28;143.81667;-999;0.00833;0.00833;-9.99999;Australia
86167;AMBERLEY AMO;-27.63333;152.71667;-999;0.00833;0.00833;-9.99999;Australia
86168;OODNADATTA AIRPORT;-27.56667;135.45;-999;0.00833;0.00833;-9.99999;Australia
86169;BRISBANE AERO;-27.38333;153.13333;-999;0.00833;0.00833;-9.99999;Australia
86170;MILES POST OFFICE;-26.66667;150.18333;-999;0.00833;0.00833;-9.99999;Australia
86171;MEEKATHARRA AIRPORT;-26.61667;118.53333;-999;0.00833;0.00833;-9.99999;Australia
86172;CHARLEVILLE AERO;-26.41667;146.26667;-999;0.00833;0.00833;-9.99999;Australia
86173;TEWANTIN RSL PARK;-26.38333;153.03333;-999;0.00833;0.00833;-9.99999;Australia
86174;BIRDSVILLE POLICE STATIO;-25.9;139.35;-999;0.00833;0.00833;-9.99999;Australia
86175;GILES METEOROLOGICAL OFF;-25.03333;128.3;-999;0.00833;0.00833;-9.99999;Australia
86176;CARNARVON AIRPORT;-24.88333;113.66667;-999;0.00833;0.00833;-9.99999;Australia
86177;GLADSTONE RADAR;-23.86667;151.26667;-999;0.00833;0.00833;-9.99999;Australia
86178;ALICE SPRINGS AIRPORT;-23.8;133.88333;-999;0.00833;0.00833;-9.99999;Australia
86179;LONGREACH AERO;-23.43333;144.28333;-999;0.00833;0.00833;-9.99999;Australia
86180;NEWMAN AERO;-23.41667;119.8;-999;0.00833;0.00833;-9.99999;Australia
86181;ROCKHAMPTON AERO;-23.38333;150.48333;-999;0.00833;0.00833;-9.99999;Australia
86182;WINTON POST OFFICE;-22.38333;143.03333;-999;0.00833;0.00833;-9.99999;Australia
86183;LEARMONTH AIRPORT;-22.23333;114.1;-999;0.00833;0.00833;-9.99999;Australia
86184;WITTENOOM;-22.23333;118.33333;-999;0.00833;0.00833;-9.99999;Australia
86185;MACKAY MO;-21.11667;149.21667;-999;0.00833;0.00833;-9.99999;Australia
86186;RICHMOND POST OFFICE;-20.73333;143.13333;-999;0.00833;0.00833;-9.99999;Australia
86187;MOUNT ISA AERO;-20.68333;139.48333;-999;0.00833;0.00833;-9.99999;Australia
86188;PORT HEDLAND AIRPORT;-20.36667;118.63333;-999;0.00833;0.00833;-9.99999;Australia
86189;RABBIT FLAT;-20.18333;130.01667;-999;0.00833;0.00833;-9.99999;Australia
86190;TENNANT CREEK AIRPORT;-19.63333;134.18333;-999;0.00833;0.00833;-9.99999;Australia
86191;TOWNSVILLE AERO;-19.25;146.76667;-999;0.00833;0.00833;-9.99999;Australia
86192;GEORGETOWN POST OFFICE;-18.28333;143.55;-999;0.00833;0.00833;-9.99999;Australia
86193;HALLS CREEK AIRPORT;-18.23333;127.66667;-999;0.00833;0.00833;-9.99999;Australia
86194;BROOME AIRPORT;-17.95;122.23333;-999;0.00833;0.00833;-9.99999;Australia
86195;BURKETOWN POST OFFICE;-17.73333;139.55;-999;0.00833;0.00833;-9.99999;Australia
86196;CAIRNS AERO;-16.86667;145.75;-999;0.00833;0.00833;-9.99999;Australia
86197;WILLIS ISLAND;-16.28333;149.96667;-999;0.00833;0.00833;-9.99999;Australia
86198;TINDAL RAAF;-14.51667;132.38333;-999;0.00833;0.00833;-9.99999;Australia
86199;KALUMBURU MISSION;-14.3;126.63333;-999;0.00833;0.00833;-9.99999;Australia
86200;WEIPA AERO;-12.68333;141.91667;-999;0.00833;0.00833;-9.99999;Australia
86201;DARWIN AIRPORT;-12.41667;130.88333;-999;0.00833;0.00833;-9.99999;Australia
86202;GOVE AIRPORT;-12.26667;136.81667;-999;0.00833;0.00833;-9.99999;Australia
86203;COCOS ISLAND AIRPORT;-12.18333;96.83333;-999;0.00833;0.00833;-9.99999;Australia
86204;CHRISTMAS ISLAND AERO;-10.45;105.68333;-999;0.00833;0.00833;-9.99999;Australia
86205;KLAGENFURT-FLUGHAFEN;46.65;14.31667;-999;0.00833;0.00833;-9.99999;Austria
86206;GRAZ-THALERHOF;46.98333;15.45;-999;0.00833;0.00833;-9.99999;Austria
86207;SONNBLICK;47.05;12.95;-999;0.00833;0.00833;-9.99999;Austria
86208;INNSBRUCK-FLUGHAFEN;47.26667;11.35;-999;0.00833;0.00833;-9.99999;Austria
86209;SALZBURG-FLUGHAFEN;47.8;13;-999;0.00833;0.00833;-9.99999;Austria
86210;ST. POELTEN;48.18333;15.61667;-999;0.00833;0.00833;-9.99999;Austria
86211;WIEN/HOHE WARTE;48.25;16.35;-999;0.00833;0.00833;-9.99999;Austria
86212;ASTARA;38.45;48.88333;-999;0.00833;0.00833;-9.99999;Azerbaijan
86213;MASHTAGA;40.53333;50;-999;0.00833;0.00833;-9.99999;Azerbaijan
86214;BAHRAIN INTL A;26.26667;50.65;-999;0.00833;0.00833;-9.99999;Bahrain
86215;TEKNAF;20.86667;92.3;-999;0.00833;0.00833;-9.99999;Bangladesh
86216;COX'S BAZAR;21.43333;91.96667;-999;0.00833;0.00833;-9.99999;Bangladesh
86217;KUTUBDIA;21.81667;91.85;-999;0.00833;0.00833;-9.99999;Bangladesh
86218;KHEPUPARA;21.98333;90.23333;-999;0.00833;0.00833;-9.99999;Bangladesh
86219;CHITTAGONG;22.26667;91.81667;-999;0.00833;0.00833;-9.99999;Bangladesh
86220;PATUAKHALI;22.33333;90.33333;-999;0.08333;0.08333;-9.99999;Bangladesh
86221;RANGAMATI;22.63333;92.15;-999;0.00833;0.00833;-9.99999;Bangladesh
86222;BHOLA;22.68333;90.65;-999;0.00833;0.00833;-9.99999;Bangladesh
86223;BARISAL;22.71667;90.36667;-999;0.00833;0.00833;-9.99999;Bangladesh
86224;SATKHIRA;22.73333;89.08333;-999;0.00833;0.00833;-9.99999;Bangladesh
86225;KHULNA;22.78333;89.53333;-999;0.00833;0.00833;-9.99999;Bangladesh
86226;MADARIPUR;23.16667;90.18333;-999;0.00833;0.00833;-9.99999;Bangladesh
86227;JESSORE;23.21667;89.21667;-999;0.00833;0.00833;-9.99999;Bangladesh
86228;CHANDPUR;23.23333;90.7;-999;0.00833;0.00833;-9.99999;Bangladesh
86229;COMILLA;23.43333;91.18333;-999;0.00833;0.00833;-9.99999;Bangladesh
86230;FARIDPUR;23.6;89.85;-999;0.00833;0.00833;-9.99999;Bangladesh
86231;CHUADANGA;23.65;88.81667;-999;0.00833;0.00833;-9.99999;Bangladesh
86232;DHAKA;23.76667;90.38333;-999;0.00833;0.00833;-9.99999;Bangladesh
86233;ISHURDI;24.13333;89.05;-999;0.00833;0.00833;-9.99999;Bangladesh
86234;TANGAIL;24.25;89.93333;-999;0.00833;0.00833;-9.99999;Bangladesh
86235;SRIMANGAL;24.3;91.73333;-999;0.00833;0.00833;-9.99999;Bangladesh
86236;RAJSHAHI;24.36667;88.7;-999;0.00833;0.00833;-9.99999;Bangladesh
86237;MYMENSINGH;24.73333;90.4;-999;0.00833;0.00833;-9.99999;Bangladesh
86238;BOGRA;24.85;89.36667;-999;0.00833;0.00833;-9.99999;Bangladesh
86239;SYLHET;24.9;91.88333;-999;0.00833;0.00833;-9.99999;Bangladesh
86240;DINAJPUR;25.65;88.68333;-999;0.00833;0.00833;-9.99999;Bangladesh
86241;RANGPUR;25.73333;89.23333;-999;0.00833;0.00833;-9.99999;Bangladesh
86242;GRANTLEY ADAMS AIRPORT;13.06667;-59.5;-999;0.00833;0.00833;-9.99999;Barbados
86243;BREST;52.11667;23.68333;-999;0.00833;0.00833;-9.99999;Belarus
86244;VASILEVICI;52.25;29.83333;-999;0.00833;0.00833;-9.99999;Belarus
86245;MINSK;53.93333;27.63333;-999;0.00833;0.00833;-9.99999;Belarus
86246;FLORENNES;50.23333;4.65;-999;0.00833;0.00833;-9.99999;Belgium and Luxemborg
86247;UCCLE(BRUSSELS);50.8;4.35;-999;0.00833;0.00833;-9.99999;Belgium and Luxemborg
86248;ZAVENTEM;50.88333;4.51667;-999;0.00833;0.00833;-9.99999;Belgium and Luxemborg
86249;KLEINE BROGEL;51.16667;5.46667;-999;0.00833;0.00833;-9.99999;Belgium and Luxemborg
86250;OOSTENDE AIRPORT;51.18333;2.86667;-999;0.00833;0.00833;-9.99999;Belgium and Luxemborg
86251;COTONOU;6.35;2.38333;-999;0.00833;0.00833;-9.99999;Benin
86252;BOHICON;7.16667;2.06667;-999;0.00833;0.00833;-9.99999;Benin
86253;SAVE;8.03333;2.46667;-999;0.00833;0.00833;-9.99999;Benin
86254;PARAKOU;9.35;2.61667;-999;0.00833;0.00833;-9.99999;Benin
86255;NATITINGOU;10.31667;1.38333;-999;0.00833;0.00833;-9.99999;Benin
86256;KANDI;11.13333;2.93333;-999;0.00833;0.00833;-9.99999;Benin
86257;MOSTAR;43.35;17.8;-999;0.00833;0.00833;-9.99999;Bosnia and Herzegovina
86258;SARAJEVO BJELAVE;43.86667;18.43333;-999;0.00833;0.00833;-9.99999;Bosnia and Herzegovina
86259;PORTO ALEGRE;-30.05;-51.16667;-999;0.00833;0.00833;-9.99999;Brazil
86260;SAO PAULO(M.DE SANTANA);-23.5;-46.61667;-999;0.00833;0.00833;-9.99999;Brazil
86261;RIO DE JANEIRO;-22.88333;-43.18333;-999;0.00833;0.00833;-9.99999;Brazil
86262;PRESIDENTE PRUDENTE;-22.11667;-51.38333;-999;0.00833;0.00833;-9.99999;Brazil
86263;JUIZ DE FORA;-21.76667;-43.35;-999;0.00833;0.00833;-9.99999;Brazil
86264;CAMPOS;-21.73333;-41.31667;-999;0.00833;0.00833;-9.99999;Brazil
86265;VICOSA;-20.75;-42.85;-999;0.00833;0.00833;-9.99999;Brazil
86266;CAMPO GRANDE;-20.43333;-54.71667;-999;0.00833;0.00833;-9.99999;Brazil
86267;VITORIA;-20.3;-40.31667;-999;0.00833;0.00833;-9.99999;Brazil
86268;UBERABA;-19.73333;-47.95;-999;0.00833;0.00833;-9.99999;Brazil
86269;SETE LAGOAS;-19.46667;-44.25;-999;0.00833;0.00833;-9.99999;Brazil
86270;LINHARES;-19.4;-40.06667;-999;0.00833;0.00833;-9.99999;Brazil
86271;CORUMBA;-19.01667;-57.65;-999;0.00833;0.00833;-9.99999;Brazil
86272;DIAMANTINA;-18.25;-43.6;-999;0.00833;0.00833;-9.99999;Brazil
86273;GOIANIA;-16.66667;-49.25;-999;0.00833;0.00833;-9.99999;Brazil
86274;CACERES;-16.05;-57.68333;-999;0.00833;0.00833;-9.99999;Brazil
86275;GOIAS;-15.91667;-50.13333;-999;0.00833;0.00833;-9.99999;Brazil
86276;BRASILIA;-15.78333;-47.93333;-999;0.00833;0.00833;-9.99999;Brazil
86277;CUIABA;-15.55;-56.11667;-999;0.00833;0.00833;-9.99999;Brazil
86278;PEIXE;-12.01667;-48.53333;-999;0.00833;0.00833;-9.99999;Brazil
86279;PORTO VELHO;-8.76667;-63.91667;-999;0.00833;0.00833;-9.99999;Brazil
86280;RECIFE (CURADO);-8.05;-34.95;-999;0.00833;0.00833;-9.99999;Brazil
86281;MARABA;-5.35;-49.15;-999;0.00833;0.00833;-9.99999;Brazil
86282;TERESINA;-5.08333;-42.81667;-999;0.00833;0.00833;-9.99999;Brazil
86283;MANAUS;-3.11667;-59.95;-999;0.00833;0.00833;-9.99999;Brazil
86284;PLOVDIV;42.06667;24.85;-999;0.00833;0.00833;-9.99999;Bulgaria
86285;BURGAS;42.48333;27.48333;-999;0.00833;0.00833;-9.99999;Bulgaria
86286;SOFIA;42.65;23.38333;-999;0.00833;0.00833;-9.99999;Bulgaria
86287;VRATZA;43.2;23.53333;-999;0.00833;0.00833;-9.99999;Bulgaria
86288;PLEVEN;43.41667;24.63333;-999;0.00833;0.00833;-9.99999;Bulgaria
86289;RAZGRAD;43.51667;26.51667;-999;0.00833;0.00833;-9.99999;Bulgaria
86290;KAWTHOUNG;9.96667;98.58333;-999;0.00833;0.00833;-9.99999;Burma / Myanmar
86291;DAWEI;14.1;98.21667;-999;0.00833;0.00833;-9.99999;Burma / Myanmar
86292;PATHEIN/PROME;16.76667;94.76667;-999;0.00833;0.00833;-9.99999;Burma / Myanmar
86293;SITTWE;20.13333;92.88333;-999;0.00833;0.00833;-9.99999;Burma / Myanmar
86294;MANDALAY;21.98333;96.1;-999;0.00833;0.00833;-9.99999;Burma / Myanmar
86295;MYITKYINA;25.36667;97.4;-999;0.00833;0.00833;-9.99999;Burma / Myanmar
86296;LONDON A;43.03333;-81.15;-999;0.00833;0.00833;-9.99999;Canada
86297;TORONTO PEARSON INT'L A;43.66667;-79.6;-999;0.00833;0.00833;-9.99999;Canada
86298;TORONTO;43.66667;-79.4;-999;0.00833;0.00833;-9.99999;Canada
86299;SABLE ISLAND;43.93333;-60;-999;0.00833;0.00833;-9.99999;Canada
86300;SHEARWATER A;44.63333;-63.5;-999;0.00833;0.00833;-9.99999;Canada
86301;MONTREAL/DORVAL INT'L A;45.46667;-73.75;-999;0.00833;0.00833;-9.99999;Canada
86302;FREDERICTON A;45.86667;-66.53333;-999;0.00833;0.00833;-9.99999;Canada
86303;GORE BAY A;45.88333;-82.56667;-999;0.00833;0.00833;-9.99999;Canada
86304;SYDNEY A;46.16667;-60.05;-999;0.00833;0.00833;-9.99999;Canada
86305;CHARLOTTETOWN A;46.28333;-63.11667;-999;0.00833;0.00833;-9.99999;Canada
86306;NORTH BAY A;46.35;-79.41667;-999;0.00833;0.00833;-9.99999;Canada
86307;MANIWAKI;46.36667;-75.95;-999;0.00833;0.00833;-9.99999;Canada
86308;SAULT STE MARIE A;46.48333;-84.5;-999;0.00833;0.00833;-9.99999;Canada
86309;SAINT-PIERRE;46.76667;-56.15;-999;0.00833;0.00833;-9.99999;Canada
86310;QUEBEC A;46.8;-71.38333;-999;0.00833;0.00833;-9.99999;Canada
86311;MIRAMICHI A;47.01667;-65.46667;-999;0.00833;0.00833;-9.99999;Canada
86312;ILES DE LA MADELEINE A;47.41667;-61.78333;-999;0.00833;0.00833;-9.99999;Canada
86313;ST JOHN'S A;47.61667;-52.73333;-999;0.00833;0.00833;-9.99999;Canada
86314;BAGOTVILLE A;48.33333;-71;-999;0.08333;0.08333;-9.99999;Canada
86315;THUNDER BAY A;48.36667;-89.31667;-999;0.00833;0.00833;-9.99999;Canada
86316;STEPHENVILLE A;48.53333;-58.55;-999;0.00833;0.00833;-9.99999;Canada
86317;VICTORIAL INT'L A;48.63333;-123.41667;-999;0.00833;0.00833;-9.99999;Canada
86318;GANDER INT'L A;48.93333;-54.56667;-999;0.00833;0.00833;-9.99999;Canada
86319;VANCOUVER INT'L A;49.18333;-123.18333;-999;0.00833;0.00833;-9.99999;Canada
86320;ESTEVAN A;49.21667;-102.96667;-999;0.00833;0.00833;-9.99999;Canada
86321;KAPUSKASING A;49.41667;-82.46667;-999;0.00833;0.00833;-9.99999;Canada
86322;LETHBRIDGE A;49.63333;-112.8;-999;0.00833;0.00833;-9.99999;Canada
86323;WINNIPEG INT'L A;49.91667;-97.23333;-999;0.00833;0.00833;-9.99999;Canada
86324;SIOUX LOOKOUT A;50.11667;-91.9;-999;0.00833;0.00833;-9.99999;Canada
86325;NATASHQUAN A;50.18333;-61.81667;-999;0.00833;0.00833;-9.99999;Canada
86326;SEPT-ILES A;50.21667;-66.26667;-999;0.00833;0.00833;-9.99999;Canada
86327;SWIFT CURRENT;50.26667;-107.73333;-999;0.00833;0.00833;-9.99999;Canada
86328;REGINA A;50.43333;-104.66667;-999;0.00833;0.00833;-9.99999;Canada
86329;PORT HARDY A;50.66667;-127.36667;-999;0.00833;0.00833;-9.99999;Canada
86330;KAMLOOPS A;50.7;-120.45;-999;0.00833;0.00833;-9.99999;Canada
86331;CALGARY INT'L A;51.11667;-114.01667;-999;0.00833;0.00833;-9.99999;Canada
86332;MOOSONEE;51.26667;-80.65;-999;0.00833;0.00833;-9.99999;Canada
86333;QUESNEL A;53.01667;-122.5;-999;0.00833;0.00833;-9.99999;Canada
86334;PRINCE ALBERT A;53.21667;-105.66667;-999;0.00833;0.00833;-9.99999;Canada
86335;EDMONTON INT'L A;53.31667;-113.58333;-999;0.00833;0.00833;-9.99999;Canada
86336;GOOSE A;53.31667;-60.41667;-999;0.00833;0.00833;-9.99999;Canada
86337;EDMONTON CITY CENTRE;53.56667;-113.51667;-999;0.00833;0.00833;-9.99999;Canada
86338;CARTWRIGHT;53.7;-57.03333;-999;0.00833;0.00833;-9.99999;Canada
86339;LA GRANDE IV A;53.75;-73.66667;-999;0.00833;0.00833;-9.99999;Canada
86340;PRINCE GEORGE A;53.88333;-122.66667;-999;0.00833;0.00833;-9.99999;Canada
86341;THE PAS A;53.96667;-101.1;-999;0.00833;0.00833;-9.99999;Canada
86342;LANGARA;54.25;-133.05;-999;0.00833;0.00833;-9.99999;Canada
86343;PRINCE RUPERT A;54.28333;-130.43333;-999;0.00833;0.00833;-9.99999;Canada
86344;COLD LAKE A;54.41667;-110.28333;-999;0.00833;0.00833;-9.99999;Canada
86345;SCHEFFERVILLE A;54.8;-66.81667;-999;0.00833;0.00833;-9.99999;Canada
86346;LA RONGE A;55.15;-105.26667;-999;0.00833;0.00833;-9.99999;Canada
86347;KUUJJUARAPIK A;55.28333;-77.75;-999;0.00833;0.00833;-9.99999;Canada
86348;THOMPSON A;55.8;-97.86667;-999;0.00833;0.00833;-9.99999;Canada
86349;FORT MCMURRAY A;56.65;-111.21667;-999;0.00833;0.00833;-9.99999;Canada
86350;LYNN LAKE A;56.86667;-101.08333;-999;0.00833;0.00833;-9.99999;Canada
86351;KUUJJUAQ A;58.1;-68.41667;-999;0.00833;0.00833;-9.99999;Canada
86352;INUKJUAK;58.46667;-78.08333;-999;0.00833;0.00833;-9.99999;Canada
86353;HIGH LEVEL A;58.61667;-117.16667;-999;0.00833;0.00833;-9.99999;Canada
86354;CHURCHILL A;58.73333;-94.05;-999;0.00833;0.00833;-9.99999;Canada
86355;FORT NELSON A;58.83333;-122.58333;-999;0.00833;0.00833;-9.99999;Canada
86356;FORT SMITH A;60.01667;-111.96667;-999;0.00833;0.00833;-9.99999;Canada
86357;WATSON LAKE A;60.11667;-128.81667;-999;0.00833;0.00833;-9.99999;Canada
86358;WHITEHORSE A;60.7;-135.06667;-999;0.00833;0.00833;-9.99999;Canada
86359;HAY RIVER A;60.83333;-115.76667;-999;0.00833;0.00833;-9.99999;Canada
86360;FORT SIMPSON A;61.76667;-121.23333;-999;0.00833;0.00833;-9.99999;Canada
86361;YELLOWKNIFE A;62.46667;-114.43333;-999;0.00833;0.00833;-9.99999;Canada
86362;MAYO A;63.61667;-135.86667;-999;0.00833;0.00833;-9.99999;Canada
86363;IQALUIT A;63.75;-68.55;-999;0.00833;0.00833;-9.99999;Canada
86364;CORAL HARBOUR A;64.2;-83.36667;-999;0.00833;0.00833;-9.99999;Canada
86365;BAKER LAKE A;64.3;-96.06667;-999;0.00833;0.00833;-9.99999;Canada
86366;NORMAN WELLS A;65.28333;-126.8;-999;0.00833;0.00833;-9.99999;Canada
86367;PANGNIRTUNG;66.15;-65.71667;-999;0.00833;0.00833;-9.99999;Canada
86368;KUGLUKTUK A;67.81667;-115.13333;-999;0.00833;0.00833;-9.99999;Canada
86369;INUVIK A;68.3;-133.48333;-999;0.00833;0.00833;-9.99999;Canada
86370;HALL BEACH A;68.76667;-81.23333;-999;0.00833;0.00833;-9.99999;Canada
86371;CAMBRIDGE BAY A;69.1;-105.13333;-999;0.00833;0.00833;-9.99999;Canada
86372;CLYDE A;70.48333;-68.51667;-999;0.00833;0.00833;-9.99999;Canada
86373;RESOLUTE;74.71667;-94.98333;-999;0.00833;0.00833;-9.99999;Canada
86374;MOULD BAY A;76.23333;-119.33333;-999;0.00833;0.00833;-9.99999;Canada
86375;EUREKA;79.98333;-85.93333;-999;0.00833;0.00833;-9.99999;Canada
86376;ALERT;82.51667;-62.28333;-999;0.00833;0.00833;-9.99999;Canada
86377;PRAIA;14.91667;-23.5;-999;0.00833;0.00833;-9.99999;Cape Verde
86378;SAL;16.73333;-22.95;-999;0.00833;0.00833;-9.99999;Cape Verde
86379;PUNTA ARENAS IBANEZ;-53;-70.85;-999;0.00833;0.00833;-9.99999;Chile
86380;BALMACEDA;-45.9;-71.71667;-999;0.00833;0.00833;-9.99999;Chile
86381;COYHAIQUE TENIENTE VIDAL;-45.58333;-72.11667;-999;0.00833;0.00833;-9.99999;Chile
86382;PUERTO MONTT EL TEPUAL;-41.43333;-73.11667;-999;0.00833;0.00833;-9.99999;Chile
86383;OSORNO CANAL BAJO;-40.6;-73.06667;-999;0.00833;0.00833;-9.99999;Chile
86384;VALDIVIA PICHOY;-39.63333;-73.08333;-999;0.00833;0.00833;-9.99999;Chile
86385;TEMUCO MAQUEHUE;-38.75;-72.63333;-999;0.00833;0.00833;-9.99999;Chile
86386;CONCEPCION CARRIEL SUR;-36.76667;-73.05;-999;0.00833;0.00833;-9.99999;Chile
86387;CHILLAN OHIGGINS;-36.56667;-72.03333;-999;0.00833;0.00833;-9.99999;Chile
86388;CURICO GENERAL FREIRE;-34.96667;-71.23333;-999;0.00833;0.00833;-9.99999;Chile
86389;JUAN FERNANDEZ;-33.66667;-78.98333;-999;0.00833;0.00833;-9.99999;Chile
86390;SANTIAGO QUINTA NORMAL;-33.43333;-70.68333;-999;0.00833;0.00833;-9.99999;Chile
86391;SANTIAGO PUDAHUEL;-33.38333;-70.75;-999;0.00833;0.00833;-9.99999;Chile
86392;LA SERENA LA FLORIDA;-29.9;-71.33333;-999;0.00833;0.00833;-9.99999;Chile
86393;ANTOFAGASTA CERRO MORENO;-23.43333;-70.43333;-999;0.00833;0.00833;-9.99999;Chile
86394;IQUIQUE DIEGO ARACENA;-20.53333;-70.18333;-999;0.00833;0.00833;-9.99999;Chile
86395;ARICA CHACALLUTA;-18.33333;-70.33333;-999;0.08333;0.08333;-9.99999;Chile
86396;MACAO;22.16667;113.56667;-999;0.00833;0.00833;-9.99999;China
86397;NANNING;22.63333;108.21667;-999;0.00833;0.00833;-9.99999;China
86398;GUANGZHOU;23.13333;113.33333;-999;0.00833;0.00833;-9.99999;China
86399;SHANTAO;23.4;116.68333;-999;0.00833;0.00833;-9.99999;China
86400;TENGCHONG;25.01667;98.5;-999;0.00833;0.00833;-9.99999;China
86401;KUMMING;25.01667;102.68333;-999;0.00833;0.00833;-9.99999;China
86402;GANZHOU;25.85;114.95;-999;0.00833;0.00833;-9.99999;China
86403;ZHIJIANG;27.45;109.68333;-999;0.00833;0.00833;-9.99999;China
86404;XICHANG;27.9;102.26667;-999;0.00833;0.00833;-9.99999;China
86405;NANCHANG;28.6;115.91667;-999;0.00833;0.00833;-9.99999;China
86406;LASHA;29.66667;91.13333;-999;0.00833;0.00833;-9.99999;China
86407;CHENGDU;30.66667;104.01667;-999;0.00833;0.00833;-9.99999;China
86408;YICHANG;30.7;111.3;-999;0.00833;0.00833;-9.99999;China
86409;CHANGDU;31.15;97.16667;-999;0.00833;0.00833;-9.99999;China
86410;XI'AN;34.3;108.93333;-999;0.00833;0.00833;-9.99999;China
86411;ZHENGZHOU;34.71667;113.65;-999;0.00833;0.00833;-9.99999;China
86412;LANZHOU;36.05;103.88333;-999;0.00833;0.00833;-9.99999;China
86413;QINGDAO;36.06667;120.33333;-999;0.00833;0.00833;-9.99999;China
86414;HETIAN;37.13333;79.93333;-999;0.00833;0.00833;-9.99999;China
86415;TAIYUAN;37.78333;112.55;-999;0.00833;0.00833;-9.99999;China
86416;YINCHUAN;38.48333;106.21667;-999;0.00833;0.00833;-9.99999;China
86417;ROUJIANG;39.03333;88.16667;-999;0.00833;0.00833;-9.99999;China
86418;KASHI;39.46667;75.98333;-999;0.00833;0.00833;-9.99999;China
86419;JIUQUAN;39.76667;98.48333;-999;0.00833;0.00833;-9.99999;China
86420;BEIJING;39.8;116.46667;-999;0.00833;0.00833;-9.99999;China
86421;SHENGYANG;41.73333;123.78333;-999;0.00833;0.00833;-9.99999;China
86422;HAMI;42.81667;93.51667;-999;0.00833;0.00833;-9.99999;China
86423;YANJI;42.88333;129.46667;-999;0.00833;0.00833;-9.99999;China
86424;ERLIANHAOTE;43.65;111.96667;-999;0.00833;0.00833;-9.99999;China
86425;YINING;43.95;81.33333;-999;0.00833;0.00833;-9.99999;China
86426;QIQIHA'ER;47.38333;123.91667;-999;0.00833;0.00833;-9.99999;China
86427;ALETAI;47.73333;88.08333;-999;0.00833;0.00833;-9.99999;China
86428;HAILA'ER;49.21667;119.75;-999;0.00833;0.00833;-9.99999;China
86429;VASQUEZ COBO AIRPORT;-4.15;-69.95;-999;0.00833;0.00833;-9.99999;Colombia
86430;SAN LUIS AIRPORT;0.85;-77.68333;-999;0.00833;0.00833;-9.99999;Colombia
86431;ANTONIO NARINO AIRPORT;1.4;-77.28333;-999;0.00833;0.00833;-9.99999;Colombia
86432;BENITO SALAS AIRPORT;2.96667;-75.3;-999;0.00833;0.00833;-9.99999;Colombia
86433;BONILLA ARAGON AIRPORT;3.55;-76.38333;-999;0.00833;0.00833;-9.99999;Colombia
86434;VANGUARDIA AIRPORT;4.16667;-73.61667;-999;0.00833;0.00833;-9.99999;Colombia
86435;LAS GAVIOTAS;4.55;-70.91667;-999;0.00833;0.00833;-9.99999;Colombia
86436;ELDORADO AIRPORT;4.71667;-74.15;-999;0.00833;0.00833;-9.99999;Colombia
86437;OLAYA HERRERA AIRPORT;6.21667;-75.58333;-999;0.00833;0.00833;-9.99999;Colombia
86438;YARIGUIES AIRPORT;7.01667;-73.8;-999;0.00833;0.00833;-9.99999;Colombia
86439;BLONAY;7.58333;-72.6;-999;0.00833;0.00833;-9.99999;Colombia
86440;CAMILO DAZA AIRPORT;7.93333;-72.51667;-999;0.00833;0.00833;-9.99999;Colombia
86441;RAFAEL NUNEZ AIRPORT;10.45;-75.51667;-999;0.00833;0.00833;-9.99999;Colombia
86442;ERNESTO CORTISSOZ AIRPOR;10.88333;-74.78333;-999;0.00833;0.00833;-9.99999;Colombia
86443;SESQUICENTENARIO AIRPORT;12.58333;-81.71667;-999;0.00833;0.00833;-9.99999;Colombia
86444;DZAOUZI;-12.8;45.28333;-999;0.00833;0.00833;-9.99999;Comoros
86445;POINTE NOIRE;-4.81667;11.9;-999;0.00833;0.00833;-9.99999;Congo
86446;BRAZZAVILLE/MAYA-MAYA;-4.25;15.25;-999;0.00833;0.00833;-9.99999;Congo
86447;DOLISIE;-4.2;12.7;-999;0.00833;0.00833;-9.99999;Congo
86448;MOUYONDZI;-4;13.95;-999;0.00833;0.00833;-9.99999;Congo
86449;MAKABANA;-3.48333;12.61667;-999;0.00833;0.00833;-9.99999;Congo
86450;MPOUYA;-2.61667;16.21667;-999;0.00833;0.00833;-9.99999;Congo
86451;DJAMBALA;-2.53333;14.76667;-999;0.00833;0.00833;-9.99999;Congo
86452;GAMBOMA;-1.9;15.85;-999;0.00833;0.00833;-9.99999;Congo
86453;MAKOUA;-0.01667;15.58333;-999;0.00833;0.00833;-9.99999;Congo
86454;OUESSO;1.61667;16.06667;-999;0.00833;0.00833;-9.99999;Congo
86455;IMPFONDO;1.61667;18.06667;-999;0.00833;0.00833;-9.99999;Congo
86456;SOUANKE;2.06667;14.05;-999;0.00833;0.00833;-9.99999;Congo
86457;LIMON;9.95;-83.01667;-999;0.00833;0.00833;-9.99999;Costa Rica
86458;AEROP JUAN SANTAMARIA;10;-84.2;-999;0.00833;0.00833;-9.99999;Costa Rica
86459;LIBERIA - LLANO GRANDE;10.6;-85.53333;-999;0.00833;0.00833;-9.99999;Costa Rica
86460;TABOU - AERO;4.41667;-7.36667;-999;0.00833;0.00833;-9.99999;Cote D'Ivoire
86461;SAN PEDRO - AERO;4.75;-6.65;-999;0.00833;0.00833;-9.99999;Cote D'Ivoire
86462;SASSANDRA;4.95;-6.08333;-999;0.00833;0.00833;-9.99999;Cote D'Ivoire
86463;ABIDJAN - AERO;5.25;-3.93333;-999;0.00833;0.00833;-9.99999;Cote D'Ivoire
86464;ADIAKE;5.3;-3.3;-999;0.00833;0.00833;-9.99999;Cote D'Ivoire
86465;GAGNOA;6.13333;-5.95;-999;0.00833;0.00833;-9.99999;Cote D'Ivoire
86466;DIMBOKRO;6.65;-4.7;-999;0.00833;0.00833;-9.99999;Cote D'Ivoire
86467;DALOA AERO;6.86667;-6.46667;-999;0.00833;0.00833;-9.99999;Cote D'Ivoire
86468;YAMOUSSOUKRO-A;6.9;-5.35;-999;0.00833;0.00833;-9.99999;Cote D'Ivoire
86469;MAN-AERO;7.4;-7.51667;-999;0.00833;0.00833;-9.99999;Cote D'Ivoire
86470;BOUAKE - AERO;7.73333;-5.06667;-999;0.00833;0.00833;-9.99999;Cote D'Ivoire
86471;BONDOUKOU;8.05;-2.78333;-999;0.00833;0.00833;-9.99999;Cote D'Ivoire
86472;KORHOGO-AERO;9.41667;-5.61667;-999;0.00833;0.00833;-9.99999;Cote D'Ivoire
86473;ODIENNE AERO;9.5;-7.56667;-999;0.00833;0.00833;-9.99999;Cote D'Ivoire
86474;SPLIT MARJAN;43.51667;16.43333;-999;0.00833;0.00833;-9.99999;Croatia
86475;ZAGREB GRIC;45.81667;15.98333;-999;0.00833;0.00833;-9.99999;Croatia
86476;PAFOS AIRPORT;34.71667;32.48333;-999;0.00833;0.00833;-9.99999;Cyprus
86477;LARNAKA AIRPORT;34.88333;33.63333;-999;0.00833;0.00833;-9.99999;Cyprus
86478;ATHALASSA RADIOSONDE;35.15;33.4;-999;0.00833;0.00833;-9.99999;Cyprus
86479;LEFKOSIA;35.16667;33.35;-999;0.00833;0.00833;-9.99999;Cyprus
86480;MOSNOV (AIRPORT OSTRAVA);41.7;18.11667;-999;0.00833;0.00833;-9.99999;Czech Republic
86481;BRNO - TURANY AIRPORT;49.16667;16.7;-999;0.00833;0.00833;-9.99999;Czech Republic
86482;CHEB;50.06667;12.38333;-999;0.00833;0.00833;-9.99999;Czech Republic
86483;PRAGUE - RUZYNE AIRPORT;50.1;14.25;-999;0.00833;0.00833;-9.99999;Czech Republic
86484;RONNE;55.06667;14.75;-999;0.00833;0.00833;-9.99999;Denmark
86485;COPENHAGEN;55.68333;12.55;-999;0.00833;0.00833;-9.99999;Denmark
86486;AALBORG;57.1;9.85;-999;0.00833;0.00833;-9.99999;Denmark
86487;CANEFIELD AIRPORT;15.38333;-61.4;-999;0.00833;0.00833;-9.99999;Dominica
86488;MELVILLE HALL AIRPORT;15.53333;-61.3;-999;0.00833;0.00833;-9.99999;Dominica
86489;LOJA LA ARGELIA;-4.03333;-79.2;-999;0.00833;0.00833;-9.99999;Ecuador
86490;CAAR;-2.55;-78.93333;-999;0.00833;0.00833;-9.99999;Ecuador
86491;GUAYAQUIL SIMON BOLIVAR;-2.15;-79.88333;-999;0.00833;0.00833;-9.99999;Ecuador
86492;PUYO;-1.5;-77.93333;-999;0.00833;0.00833;-9.99999;Ecuador
86493;PICHILINGUE;-1.1;-79.45;-999;0.00833;0.00833;-9.99999;Ecuador
86494;PORTOVIEJO;-1.03333;-80.45;-999;0.00833;0.00833;-9.99999;Ecuador
86495;RUMIPAMBA;-1.01667;-78.58333;-999;0.00833;0.00833;-9.99999;Ecuador
86496;NUEVO ROCAFUERTE;-0.91667;-75.41667;-999;0.00833;0.00833;-9.99999;Ecuador
86497;SAN CRISTOBAL GALAPAGOS;-0.9;-89.6;-999;0.00833;0.00833;-9.99999;Ecuador
86498;MILAGRO;-0.43333;-79.58333;-999;0.00833;0.00833;-9.99999;Ecuador
86499;IZOBAMBA;-0.36667;-78.55;-999;0.00833;0.00833;-9.99999;Ecuador
86500;QUITO MARISCAL SUCRE;-0.13333;-78.48333;-999;0.00833;0.00833;-9.99999;Ecuador
86501;LA CONCORDIA;0.01667;-79.36667;-999;0.00833;0.00833;-9.99999;Ecuador
86502;TULCAN EL ROSAL;0.8;-77.7;-999;0.00833;0.00833;-9.99999;Ecuador
86503;VORU;57.85;-27.01667;-999;0.00833;0.00833;-9.99999;Estonia
86504;TALLINN;59.38333;24.58333;-999;0.00833;0.00833;-9.99999;Estonia
86505;TORSHAVN;62.01667;-6.76667;-999;0.00833;0.00833;-9.99999;Faroe Islands
86506;ONO-I-LAU MANUAL;-20.66667;-178.71667;-999;0.00833;0.00833;-9.99999;Fiji
86507;VUNISEA - KADAVU;-19.05;178.16667;-999;0.00833;0.00833;-9.99999;Fiji
86508;NAUSORI AIRPORT;-18.03333;178.55;-999;0.00833;0.00833;-9.99999;Fiji
86509;NADI AIRPORT;-17.75;177.43333;-999;0.00833;0.00833;-9.99999;Fiji
86510;UDU POINT MANUAL;-16.13333;-179.98333;-999;0.00833;0.00833;-9.99999;Fiji
86511;ROTUMA;-12.5;177.05;-999;0.00833;0.00833;-9.99999;Fiji
86512;HELSINKI-VANTAA AIRPORT;60.33333;24.96667;-999;0.00833;0.00833;-9.99999;Finland
86513;TURKU AIRPORT;60.51667;22.28333;-999;0.00833;0.00833;-9.99999;Finland
86514;JOKIOINEN OBSERVATORY;60.81667;23.5;-999;0.00833;0.00833;-9.99999;Finland
86515;JYVAESKYLAE AIRPORT;62.4;25.68333;-999;0.00833;0.00833;-9.99999;Finland
86516;KAJAANI AIRPORT;64.28333;27.68333;-999;0.00833;0.00833;-9.99999;Finland
86517;SODANKYLAE OBSERVATORY;67.36667;26.63333;-999;0.00833;0.00833;-9.99999;Finland
86518;AJACCIO;41.91667;84.8;-999;0.00833;0.00833;-9.99999;France
86519;PERPIGNAN;42.73333;25.41667;-999;0.00833;0.00833;-9.99999;France
86520;MARIGNANE;43.43333;51.6;-999;0.00833;0.00833;-9.99999;France
86521;TOULOUSE-BLAGNAC;43.61667;12.45;-999;0.00833;0.00833;-9.99999;France
86522;NICE;43.65;71.33333;-999;0.00833;0.00833;-9.99999;France
86523;NIMES-COURBESSAC;43.85;42.73333;-999;0.00833;0.00833;-9.99999;France
86524;BORDEAUX-MERIGNAC;44.81667;-4.25;-999;0.00833;0.00833;-9.99999;France
86525;LYON-BRON;45.71667;45.61667;-999;0.00833;0.00833;-9.99999;France
86526;BOURGES;47.06667;22.33333;-999;0.00833;0.00833;-9.99999;France
86527;NANTES-BOUGUENAIS;47.15;-13.65;-999;0.00833;0.00833;-9.99999;France
86528;DIJON-LONGVIC;47.26667;50.91667;-999;0.00833;0.00833;-9.99999;France
86529;RENNES-ST JACQUES;48.06667;-14.6;-999;0.00833;0.00833;-9.99999;France
86530;BREST-GUIPAVAS;48.43333;-42.76667;-999;0.00833;0.00833;-9.99999;France
86531;STRASBOURG-ENTZHEIM;48.53333;73.83333;-999;0.00833;0.00833;-9.99999;France
86532;NANCY-ESSEY;48.68333;61.53333;-999;0.00833;0.00833;-9.99999;France
86533;LE BOURGET;48.96667;22.91667;-999;0.00833;0.00833;-9.99999;France
86534;LILLE-LESQUIN;50.56667;30.91667;-999;0.00833;0.00833;-9.99999;France
86535;MARIPASOULA;3.13333;-54.03333;-999;0.00833;0.00833;-9.99999;French Guiana [France]
86536;SAINT-GEORGES L'OYAPOCK;3.88333;-51.8;-999;0.00833;0.00833;-9.99999;French Guiana [France]
86537;ROCHAMBEAU;4.83333;-52.36667;-999;0.00833;0.00833;-9.99999;French Guiana [France]
86538;KOUROU;5.2;-52.4;-999;0.00833;0.00833;-9.99999;French Guiana [France]
86539;SAINT-LAURENT MARONI;5.5;-54.03333;-999;0.00833;0.00833;-9.99999;French Guiana [France]
86540;TAHITI-FAAA;-17.55;-149.6;-999;0.00833;0.00833;-9.99999;French Polynesia [France]
86541;TBILISI AIRPORT;41.68333;44.95;-999;0.00833;0.00833;-9.99999;Georgia
86542;SAMTREDIA;42.16667;42.41667;-999;0.00833;0.00833;-9.99999;Georgia
86543;ZUGSPITZE;47.41667;10.98333;-999;0.00833;0.00833;-9.99999;Germany
86544;HOHENPEISSENBERG;47.8;11.01667;-999;0.00833;0.00833;-9.99999;Germany
86545;MUENCHEN - FLUGHAFEN;48.36667;11.8;-999;0.00833;0.00833;-9.99999;Germany
86546;STUTTGART-ECHTERDINGEN;48.68333;9.23333;-999;0.00833;0.00833;-9.99999;Germany
86547;SAARBRUECKEN;49.21667;7.11667;-999;0.00833;0.00833;-9.99999;Germany
86548;NUERNBERG;49.5;11.08333;-999;0.00833;0.00833;-9.99999;Germany
86549;TRIER-PETRISBERG;49.75;6.66667;-999;0.00833;0.00833;-9.99999;Germany
86550;GEISENHEIM;49.98333;7.95;-999;0.00833;0.00833;-9.99999;Germany
86551;FRANKFURT/M.;50.05;8.6;-999;0.00833;0.00833;-9.99999;Germany
86552;FICHTELBERG;50.43333;12.95;-999;0.00833;0.00833;-9.99999;Germany
86553;ERFURT;50.98333;10.96667;-999;0.00833;0.00833;-9.99999;Germany
86554;DRESDEN-KLOTZSCHE;51.13333;13.75;-999;0.00833;0.00833;-9.99999;Germany
86555;GOERLITZ;51.16667;14.95;-999;0.00833;0.00833;-9.99999;Germany
86556;KASSEL;51.3;9.45;-999;0.00833;0.00833;-9.99999;Germany
86557;ESSEN;51.4;6.96667;-999;0.00833;0.00833;-9.99999;Germany
86558;LEIPZIG-SCHKEUDITZ;51.43333;12.41667;-999;0.00833;0.00833;-9.99999;Germany
86559;BROCKEN;51.8;10.61667;-999;0.00833;0.00833;-9.99999;Germany
86560;MAGDEBURG;52.1;11.58333;-999;0.00833;0.00833;-9.99999;Germany
86561;LINDENBERG;52.21667;14.11667;-999;0.00833;0.00833;-9.99999;Germany
86562;POTSDAM;52.38333;13.06667;-999;0.00833;0.00833;-9.99999;Germany
86563;HANNOVER;52.46667;9.68333;-999;0.00833;0.00833;-9.99999;Germany
86564;BERLIN-DAHLEM;52.46667;13.3;-999;0.00833;0.00833;-9.99999;Germany
86565;BERLIN-TEMPELHOF;52.46667;13.4;-999;0.00833;0.00833;-9.99999;Germany
86566;EMDEN-NESSERLAND;53.35;7.2;-999;0.00833;0.00833;-9.99999;Germany
86567;HAMBURG-FUHLSBUETTEL;53.63333;10;-999;0.00833;0.00833;-9.99999;Germany
86568;GREIFSWALD;54.1;13.4;-999;0.00833;0.00833;-9.99999;Germany
86569;ROSTOCK-WARNEMUENDE;54.18333;12.08333;-999;0.00833;0.00833;-9.99999;Germany
86570;SCHLESWIG;54.53333;9.55;-999;0.00833;0.00833;-9.99999;Germany
86571;HERAKLIO/CRETE;35.33333;25.18333;-999;0.00833;0.00833;-9.99999;Greece
86572;METHONI;36.83333;21.71667;-999;0.00833;0.00833;-9.99999;Greece
86573;KALAMATA;37.06667;22.01667;-999;0.00833;0.00833;-9.99999;Greece
86574;SAMOS/AEGEAN ISLAND;37.7;26.9;-999;0.00833;0.00833;-9.99999;Greece
86575;ZAKYNTHOS/IONIAN ISLAND;37.78333;20.9;-999;0.00833;0.00833;-9.99999;Greece
86576;ATHINAI/AIRPORT;37.9;23.73333;-999;0.00833;0.00833;-9.99999;Greece
86577;ATHINAI/OBSERVATORY;37.96667;23.71667;-999;0.00833;0.00833;-9.99999;Greece
86578;ARAXOS;38.16667;21.41667;-999;0.00833;0.00833;-9.99999;Greece
86579;KERKYRA/CORFU;39.61667;19.91667;-999;0.00833;0.00833;-9.99999;Greece
86580;LARISSA;39.63333;22.41667;-999;0.00833;0.00833;-9.99999;Greece
86581;LIMNOS/AEGEAN ISLAND;39.91667;25.23333;-999;0.00833;0.00833;-9.99999;Greece
86582;THESSALONIKI/MACEDONIA;40.51667;22.96667;-999;0.00833;0.00833;-9.99999;Greece
86583;NUUK;64.16667;-51.75;-999;0.00833;0.00833;-9.99999;Greenland [Denmark]
86584;TASIILAQ;65.6;-37.63333;-999;0.00833;0.00833;-9.99999;Greenland [Denmark]
86585;AASIAAT;68.7;-52.85;-999;0.00833;0.00833;-9.99999;Greenland [Denmark]
86586;ITTOQQORTOORMIIT;70.48333;-21.95;-999;0.00833;0.00833;-9.99999;Greenland [Denmark]
86587;DANMARKSHAVN;76.76667;-18.66667;-999;0.00833;0.00833;-9.99999;Greenland [Denmark]
86588;LE RAIZET;16.25;-61.51667;-999;0.00833;0.00833;-9.99999;Guadeloupe [France]
86589;BOLAMA;11.58333;-15.48333;-999;0.00833;0.00833;-9.99999;Guinea-Bissau
86590;BISSAU/AEROPORTO;11.86667;-15.6;-999;0.00833;0.00833;-9.99999;Guinea-Bissau
86591;GEORGETOWN BOT. GARDENS;6.8;-58.13333;-999;0.00833;0.00833;-9.99999;Guyana
86592;DAMIEN;49.26667;-72.28333;-999;0.00833;0.00833;-9.99999;Haiti
86593;PECS;46;18.23333;-999;0.00833;0.00833;-9.99999;Hungary
86594;SZEGED;46.25;20.08333;-999;0.00833;0.00833;-9.99999;Hungary
86595;BUDAPEST;47.43333;19.18333;-999;0.00833;0.00833;-9.99999;Hungary
86596;DEBRECEN;47.48333;21.61667;-999;0.00833;0.00833;-9.99999;Hungary
86597;BUDAPEST;47.51667;19.03333;-999;0.00833;0.00833;-9.99999;Hungary
86598;MISKOLC;48.1;20.76667;-999;0.00833;0.00833;-9.99999;Hungary
86599;STORHOFDI;63.4;-20.28333;-999;0.00833;0.00833;-9.99999;Iceland
86600;KEFLAVIK AIRPORT;63.96667;-22.58333;-999;0.00833;0.00833;-9.99999;Iceland
86601;REYKJAVIK;64.13333;-21.9;-999;0.00833;0.00833;-9.99999;Iceland
86602;AKURNES;64.31667;-15.21667;-999;0.00833;0.00833;-9.99999;Iceland
86603;TEIGARHORN;64.68333;-14.35;-999;0.00833;0.00833;-9.99999;Iceland
86604;STYKKISHOLMUR;65.06667;-22.73333;-999;0.00833;0.00833;-9.99999;Iceland
86605;AKUREYRI;65.68333;-18.1;-999;0.00833;0.00833;-9.99999;Iceland
86606;GRIMSEY;66.53333;-18.01667;-999;0.00833;0.00833;-9.99999;Iceland
86607;MINICOY;8.3;73.15;-999;0.00833;0.00833;-9.99999;India
86608;THIRUVANANTHAPURAM;8.48333;76.95;-999;0.00833;0.00833;-9.99999;India
86609;PAMBAN;9.26667;79.3;-999;0.00833;0.00833;-9.99999;India
86610;KODAIKANAL;10.23333;77.46667;-999;0.00833;0.00833;-9.99999;India
86611;KOZHIKODE(CALICUT);11.25;75.78333;-999;0.00833;0.00833;-9.99999;India
86612;SALEM;11.65;78.16667;-999;0.00833;0.00833;-9.99999;India
86613;PORT BLAIR;11.66667;92.71667;-999;0.00833;0.00833;-9.99999;India
86614;BANGALORE;12.96667;77.58333;-999;0.00833;0.00833;-9.99999;India
86615;MADRAS/MINAMBAKKAM;13;80.18333;-999;0.00833;0.00833;-9.99999;India
86616;PANJIM/GOA;15.48333;73.81667;-999;0.00833;0.00833;-9.99999;India
86617;MASULIPATANAM;16.2;81.15;-999;0.00833;0.00833;-9.99999;India
86618;HYDRABAD/BEGUMPET;17.45;78.46667;-999;0.00833;0.00833;-9.99999;India
86619;VISAKHAPATNAM;17.71667;83.23333;-999;0.00833;0.00833;-9.99999;India
86620;PUNE;18.53333;73.85;-999;0.00833;0.00833;-9.99999;India
86621;RAMGUNDAM;18.76667;79.43333;156;0.00833;0.00833;0.5;India
86622;MUMBAI(COLABA);18.9;72.81667;-999;0.00833;0.00833;-9.99999;India
86623;JAGDALPUR;19.08333;82.03333;-999;0.00833;0.00833;-9.99999;India
86624;MUMBAI(SANTACRUZ);19.11667;72.85;-999;0.00833;0.00833;-9.99999;India
86625;CUTTACK;20.46667;85.93333;-999;0.00833;0.00833;-9.99999;India
86626;AKOLA;20.7;77.03333;-999;0.00833;0.00833;-9.99999;India
86627;VERAVAL;20.9;70.36667;-999;0.00833;0.00833;-9.99999;India
86628;NAGPUR/SONEGAON;21.1;79.05;-999;0.00833;0.00833;-9.99999;India
86629;DWARKA;22.36667;69.08333;-999;0.00833;0.00833;-9.99999;India
86630;CALCUTTA(ALIPORE);22.53333;88.33333;-999;0.00833;0.00833;-9.99999;India
86631;CALCUTTA(DUM DUM);22.65;88.45;-999;0.00833;0.00833;-9.99999;India
86632;INDORE;22.71667;75.8;-999;0.00833;0.00833;-9.99999;India
86633;AHMEDABAD;23.06667;72.63333;-999;0.00833;0.00833;-9.99999;India
86634;SAGAR;23.85;78.75;-999;0.00833;0.00833;-9.99999;India
86635;ALLAHABAD;25.45;81.73333;-999;0.00833;0.00833;-9.99999;India
86636;SHILLONG;25.56667;91.88333;-999;0.00833;0.00833;-9.99999;India
86637;GAUHATI/BHORJHOR;26.1;91.58333;-999;0.00833;0.00833;-9.99999;India
86638;JAIPUR/SANGANER;26.81667;75.8;-999;0.00833;0.00833;-9.99999;India
86639;DIBRUGARH/MOHANBARI;27.48333;95.01667;-999;0.00833;0.00833;-9.99999;India
86640;BIKANER;28;73.3;-999;0.00833;0.00833;-9.99999;India
86641;NEW DELHI/SAFDARJUNG;28.58333;77.2;-999;0.00833;0.00833;-9.99999;India
86642;HISSAR;29.16667;75.73333;221;0.00833;0.00833;0.5;India
86643;MUKTESWAR/KUMAON;29.46667;79.65;-999;0.00833;0.00833;-9.99999;India
86644;AMRITSAR;31.63333;74.86667;-999;0.00833;0.00833;-9.99999;India
86645;KUPANG;-10.16667;123.66667;-999;0.08333;0.08333;-9.99999;Indonesia
86646;WAINGAPU;-9.66667;120.33333;-999;0.08333;0.08333;-9.99999;Indonesia
86647;REMBIGA-AMPENAN;-8.53333;116.06667;-999;0.00833;0.00833;-9.99999;Indonesia
86648;BANYUWANGI;-8.21667;114.38333;-999;0.00833;0.00833;-9.99999;Indonesia
86649;SAUMLAKI;-7.98333;131.3;-999;0.00833;0.00833;-9.99999;Indonesia
86650;CILACAP;-7.73333;109.01667;-999;0.00833;0.00833;-9.99999;Indonesia
86651;KALIANGET;-7.05;113.96667;-999;0.00833;0.00833;-9.99999;Indonesia
86652;TEGAL;-6.85;109.15;-999;0.00833;0.00833;-9.99999;Indonesia
86653;JATIWANGI;-6.75;108.26667;-999;0.00833;0.00833;-9.99999;Indonesia
86654;CURUG TANGERANG JAWA BAR;-6.23333;106.65;-999;0.00833;0.00833;-9.99999;Indonesia
86655;JAKARTA OBSERVATORIUM;-6.16667;106.81667;-999;0.00833;0.00833;-9.99999;Indonesia
86656;SERANG BANTEN;-6.11667;106.13333;-999;0.00833;0.00833;-9.99999;Indonesia
86657;ASTRA KSETRA;-4.45;105.18333;-999;0.00833;0.00833;-9.99999;Indonesia
86658;WAMENA;-4.06667;138.95;-999;0.00833;0.00833;-9.99999;Indonesia
86659;GESER;-3.8;130.83333;-999;0.00833;0.00833;-9.99999;Indonesia
86660;AMBON;-3.7;128.08333;-999;0.00833;0.00833;-9.99999;Indonesia
86661;BANJARMASIN;-3.45;114.75;-999;0.00833;0.00833;-9.99999;Indonesia
86662;AMAHAI;-3.35;128.88333;-999;0.00833;0.00833;-9.99999;Indonesia
86663;NABIRE;-3.33333;135.5;-999;0.08333;0.08333;-9.99999;Indonesia
86664;TALANG BETUTU PALEMBANG;-2.9;104.7;-999;0.00833;0.00833;-9.99999;Indonesia
86665;PANGKAL PINANG;-2.16667;106.13333;-999;0.00833;0.00833;-9.99999;Indonesia
86666;SANANA;-2.08333;126;-999;0.00833;0.00833;-9.99999;Indonesia
86667;PALMERAH JAMBI;-1.63333;103.65;-999;0.00833;0.00833;-9.99999;Indonesia
86668;BALIKPAPAN;-1.26667;116.9;-999;0.00833;0.00833;-9.99999;Indonesia
86669;BIAK;-1.18333;136.11667;-999;0.00833;0.00833;-9.99999;Indonesia
86670;MANOKWARI;-0.88333;134.05;-999;0.00833;0.00833;-9.99999;Indonesia
86671;KIJANG TANJUNG PINANG;0.91667;104.53333;-999;0.00833;0.00833;-9.99999;Indonesia
86672;SINGKAWANG II;1.08333;109.66667;-999;0.00833;0.00833;-9.99999;Indonesia
86673;SAMRATULANGI MENADO;1.53333;124.91667;-999;0.00833;0.00833;-9.99999;Indonesia
86674;PINANG SORI-SIBOLGA;1.55;98.88333;-999;0.00833;0.00833;-9.99999;Indonesia
86675;TAREMPA;3.2;106.25;-999;0.00833;0.00833;-9.99999;Indonesia
86676;CHAHBAHAR;25.28333;60.61667;-999;0.00833;0.00833;-9.99999;Iran
86677;JASK;25.63333;57.76667;-999;0.00833;0.00833;-9.99999;Iran
86678;BANDAR LENGEH;26.58333;54.83333;-999;0.00833;0.00833;-9.99999;Iran
86679;IRANSHAHR;27.2;60.7;-999;0.00833;0.00833;-9.99999;Iran
86680;BANDAR ABASS;27.21667;56.36667;-999;0.00833;0.00833;-9.99999;Iran
86681;SARAVAN;27.33333;62.33333;-999;0.08333;0.08333;-9.99999;Iran
86682;BUSHEHR (COASTAL);28.95;50.85;-999;0.00833;0.00833;-9.99999;Iran
86683;FASSA;28.96667;53.68333;-999;0.00833;0.00833;-9.99999;Iran
86684;BUSHEHR;28.98333;50.83333;-999;0.00833;0.00833;-9.99999;Iran
86685;BAM;29.1;58.35;-999;0.00833;0.00833;-9.99999;Iran
86686;BAFT;29.23333;56.58333;-999;0.00833;0.00833;-9.99999;Iran
86687;SIRJAN;29.46667;55.68333;-999;0.00833;0.00833;-9.99999;Iran
86688;ZAHEDAN;29.46667;60.88333;-999;0.00833;0.00833;-9.99999;Iran
86689;SHIRAZ;29.53333;52.6;-999;0.00833;0.00833;-9.99999;Iran
86690;KERMAN;30.25;56.96667;-999;0.00833;0.00833;-9.99999;Iran
86691;ABADAN;30.36667;48.25;-999;0.00833;0.00833;-9.99999;Iran
86692;ZABOL;31.03333;61.48333;-999;0.00833;0.00833;-9.99999;Iran
86693;ABADEH;31.18333;52.66667;-999;0.00833;0.00833;-9.99999;Iran
86694;AHWAZ;31.33333;48.66667;-999;0.08333;0.08333;-9.99999;Iran
86695;YAZD;31.9;54.28333;-999;0.00833;0.00833;-9.99999;Iran
86696;SHAHRE KORD;32.28333;50.85;-999;0.00833;0.00833;-9.99999;Iran
86697;DEZFUL;32.4;48.38333;-999;0.00833;0.00833;-9.99999;Iran
86698;ESFAHAN;32.61667;51.66667;-999;0.00833;0.00833;-9.99999;Iran
86699;BIRJAND;32.86667;59.2;-999;0.00833;0.00833;-9.99999;Iran
86700;TABASS;33.6;56.91667;-999;0.00833;0.00833;-9.99999;Iran
86701;ILAM;33.63333;46.43333;-999;0.00833;0.00833;-9.99999;Iran
86702;KASHAN;33.98333;51.45;-999;0.00833;0.00833;-9.99999;Iran
86703;ARAK;34.1;49.76667;-999;0.00833;0.00833;-9.99999;Iran
86704;KERMANSHAH;34.28333;47.11667;-999;0.00833;0.00833;-9.99999;Iran
86705;GHOM;34.7;50.85;-999;0.00833;0.00833;-9.99999;Iran
86706;HAMEDAN FOROUDGAH;34.86667;48.53333;-999;0.00833;0.00833;-9.99999;Iran
86707;HAMEDAN NOZHEH;35.2;48.71667;-999;0.00833;0.00833;-9.99999;Iran
86708;TORBATE HEYDARIEH;35.26667;59.21667;-999;0.00833;0.00833;-9.99999;Iran
86709;SANANDAJ;35.33333;47;-999;0.08333;0.08333;-9.99999;Iran
86710;SEMNAN;35.58333;53.55;-999;0.00833;0.00833;-9.99999;Iran
86711;TEHRAN MEHRABAD;35.68333;51.31667;-999;0.00833;0.00833;-9.99999;Iran
86712;SABZEVAR;36.2;57.71667;-999;0.00833;0.00833;-9.99999;Iran
86713;SAGHEZ;36.25;46.26667;-999;0.00833;0.00833;-9.99999;Iran
86714;GHAZVIN;36.25;50;-999;0.00833;0.00833;-9.99999;Iran
86715;MASHHAD;36.26667;59.63333;-999;0.00833;0.00833;-9.99999;Iran
86716;SHAHROUD;36.41667;54.95;-999;0.00833;0.00833;-9.99999;Iran
86717;GHARAKHIL GHAEMSHR;36.45;52.76667;-999;0.00833;0.00833;-9.99999;Iran
86718;ZANJAN;36.68333;48.48333;-999;0.00833;0.00833;-9.99999;Iran
86719;BABOLSAR;36.71667;52.65;-999;0.00833;0.00833;-9.99999;Iran
86720;GORGAN;36.85;54.26667;-999;0.00833;0.00833;-9.99999;Iran
86721;RAMSAR;36.9;50.66667;-999;0.00833;0.00833;-9.99999;Iran
86722;RASHT;37.2;49.65;-999;0.00833;0.00833;-9.99999;Iran
86723;MARAGHEH;37.4;46.26667;-999;0.00833;0.00833;-9.99999;Iran
86724;BANDAR ANZALI;37.46667;49.46667;-999;0.00833;0.00833;-9.99999;Iran
86725;OROOMIEH;37.53333;45.08333;-999;0.00833;0.00833;-9.99999;Iran
86726;SARAB;37.93333;47.53333;-999;0.00833;0.00833;-9.99999;Iran
86727;TABRIZ;38.08333;46.28333;-999;0.00833;0.00833;-9.99999;Iran
86728;ARDEBIL;38.25;48.28333;-999;0.00833;0.00833;-9.99999;Iran
86729;AHAR;38.43333;47.06667;-999;0.00833;0.00833;-9.99999;Iran
86730;KHOY;38.55;44.96667;-999;0.00833;0.00833;-9.99999;Iran
86731;CORK AIRPORT;51.83333;-8.48333;-999;0.00833;0.00833;-9.99999;Ireland
86732;VALENTIA OBSERVATORY;51.93333;-10.23333;-999;0.00833;0.00833;-9.99999;Ireland
86733;ROSSLARE;52.25;-6.33333;-999;0.00833;0.00833;-9.99999;Ireland
86734;KILKENNY;52.65;-7.26667;-999;0.00833;0.00833;-9.99999;Ireland
86735;SHANNON AIRPORT;52.68333;-8.91667;-999;0.00833;0.00833;-9.99999;Ireland
86736;BIRR;53.08333;-7.88333;-999;0.00833;0.00833;-9.99999;Ireland
86737;CASEMENT AERODROME;53.3;-6.43333;-999;0.00833;0.00833;-9.99999;Ireland
86738;MULLINGAR II;53.53333;-7.35;-999;0.00833;0.00833;-9.99999;Ireland
86739;CLONES;54.18333;-7.23333;-999;0.00833;0.00833;-9.99999;Ireland
86740;BELMULLET;54.21667;-10;-999;0.00833;0.00833;-9.99999;Ireland
86741;MALIN HEAD;55.36667;-7.33333;-999;0.00833;0.00833;-9.99999;Ireland
86742;ELAT;29.55;34.95;-999;0.00833;0.00833;-9.99999;Israel
86743;JERUSALEM AIRPORT;31.86667;35.21667;-999;0.00833;0.00833;-9.99999;Israel
86744;BET DAGAN;32;34.81667;-999;0.00833;0.00833;-9.99999;Israel
86745;COZZO SPADARO;36.68333;15.11667;-999;0.00833;0.00833;-9.99999;Italy
86746;CATANIA/SIGONELLA;37.4;14.91667;-999;0.00833;0.00833;-9.99999;Italy
86747;ENNA;37.55;14.26667;-999;0.00833;0.00833;-9.99999;Italy
86748;TRAPANI/BIRGI;37.91667;12.5;-999;0.00833;0.00833;-9.99999;Italy
86749;MESSINA;38.18333;15.55;-999;0.00833;0.00833;-9.99999;Italy
86750;MONTE SCURO;39.31667;16.38333;-999;0.00833;0.00833;-9.99999;Italy
86751;DECIMOMANNU;39.35;8.96667;-999;0.00833;0.00833;-9.99999;Italy
86752;SANTA MARIA DI LEUCA;39.81667;18.33333;-999;0.00833;0.00833;-9.99999;Italy
86753;CAPO BELLAVISTA;39.91667;9.7;-999;0.00833;0.00833;-9.99999;Italy
86754;CAPO PALINURO;40.01667;15.26667;-999;0.00833;0.00833;-9.99999;Italy
86755;MARINA DI GINOSA;40.43333;16.88333;-999;0.00833;0.00833;-9.99999;Italy
86756;CAPO CACCIA;40.56667;8.15;-999;0.00833;0.00833;-9.99999;Italy
86757;GRAZZANISE;41.05;14.06667;-999;0.00833;0.00833;-9.99999;Italy
86758;CAMPOBASSO;41.56667;14.65;-999;0.00833;0.00833;-9.99999;Italy
86759;PRATICA DI MARE;41.65;12.43333;-999;0.00833;0.00833;-9.99999;Italy
86760;TERMOLI;42;15;-999;0.5;0.5;-9.99999;Italy
86761;GROSSETO;42.73333;11.05;-999;0.00833;0.00833;-9.99999;Italy
86762;PISA/S.GIUSTO;43.68333;10.38333;-999;0.00833;0.00833;-9.99999;Italy
86763;CAPO MELE;43.95;8.16667;-999;0.00833;0.00833;-9.99999;Italy
86764;MONTE CIMONE;44.18333;10.7;-999;0.00833;0.00833;-9.99999;Italy
86765;CERVIA;44.21667;12.3;-999;0.00833;0.00833;-9.99999;Italy
86766;VERONA/VILLAFRANCA;45.38333;10.86667;-999;0.00833;0.00833;-9.99999;Italy
86767;NOVARA/CAMERI;45.5;8.66667;-999;0.08333;0.08333;-9.99999;Italy
86768;TRIESTE;45.65;13.76667;-999;0.00833;0.00833;-9.99999;Italy
86769;TREVISO/ISTRANA;45.68333;12.1;-999;0.00833;0.00833;-9.99999;Italy
86770;PIAN ROSA;45.93333;7.7;-999;0.00833;0.00833;-9.99999;Italy
86771;UDINE/RIVOLTO;45.96667;13.03333;-999;0.00833;0.00833;-9.99999;Italy
86772;DOBBIACO;46.71667;12.21667;-999;0.00833;0.00833;-9.99999;Italy
86773;S.VALENTINO ALLA MUTA;46.75;10.53333;-999;0.00833;0.00833;-9.99999;Italy
86774;MINAMITORISHIMA;24.3;153.96667;-999;0.00833;0.00833;-9.99999;Japan
86775;ISHIGAKIJIMA;24.33333;124.16667;-999;0.08333;0.08333;-9.99999;Japan
86776;MIYAKOJIMA;24.78333;125.28333;-999;0.00833;0.00833;-9.99999;Japan
86777;MINAMIDAITOUJIMA;25.83333;131.23333;-999;0.00833;0.00833;-9.99999;Japan
86778;NAHA;26.2;127.68333;-999;0.00833;0.00833;-9.99999;Japan
86779;CHICHIJIMA;27.08333;142.18333;-999;0.00833;0.00833;-9.99999;Japan
86780;NAZE;28.38333;129.5;-999;0.00833;0.00833;-9.99999;Japan
86781;TANEGASHIMA;30.73333;131;-999;0.00833;0.00833;-9.99999;Japan
86782;KAGOSHIMA;31.55;130.55;-999;0.00833;0.00833;-9.99999;Japan
86783;MIYAZAKI;31.93333;131.41667;-999;0.00833;0.00833;-9.99999;Japan
86784;FUKUE;32.7;128.83333;-999;0.00833;0.00833;-9.99999;Japan
86785;SHIMIZU;32.71667;133.01667;-999;0.00833;0.00833;-9.99999;Japan
86786;NAGASAKI;32.73333;129.86667;-999;0.00833;0.00833;-9.99999;Japan
86787;HACHIJOJIMA;33.1;139.78333;-999;0.00833;0.00833;-9.99999;Japan
86788;OITA;33.23333;131.61667;-999;0.00833;0.00833;-9.99999;Japan
86789;MUROTOMISAKI;33.25;134.18333;-999;0.00833;0.00833;-9.99999;Japan
86790;SHIONOMISAKI;33.45;135.76667;-999;0.00833;0.00833;-9.99999;Japan
86791;FUKUOKA;33.58333;130.38333;-999;0.00833;0.00833;-9.99999;Japan
86792;MATSUYAMA;33.83333;132.78333;-999;0.00833;0.00833;-9.99999;Japan
86793;OWASE;34.06667;136.2;-999;0.00833;0.00833;-9.99999;Japan
86794;IZUHARA;34.2;129.3;-999;0.00833;0.00833;-9.99999;Japan
86795;TAKAMATSU;34.31667;134.05;-999;0.00833;0.00833;-9.99999;Japan
86796;OMAEZAKI;34.6;138.21667;-999;0.00833;0.00833;-9.99999;Japan
86797;OSAKA;34.68333;135.51667;-999;0.00833;0.00833;-9.99999;Japan
86798;OSHIMA;34.75;139.36667;-999;0.00833;0.00833;-9.99999;Japan
86799;HAMADA;34.9;132.06667;-999;0.00833;0.00833;-9.99999;Japan
86800;NAGOYA;35.16667;136.96667;-999;0.00833;0.00833;-9.99999;Japan
86801;MATSUE;35.45;133.06667;-999;0.00833;0.00833;-9.99999;Japan
86802;MAIZURU;35.45;135.31667;-999;0.00833;0.00833;-9.99999;Japan
86803;TOKYO;35.68333;139.76667;-999;0.00833;0.00833;-9.99999;Japan
86804;CHOSHI;35.73333;140.85;-999;0.00833;0.00833;-9.99999;Japan
86805;SAIGO;36.2;133.33333;-999;0.00833;0.00833;-9.99999;Japan
86806;MATSUMOTO;36.25;137.96667;-999;0.00833;0.00833;-9.99999;Japan
86807;MAEBASHI;36.4;139.06667;-999;0.00833;0.00833;-9.99999;Japan
86808;KANAZAWA;36.58333;136.63333;-999;0.00833;0.00833;-9.99999;Japan
86809;ONAHAMA;36.95;140.9;-999;0.00833;0.00833;-9.99999;Japan
86810;WAJIMA;37.4;136.9;-999;0.00833;0.00833;-9.99999;Japan
86811;AIKAWA;38.03333;138.23333;-999;0.00833;0.00833;-9.99999;Japan
86812;SENDAI;38.26667;140.9;-999;0.00833;0.00833;-9.99999;Japan
86813;MIYAKO;39.65;141.96667;-999;0.00833;0.00833;-9.99999;Japan
86814;AKITA;39.71667;140.1;-999;0.00833;0.00833;-9.99999;Japan
86815;AOMORI;40.81667;140.76667;-999;0.00833;0.00833;-9.99999;Japan
86816;HAKODATE;41.81667;140.75;-999;0.00833;0.00833;-9.99999;Japan
86817;URAKAWA;42.16667;142.78333;-999;0.00833;0.00833;-9.99999;Japan
86818;SUTTSU;42.8;140.21667;-999;0.00833;0.00833;-9.99999;Japan
86819;KUSHIRO;42.98333;144.38333;-999;0.00833;0.00833;-9.99999;Japan
86820;SAPPORO;43.06667;141.33333;-999;0.00833;0.00833;-9.99999;Japan
86821;NEMURO;43.33333;145.58333;-999;0.00833;0.00833;-9.99999;Japan
86822;ASAHIKAWA;43.76667;142.36667;-999;0.00833;0.00833;-9.99999;Japan
86823;ABASHIRI;44.01667;144.28333;-999;0.00833;0.00833;-9.99999;Japan
86824;WAKKANAI;45.41667;141.68333;-999;0.00833;0.00833;-9.99999;Japan
86825;JOHNSTON ISLAND/WSO AIRP;16.73333;-169.51667;-999;0.00833;0.00833;-9.99999;Johnston Atoll [United States]
86826;ALMATY;43.23333;76.93333;-999;0.00833;0.00833;-9.99999;Kazakhstan
86827;TURKESTAN;43.26667;68.21667;-999;0.00833;0.00833;-9.99999;Kazakhstan
86828;ZHARKENT (PANFILOV);44.16667;80.06667;-999;0.00833;0.00833;-9.99999;Kazakhstan
86829;FORT SHEVCHENKO;44.55;50.25;-999;0.00833;0.00833;-9.99999;Kazakhstan
86830;KYZYLORDA;44.85;65.5;-999;0.00833;0.00833;-9.99999;Kazakhstan
86831;SAM;45.4;56.11667;-999;0.00833;0.00833;-9.99999;Kazakhstan
86832;KAZALINSK;45.76667;62.11667;-999;0.00833;0.00833;-9.99999;Kazakhstan
86833;UCHARAL;46.16667;80.93333;-999;0.00833;0.00833;-9.99999;Kazakhstan
86834;ARALSKOE MORE;46.78333;61.65;-999;0.00833;0.00833;-9.99999;Kazakhstan
86835;BALKHASH;46.8;75.08333;-999;0.00833;0.00833;-9.99999;Kazakhstan
86836;ATYRAU;47.11667;51.91667;-999;0.00833;0.00833;-9.99999;Kazakhstan
86837;ZAISAN;47.46667;84.86667;-999;0.00833;0.00833;-9.99999;Kazakhstan
86838;KZYLZHAR;48.3;69.65;-999;0.00833;0.00833;-9.99999;Kazakhstan
86839;IRGIZ;48.61667;61.26667;-999;0.00833;0.00833;-9.99999;Kazakhstan
86840;KOKPEKTY;48.75;82.36667;-999;0.00833;0.00833;-9.99999;Kazakhstan
86841;TAIPAK;49.05;51.86667;-999;0.00833;0.00833;-9.99999;Kazakhstan
86842;UIL;49.06667;54.68333;-999;0.00833;0.00833;-9.99999;Kazakhstan
86843;ZHALPAKTAL (FURMANOVO);49.66667;49.48333;-999;0.00833;0.00833;-9.99999;Kazakhstan
86844;KARAGANDA;49.8;73.15;-999;0.00833;0.00833;-9.99999;Kazakhstan
86845;AKTOBE (AKTYUBINSK);50.28333;57.15;-999;0.00833;0.00833;-9.99999;Kazakhstan
86846;LENINOGORSK;50.33333;83.55;-999;0.00833;0.00833;-9.99999;Kazakhstan
86847;SEMIPALATINSK;50.41667;80.3;-999;0.00833;0.00833;-9.99999;Kazakhstan
86848;ASTANA (AKMOLA);51.13333;71.41667;-999;0.00833;0.00833;-9.99999;Kazakhstan
86849;URALSK;51.25;51.28333;-999;0.00833;0.00833;-9.99999;Kazakhstan
86850;ATBASAR;51.81667;68.36667;-999;0.00833;0.00833;-9.99999;Kazakhstan
86851;KOSTANAI;53.2;63.7;-999;0.00833;0.00833;-9.99999;Kazakhstan
86852;IRTYSHSK;53.35;75.45;-999;0.00833;0.00833;-9.99999;Kazakhstan
86853;PETROPAVLOVSK;54.83333;69.15;-999;0.00833;0.00833;-9.99999;Kazakhstan
86854;JEJU;33.51667;126.53333;-999;0.00833;0.00833;-9.99999;Korea - South
86855;YEOSU;34.73333;127.75;-999;0.00833;0.00833;-9.99999;Korea - South
86856;MOKPO;34.81667;126.38333;-999;0.00833;0.00833;-9.99999;Korea - South
86857;BUSAN;35.1;129.03333;-999;0.00833;0.00833;-9.99999;Korea - South
86858;POHANG;36.03333;129.38333;-999;0.00833;0.00833;-9.99999;Korea - South
86859;DAEJEON;36.36667;127.36667;-999;0.00833;0.00833;-9.99999;Korea - South
86860;ULLEUNGDO;37.48333;130.9;-999;0.00833;0.00833;-9.99999;Korea - South
86861;SEOUL;37.56667;126.96667;-999;0.00833;0.00833;-9.99999;Korea - South
86862;GANGNEUNG;37.75;128.9;-999;0.00833;0.00833;-9.99999;Korea - South
86863;CHUNCHEON;37.9;127.73333;-999;0.00833;0.00833;-9.99999;Korea - South
86864;KUWAIT INTL AIRPORT;29.21667;47.98333;-999;0.00833;0.00833;-9.99999;Kuwait
86865;NARYN;41.43333;75.98333;-999;0.00833;0.00833;-9.99999;Kyrgyzstan
86866;BISHKEK;42.85;74.53333;-999;0.00833;0.00833;-9.99999;Kyrgyzstan
86867;PAKSE;15.11667;105.16667;-999;0.00833;0.00833;-9.99999;Laos
86868;SARAVANE;15.68333;106.43333;-999;0.00833;0.00833;-9.99999;Laos
86869;SAVANNAKHET;16.55;104.65;-999;0.00833;0.00833;-9.99999;Laos
86870;SENO;16.66667;105;-999;0.08333;0.08333;-9.99999;Laos
86871;THAKHEK;17.38333;104.65;-999;0.00833;0.00833;-9.99999;Laos
86872;VIENTIANE;17.95;102.56667;-999;0.00833;0.00833;-9.99999;Laos
86873;SAYABOURY;19.23333;101.73333;-999;0.00833;0.00833;-9.99999;Laos
86874;LUANG-PRABANG;19.88333;102.13333;-999;0.00833;0.00833;-9.99999;Laos
86875;DAUGAVPILS;55.86667;26.61667;-999;0.00833;0.00833;-9.99999;Latvia
86876;LIEPAJA;56.48333;21.01667;-999;0.00833;0.00833;-9.99999;Latvia
86877;SALDUS;56.68333;22.5;-999;0.00833;0.00833;-9.99999;Latvia
86878;RIGA;56.96667;24.03333;-999;0.00833;0.00833;-9.99999;Latvia
86879;ALUKSNE;57.43333;27.03333;-999;0.00833;0.00833;-9.99999;Latvia
86880;KOLKA;57.73333;22.58333;-999;0.00833;0.00833;-9.99999;Latvia
86881;AERPORT BEYROUTH;33.81667;35.48333;-999;0.00833;0.00833;-9.99999;Lebanon
86882;ZAHLE HOUCH AL OUMARA;33.83333;35.56667;-999;0.00833;0.00833;-9.99999;Lebanon
86883;TRIPOLI;34.45;35.81667;-999;0.00833;0.00833;-9.99999;Lebanon
86884;VILNIUS;54.63333;25.1;-999;0.00833;0.00833;-9.99999;Lithuania
86885;KAUNAS;54.88333;23.83333;-999;0.00833;0.00833;-9.99999;Lithuania
86886;KLAIPEDA;55.73333;21.06667;-999;0.00833;0.00833;-9.99999;Lithuania
86887;SIAULIAI;55.93333;23.31667;-999;0.00833;0.00833;-9.99999;Lithuania
86888;CHILEKA AIRPORT;-15.66667;34.96667;-999;0.00833;0.00833;-9.99999;Malawi
86889;MZUZU AIRPORT;-999;-999;-999;-9.99999;-9.99999;-9.99999;Malawi
86890;KUCHING (SARAWAK);1.48333;110.33333;-999;0.00833;0.00833;-9.99999;Malaysia
86891;KLUANG (JOHORE);2.01667;103.31667;-999;0.00833;0.00833;-9.99999;Malaysia
86892;SIBU (SARAWAK);2.25;110.96667;-999;0.00833;0.00833;-9.99999;Malaysia
86893;MALACCA (MALACCA);2.26667;102.25;-999;0.00833;0.00833;-9.99999;Malaysia
86894;MERSING (JOHORE);2.45;103.83333;-999;0.00833;0.00833;-9.99999;Malaysia
86895;BINTULU (SARAWAK);3.2;113.03333;-999;0.00833;0.00833;-9.99999;Malaysia
86896;TEMERLOH (PAHANG);3.46667;102.38333;-999;0.00833;0.00833;-9.99999;Malaysia
86897;KUANTAN (PAHANG);3.78333;103.21667;-999;0.00833;0.00833;-9.99999;Malaysia
86898;SITIAWAN (PERAK);4.21667;100.7;-999;0.00833;0.00833;-9.99999;Malaysia
86899;TAWAU (SABAH);4.26667;117.88333;-999;0.00833;0.00833;-9.99999;Malaysia
86900;IPOH (PERAK);4.56667;101.1;-999;0.00833;0.00833;-9.99999;Malaysia
86901;BAYAN LEPAS (PENANG);5.3;100.26667;-999;0.00833;0.00833;-9.99999;Malaysia
86902;LABUAN (SABAH);5.3;115.25;-999;0.00833;0.00833;-9.99999;Malaysia
86903;SANDAKAN (SABAH);5.9;118.06667;-999;0.00833;0.00833;-9.99999;Malaysia
86904;KOTA KINABALU (SABAH);5.93333;116.05;-999;0.00833;0.00833;-9.99999;Malaysia
86905;KOTA BHARU (KELANTAN);6.16667;102.28333;-999;0.00833;0.00833;-9.99999;Malaysia
86906;LUQA;35.85;14.46667;-999;0.00833;0.00833;-9.99999;Malta
86907;LE LAMENTIN;14.6;-61;-999;0.00833;0.00833;-9.99999;Martinique [France]
86908;PLAISANCE;-20.43333;57.68333;-999;0.00833;0.00833;-9.99999;Mauritius
86909;RODRIGUES;-19.68333;63.41667;-999;0.00833;0.00833;-9.99999;Mauritius
86910;STBRANDON;-16.45;59.61667;-999;0.00833;0.00833;-9.99999;Mauritius
86911;AGALEGA;-10.43333;56.75;-999;0.00833;0.00833;-9.99999;Mauritius
86912;Dalanzadgad;43.58333;104.41667;-999;0.00833;0.00833;-9.99999;Mongolia
86913;Sainshand;44.9;110.11667;-999;0.00833;0.00833;-9.99999;Mongolia
86914;Mandalgovi;45.76667;106.28333;-999;0.00833;0.00833;-9.99999;Mongolia
86915;Erdenetsagaan;45.9;115.36667;-999;0.00833;0.00833;-9.99999;Mongolia
86916;Baitag;46.1;91.63333;-999;0.00833;0.00833;-9.99999;Mongolia
86917;Baruun-Urt;46.68333;113.28333;-999;0.00833;0.00833;-9.99999;Mongolia
86918;Bayanbulag;46.83333;98.08333;-999;0.00833;0.00833;-9.99999;Mongolia
86919;Tsetserleg;47.45;101.46667;-999;0.00833;0.00833;-9.99999;Mongolia
86920;Bayan-Ovoo;47.78333;112.11667;-999;0.00833;0.00833;-9.99999;Mongolia
86921;Khovd;48.01667;91.65;-999;0.00833;0.00833;-9.99999;Mongolia
86922;Choibalsan;48.06667;114.5;-999;0.00833;0.00833;-9.99999;Mongolia
86923;Maanit;48.26667;105.41667;-999;0.00833;0.00833;-9.99999;Mongolia
86924;Erdenemandal;48.53333;101.38333;-999;0.00833;0.00833;-9.99999;Mongolia
86925;Tosontsengel;48.73333;98.28333;-999;0.00833;0.00833;-9.99999;Mongolia
86926;Bulgan;48.8;103.55;-999;0.00833;0.00833;-9.99999;Mongolia
86927;Khutag;49.38333;102.7;-999;0.00833;0.00833;-9.99999;Mongolia
86928;Dashbalbar;49.55;114.4;-999;0.00833;0.00833;-9.99999;Mongolia
86929;INHAMBANE;-23.86667;35.38333;-999;0.00833;0.00833;-9.99999;Mozambique
86930;BEIRA;-19.8;34.9;-999;0.00833;0.00833;-9.99999;Mozambique
86931;QUELIMANE;-17.88333;36.88333;-999;0.00833;0.00833;-9.99999;Mozambique
86932;TETE;-16.18333;33.58333;-999;0.00833;0.00833;-9.99999;Mozambique
86933;NAMPULA;-15.15;39.33333;-999;0.00833;0.00833;-9.99999;Mozambique
86934;LICHINGA;-13.3;35.23333;-999;0.00833;0.00833;-9.99999;Mozambique
86935;PEMBA;-12.98333;40.53333;-999;0.00833;0.00833;-9.99999;Mozambique
86936;KATHMANDU AIRPORT;27.7;85.36667;-999;0.00833;0.00833;-9.99999;Nepal
86937;MAASTRICHT;50.91667;5.78333;-999;0.00833;0.00833;-9.99999;Netherlands
86938;VLISSINGEN;51.45;3.6;-999;0.00833;0.00833;-9.99999;Netherlands
86939;DE BILT;52.1;5.18333;-999;0.00833;0.00833;-9.99999;Netherlands
86940;TWENTHE;52.26667;6.9;-999;0.00833;0.00833;-9.99999;Netherlands
86941;DE KOOY;52.91667;4.78333;-999;0.00833;0.00833;-9.99999;Netherlands
86942;EELDE;53.13333;6.58333;-999;0.00833;0.00833;-9.99999;Netherlands
86943;NOUMEA;-22.26667;166.45;-999;0.00833;0.00833;-9.99999;New Caledonia [France]
86944;CAMPBELL ISLAND AWS;-52.55;169.15;-999;0.00833;0.00833;-9.99999;New Zealand
86945;INVERCARGILL AERO;-46.41667;168.31667;-999;0.00833;0.00833;-9.99999;New Zealand
86946;DUNEDIN AERO AWS;-45.91667;170.18333;-999;0.00833;0.00833;-9.99999;New Zealand
86947;TARA HILLS EDR;-44.51667;169.88333;-999;0.00833;0.00833;-9.99999;New Zealand
86948;CHATHAM ISLANDS AWS;-43.95;-176.56667;-999;0.00833;0.00833;-9.99999;New Zealand
86949;CHRISTCHURCH AERO;-43.48333;172.53333;-999;0.00833;0.00833;-9.99999;New Zealand
86950;HOKITIKA AWS;-42.7;170.96667;-999;0.00833;0.00833;-9.99999;New Zealand
86951;KAIKOURA AWS;-42.41667;173.68333;-999;0.00833;0.00833;-9.99999;New Zealand
86952;NELSON AWS;-41.3;173.21667;-999;0.00833;0.00833;-9.99999;New Zealand
86953;PARAPARAUMU AERO;-40.9;174.98333;-999;0.00833;0.00833;-9.99999;New Zealand
86954;NAPIER AERO AWS;-39.45;176.85;-999;0.00833;0.00833;-9.99999;New Zealand
86955;NEW PLYMOUTH AWS;-39;174.16667;-999;0.08333;0.08333;-9.99999;New Zealand
86956;GISBORNE AWS;-38.65;177.98333;-999;0.00833;0.00833;-9.99999;New Zealand
86957;ROTORUA AERO AWS;-38.1;176.3;-999;0.00833;0.00833;-9.99999;New Zealand
86958;KAITAIA OBSERVATORY;-35.13333;173.25;-999;0.00833;0.00833;-9.99999;New Zealand
86959;RAOUL ISLAND AWS;-29.21667;-177.91667;-999;0.00833;0.00833;-9.99999;New Zealand
86960;PORT HARCOURT;5.01667;6.95;-999;0.00833;0.00833;-9.99999;Nigeria
86961;ENUGA;6.46667;7.55;-999;0.00833;0.00833;-9.99999;Nigeria
86962;ONDO;7.1;4.83333;-999;0.00833;0.00833;-9.99999;Nigeria
86963;JOS;9.63333;8.85;-999;0.00833;0.00833;-9.99999;Nigeria
86964;MINNA;9.65;6.46667;-999;0.00833;0.00833;-9.99999;Nigeria
86965;MAIDUGURI;11.85;13.08333;-999;0.00833;0.00833;-9.99999;Nigeria
86966;KANO;12.05;8.53333;-999;0.00833;0.00833;-9.99999;Nigeria
86967;JAN MAYEN;70.93333;-8.66667;-999;0.00833;0.00833;-9.99999;Norway
86968;Salalah;17.03333;54.08333;200;0.00833;0.00833;0.5;Oman
86969;Thumrait;17.66667;54.01667;467;0.00833;0.00833;0.5;Oman
86970;Masirah;20.66667;58.9;188;0.00833;0.00833;0.5;Oman
86971;Sur;22.53333;59.46667;138;0.00833;0.00833;0.5;Oman
86972;Seeb;23.58333;58.28333;84;0.00833;0.00833;0.5;Oman
86973;Khasab;26.2;56.23333;30;0.00833;0.00833;0.5;Oman
86974;JIWANI;25.06667;61.8;-999;0.00833;0.00833;-9.99999;Pakistan
86975;HYDERABAD;25.38333;68.41667;-999;0.00833;0.00833;-9.99999;Pakistan
86976;CHHOR;25.51667;69.78333;-999;0.00833;0.00833;-9.99999;Pakistan
86977;PANJGUR;26.96667;64.1;-999;0.00833;0.00833;-9.99999;Pakistan
86978;JACOBABAD;28.3;68.46667;-999;0.00833;0.00833;-9.99999;Pakistan
86979;DALBANDIN;28.88333;64.4;-999;0.00833;0.00833;-9.99999;Pakistan
86980;KALAT;29.03333;66.58333;-999;0.00833;0.00833;-9.99999;Pakistan
86981;MULTAN(PBO);30.2;71.43333;-999;0.00833;0.00833;-9.99999;Pakistan
86982;LAHORE(PBO);31.55;74.33333;-999;0.00833;0.00833;-9.99999;Pakistan
86983;DERA ISMAIL KHAN;31.81667;70.91667;-999;0.00833;0.00833;-9.99999;Pakistan
86984;JHELUM;32.93333;73.71667;-999;0.00833;0.00833;-9.99999;Pakistan
86985;PARACHINAR;33.86667;70.08333;-999;0.00833;0.00833;-9.99999;Pakistan
86986;PESHAWAR;34.01667;71.58333;-999;0.00833;0.00833;-9.99999;Pakistan
86987;QUETTA;-999;-999;-999;-9.99999;-9.99999;-9.99999;Pakistan
86988;ZHOB(PBO);-999;-999;-999;-9.99999;-9.99999;-9.99999;Pakistan
86989;ENCARNACION;-27.31667;-55.86667;-999;0.00833;0.00833;-9.99999;Paraguay
86990;PILAR;-26.83333;-58.28333;-999;0.00833;0.00833;-9.99999;Paraguay
86991;SAN JUAN BAUTISTA;-26.66667;-57.11667;-999;0.00833;0.00833;-9.99999;Paraguay
86992;CIUDAD DEL ESTE;-25.45;-54.6;-999;0.00833;0.00833;-9.99999;Paraguay
86993;SALTO DEL GUAIRA;-24.06667;-54.33333;-999;0.00833;0.00833;-9.99999;Paraguay
86994;CONCEPCION;-23.43333;-57.43333;-999;0.00833;0.00833;-9.99999;Paraguay
86995;PEDRO JUAN CABALLERO;-22.58333;-55.73333;-999;0.00833;0.00833;-9.99999;Paraguay
86996;PUERTO CASADO;-22.28333;-57.93333;-999;0.00833;0.00833;-9.99999;Paraguay
86997;MARISCAL ESTIGARRIBIA;-22.01667;-60.6;-999;0.00833;0.00833;-9.99999;Paraguay
86998;BAHIA NEGRA;-20.21667;-58.16667;-999;0.00833;0.00833;-9.99999;Paraguay
86999;ADRIAN JARA;-19.53333;-59.36667;-999;0.00833;0.00833;-9.99999;Paraguay
87000;TACNA;-18.05;-70.26667;-999;0.00833;0.00833;-9.99999;Peru
87001;AREQUIPA;-16.33333;-71.56667;-999;0.00833;0.00833;-9.99999;Peru
87002;JULIACA;-15.46667;-70.15;-999;0.00833;0.00833;-9.99999;Peru
87003;PISCO;-13.73333;-76.21667;-999;0.00833;0.00833;-9.99999;Peru
87004;CUZCO;-13.53333;-71.93333;-999;0.00833;0.00833;-9.99999;Peru
87005;LIMA CALLAO;-12.01667;-77.11667;-999;0.00833;0.00833;-9.99999;Peru
87006;PUCALLPA;-8.36667;-74.56667;-999;0.00833;0.00833;-9.99999;Peru
87007;TRUJILLO;-8.08333;-79.1;-999;0.00833;0.00833;-9.99999;Peru
87008;CHICLAYO;-6.78333;-79.81667;-999;0.00833;0.00833;-9.99999;Peru
87009;TARAPOTO;-6.5;-76.36667;-999;0.00833;0.00833;-9.99999;Peru
87010;PIURA;-5.2;-80.6;-999;0.00833;0.00833;-9.99999;Peru
87011;IQUITOS;-3.78333;-73.3;-999;0.00833;0.00833;-9.99999;Peru
87012;TUMBES;-3.55;-80.38333;-999;0.00833;0.00833;-9.99999;Peru
87013;DAGUPAN CITY - PANGASINAN;2.26667;120.33333;-999;0.00833;0.00833;-9.99999;Philippines
87014;MACTAN INT'L.AIRPORT - CEB;10.28333;123.95;-999;0.00833;0.00833;-9.99999;Philippines
87015;ILOILO CITY - ILOILO;10.7;122.55;-999;0.00833;0.00833;-9.99999;Philippines
87016;LEGASPI CITY - ALBAY;13.13333;123.73333;-999;0.00833;0.00833;-9.99999;Philippines
87017;TACLOBAN CITY - LEYTE;14.18333;125;-999;0.00833;0.00833;-9.99999;Philippines
87018;NAIA (MIA) - PASAY CITY;14.51667;121.01667;-999;0.00833;0.00833;-9.99999;Philippines
87019;APARRI - CAGAYAN;21.3;121.63333;-999;0.00833;0.00833;-9.99999;Philippines
87020;HINATUAN - SURIGAO DEL SU;22.13333;126.33333;-999;0.00833;0.00833;-9.99999;Philippines
87021;BASCO - BATANES;27.33333;121.96667;-999;0.00833;0.00833;-9.99999;Philippines
87022;PORT AREA (MCO) - MANILA;35.23333;120.96667;-999;0.00833;0.00833;-9.99999;Philippines
87023;SURIGAO - SURIGAO DEL NOR;47.15;125.48333;-999;0.00833;0.00833;-9.99999;Philippines
87024;ZAMBOANGA - ZAMBOANGA DEL;54.1;122.06667;-999;0.00833;0.00833;-9.99999;Philippines
87025;ZAKOPANE;49.3;19.96667;-999;0.00833;0.00833;-9.99999;Poland
87026;LESKO;49.46667;22.35;-999;0.00833;0.00833;-9.99999;Poland
87027;KRAKOW-BALICE;50.08333;19.8;-999;0.00833;0.00833;-9.99999;Poland
87028;KLODZKO;50.43333;16.61667;-999;0.00833;0.00833;-9.99999;Poland
87029;SANDOMIERZ;50.7;21.71667;-999;0.00833;0.00833;-9.99999;Poland
87030;WROCLAW;51.1;16.9;-999;0.00833;0.00833;-9.99999;Poland
87031;WIELUN;51.21667;18.56667;-999;0.00833;0.00833;-9.99999;Poland
87032;WLODAWA;51.55;23.53333;-999;0.00833;0.00833;-9.99999;Poland
87033;ZIELONA GORA;51.93333;15.53333;-999;0.00833;0.00833;-9.99999;Poland
87034;WARSZAWA;52.16667;20.96667;-999;0.00833;0.00833;-9.99999;Poland
87035;POZNAN;52.41667;16.83333;-999;0.00833;0.00833;-9.99999;Poland
87036;TORUN;53.05;18.6;-999;0.00833;0.00833;-9.99999;Poland
87037;BIALYSTOK;53.1;23.16667;-999;0.00833;0.00833;-9.99999;Poland
87038;SZCZECIN;53.4;14.61667;-999;0.00833;0.00833;-9.99999;Poland
87039;SUWALKI;54.13333;22.95;-999;0.00833;0.00833;-9.99999;Poland
87040;ELBLAG;54.16667;19.43333;-999;0.00833;0.00833;-9.99999;Poland
87041;KOSZALIN;54.2;16.15;-999;0.00833;0.00833;-9.99999;Poland
87042;FARO;37.01667;-7.96667;-999;0.00833;0.00833;-9.99999;Portugal
87043;BEJA;38.01667;-7.86667;-999;0.00833;0.00833;-9.99999;Portugal
87044;EVORA;38.56667;-7.9;-999;0.00833;0.00833;-9.99999;Portugal
87045;LISBOA/GEOFISICO;38.71667;-9.15;-999;0.00833;0.00833;-9.99999;Portugal
87046;PORTALEGRE;39.28333;-7.41667;-999;0.00833;0.00833;-9.99999;Portugal
87047;CABO CARVOEIRO;39.35;-9.4;-999;0.00833;0.00833;-9.99999;Portugal
87048;COIMBRA;40.2;-8.41667;-999;0.00833;0.00833;-9.99999;Portugal
87049;PENHAS DOURADAS;40.41667;-7.55;-999;0.00833;0.00833;-9.99999;Portugal
87050;PORTO/S.PILAR;41.13333;-8.6;-999;0.00833;0.00833;-9.99999;Portugal
87051;VILA REAL;41.26667;-7.71667;-999;0.00833;0.00833;-9.99999;Portugal
87052;VIANA DO CASTELO;41.7;-8.8;-999;0.00833;0.00833;-9.99999;Portugal
87053;BRAGANCA;41.8;-6.73333;-999;0.00833;0.00833;-9.99999;Portugal
87054;DOHA INTL AIRPORT;25.25;51.56667;-999;0.00833;0.00833;-9.99999;Qatar
87055;SAINT DENIS/GILLOT;-20.86667;55.51667;-999;0.00833;0.00833;-9.99999;Reunion and Associated Islands [France]
87056;ASTRAHAN';46.28333;47.98333;-999;0.00833;0.00833;-9.99999;Russia
87057;SARATOV;51.56667;46.03333;-999;0.00833;0.00833;-9.99999;Russia
87058;VORONEZ;51.7;39.21667;-999;0.00833;0.00833;-9.99999;Russia
87059;KAZAN';55.73333;49.2;-999;0.00833;0.00833;-9.99999;Russia
87060;MOSKVA;55.83333;37.61667;-999;0.00833;0.00833;-9.99999;Russia
87061;VELIKIE LUKI;56.35;30.61667;-999;0.00833;0.00833;-9.99999;Russia
87062;KIROV;58.6;49.63333;-999;0.00833;0.00833;-9.99999;Russia
87063;VOLOGDA;59.23333;39.86667;-999;0.00833;0.00833;-9.99999;Russia
87064;SANKT-PETERBURG;59.96667;30.3;-999;0.00833;0.00833;-9.99999;Russia
87065;VYTEGRA;61.01667;36.45;-999;0.00833;0.00833;-9.99999;Russia
87066;REBOLY;63.83333;30.81667;-999;0.00833;0.00833;-9.99999;Russia
87067;ARHANGEL'SK;64.5;40.73333;-999;0.00833;0.00833;-9.99999;Russia
87068;MURMANSK;68.98333;33.11667;-999;0.00833;0.00833;-9.99999;Russia
87069;GIZAN;16.88333;42.58333;-999;0.00833;0.00833;-9.99999;Saudi Arabia
87070;SHARORAH;17.46667;47.1;-999;0.00833;0.00833;-9.99999;Saudi Arabia
87071;NAJRAN;17.6;44.4;-999;0.00833;0.00833;-9.99999;Saudi Arabia
87072;ABHA;18.21667;42.65;-999;0.00833;0.00833;-9.99999;Saudi Arabia
87073;KHAMIS MUSHAIT;18.28333;42.8;-999;0.00833;0.00833;-9.99999;Saudi Arabia
87074;BISHA;19.98333;42.61667;-999;0.00833;0.00833;-9.99999;Saudi Arabia
87075;AL-BAHA;20.28333;41.63333;-999;0.00833;0.00833;-9.99999;Saudi Arabia
87076;WADI AL-DAWASSER;20.5;45.21667;-999;0.00833;0.00833;-9.99999;Saudi Arabia
87077;MAKKAH;21.43333;39.76667;-999;0.00833;0.00833;-9.99999;Saudi Arabia
87078;TAIF;21.46667;40.53333;-999;0.00833;0.00833;-9.99999;Saudi Arabia
87079;JEDDAH KAIA;21.7;39.18333;-999;0.00833;0.00833;-9.99999;Saudi Arabia
87080;YANBO;24.13333;38.05;-999;0.00833;0.00833;-9.99999;Saudi Arabia
87081;MADINAH;24.53333;39.68333;-999;0.00833;0.00833;-9.99999;Saudi Arabia
87082;RIYADH OLD;24.7;46.73333;-999;0.00833;0.00833;-9.99999;Saudi Arabia
87083;AL-AHSA;25.28333;49.48333;-999;0.00833;0.00833;-9.99999;Saudi Arabia
87084;WAJH;26.2;36.46667;-999;0.00833;0.00833;-9.99999;Saudi Arabia
87085;DHAHRAN;26.25;50.15;-999;0.00833;0.00833;-9.99999;Saudi Arabia
87086;GASSIM;26.3;43.76667;-999;0.00833;0.00833;-9.99999;Saudi Arabia
87087;HAIL;27.43333;41.68333;-999;0.00833;0.00833;-9.99999;Saudi Arabia
87088;HAFR AL-BATIN;27.9;45.51667;-999;0.00833;0.00833;-9.99999;Saudi Arabia
87089;QAISUMAH;28.31667;46.11667;-999;0.00833;0.00833;-9.99999;Saudi Arabia
87090;TABUK;28.36667;36.6;-999;0.00833;0.00833;-9.99999;Saudi Arabia
87091;RAFHA;29.61667;43.48333;-999;0.00833;0.00833;-9.99999;Saudi Arabia
87092;AL-JOUF;29.78333;40.08333;-999;0.00833;0.00833;-9.99999;Saudi Arabia
87093;ARAR;30.9;41.13333;-999;0.00833;0.00833;-9.99999;Saudi Arabia
87094;GURIAT;31.4;37.26667;-999;0.00833;0.00833;-9.99999;Saudi Arabia
87095;TURAIF;31.68333;38.73333;-999;0.00833;0.00833;-9.99999;Saudi Arabia
87096;CAP-SKIRRING;12.4;-16.75;-999;0.00833;0.00833;-9.99999;Senegal
87097;ZIGUINCHOR;12.55;-16.26667;-999;0.00833;0.00833;-9.99999;Senegal
87098;KEDOUGOU;12.56667;-12.21667;-999;0.00833;0.00833;-9.99999;Senegal
87099;KOLDA;12.88333;-14.96667;-999;0.00833;0.00833;-9.99999;Senegal
87100;TAMBACOUNDA;13.76667;-13.68333;-999;0.00833;0.00833;-9.99999;Senegal
87101;KAOLACK;14.13333;-16.06667;-999;0.00833;0.00833;-9.99999;Senegal
87102;DIOURBEL;14.65;-16.23333;-999;0.00833;0.00833;-9.99999;Senegal
87103;DAKAR-YOFF;14.73333;-17.5;-999;0.00833;0.00833;-9.99999;Senegal
87104;LINGUERE;15.38333;-15.11667;-999;0.00833;0.00833;-9.99999;Senegal
87105;MATAM;15.63333;-13.25;-999;0.00833;0.00833;-9.99999;Senegal
87106;SAINT-LOUIS;16.05;-16.45;-999;0.00833;0.00833;-9.99999;Senegal
87107;PODOR;16.65;-14.93333;-999;0.00833;0.00833;-9.99999;Senegal
87108;INTERNATIONAL AIRPORT;-4.66667;55.51667;-999;0.00833;0.00833;-9.99999;Seychelles
87109;SINGAPORE;1.36667;103.98333;-999;0.00833;0.00833;-9.99999;Singapore
87110;HURBANOVO;47.86667;18.18333;-999;0.00833;0.00833;-9.99999;Slovakia
87111;BRATISLAVA-LETISKO;48.16667;17.2;-999;0.00833;0.00833;-9.99999;Slovakia
87112;SLIAC;48.63333;19.13333;-999;0.00833;0.00833;-9.99999;Slovakia
87113;KOSICE-LETISKO;48.66667;21.21667;-999;0.00833;0.00833;-9.99999;Slovakia
87114;POPRAD/TATRY;49.06667;20.23333;-999;0.00833;0.00833;-9.99999;Slovakia
87115;LJUBLJANA;46.05;14.51667;-999;0.00833;0.00833;-9.99999;Slovenia
87116;KREDARICA;46.36667;13.86667;-999;0.00833;0.00833;-9.99999;Slovenia
87117;MURSKA SOBOTA;46.65;16.13333;-999;0.00833;0.00833;-9.99999;Slovenia
87118;GEORGE;-34;22.38333;-999;0.00833;0.00833;-9.99999;South Africa
87119;CAPE TOWN;-33.98333;18.6;-999;0.00833;0.00833;-9.99999;South Africa
87120;PORT ELIZABETH;-33.98333;25.6;-999;0.00833;0.00833;-9.99999;South Africa
87121;EAST LONDON;-33.03333;27.75;-999;0.00833;0.00833;-9.99999;South Africa
87122;DURBAN;-29.96667;30.95;-999;0.00833;0.00833;-9.99999;South Africa
87123;BLOEMFONTEIN;-29.1;26.3;-999;0.00833;0.00833;-9.99999;South Africa
87124;KIMBERLEY;-28.8;24.76667;-999;0.00833;0.00833;-9.99999;South Africa
87125;ALEXANDER BAY;-28.56667;16.53333;-999;0.00833;0.00833;-9.99999;South Africa
87126;UPINGTON;-28.4;21.26667;-999;0.00833;0.00833;-9.99999;South Africa
87127;BETHLEHEM;-28.25;28.33333;-999;0.00833;0.00833;-9.99999;South Africa
87128;JOHANNESBURG;-26.15;28.23333;-999;0.00833;0.00833;-9.99999;South Africa
87129;PIETERSBURG;-23.86667;29.45;-999;0.00833;0.00833;-9.99999;South Africa
87130;MALAGA-AEROPUERTO;36.66667;-4.48333;-999;0.00833;0.00833;-9.99999;Spain
87131;JEREZ DE LA FRA AERO;36.73333;-6.05;-999;0.00833;0.00833;-9.99999;Spain
87132;ALMERIA AEROPUERTO;36.83333;-2.38333;-999;0.00833;0.00833;-9.99999;Spain
87133;GRANADA/AEROPUERTO;37.18333;-3.76667;-999;0.00833;0.00833;-9.99999;Spain
87134;CORDOBA AEROPUERTO;37.83333;-4.85;-999;0.00833;0.00833;-9.99999;Spain
87135;MURCIA ALFONSO X;37.98333;-1.11667;-999;0.00833;0.00833;-9.99999;Spain
87136;ALICANTE EL ALTET;38.28333;-0.55;-999;0.00833;0.00833;-9.99999;Spain
87137;SAN JOSE AEROPUERTO DE;38.86667;1.36667;-999;0.00833;0.00833;-9.99999;Spain
87138;ALBACETE/LOS LLANOS;38.95;-1.85;-999;0.00833;0.00833;-9.99999;Spain
87139;CIUDAD REAL ESCUELA DE;38.98333;-3.91667;-999;0.00833;0.00833;-9.99999;Spain
87140;CACERES CARRETERA TRUJ;39.46667;-6.33333;-999;0.00833;0.00833;-9.99999;Spain
87141;VALENCIA MANISES;39.48333;-0.46667;-999;0.00833;0.00833;-9.99999;Spain
87142;PALMA AEROPUERTO SON SAN;39.56667;2.73333;-999;0.00833;0.00833;-9.99999;Spain
87143;MAHON AEROPUERTO DE MENO;39.86667;4.21667;-999;0.00833;0.00833;-9.99999;Spain
87144;CUENCA;40.06667;-2.13333;-999;0.00833;0.00833;-9.99999;Spain
87145;TERUEL;40.35;-1.11667;-999;0.00833;0.00833;-9.99999;Spain
87146;MADRID/BARAJAS;40.45;-3.53333;-999;0.00833;0.00833;-9.99999;Spain
87147;TORTOSA-OBSERVATORIO DEL;40.81667;0.48333;-999;0.00833;0.00833;-9.99999;Spain
87148;SALAMANCA MATACAN;40.93333;-5.48333;-999;0.00833;0.00833;-9.99999;Spain
87149;PRAT DE LLOBREGAT AERO;41.28333;2.06667;-999;0.00833;0.00833;-9.99999;Spain
87150;LLEIDA OBSERVATORIO-2;41.61667;0.58333;-999;0.00833;0.00833;-9.99999;Spain
87151;VALLADOLID OBSERVATORIO;41.65;-4.76667;-999;0.00833;0.00833;-9.99999;Spain
87152;ZARAGOZA AEROPUERTO;41.65;-1;-999;0.00833;0.00833;-9.99999;Spain
87153;AEROPUERTO GIRONA-COSTA;41.9;2.75;-999;0.00833;0.00833;-9.99999;Spain
87154;VIGO PEINADOR;42.21667;-8.61667;-999;0.00833;0.00833;-9.99999;Spain
87155;BURGOS VILLAFRIA;42.35;-3.61667;-999;0.00833;0.00833;-9.99999;Spain
87156;LOGRO#O-AGONCILLO;42.45;-2.31667;-999;0.00833;0.00833;-9.99999;Spain
87157;LEON VIRGEN DEL CAMINO;42.58333;-5.63333;-999;0.00833;0.00833;-9.99999;Spain
87158;SAN SEBASTIAN IGUELDO;43.3;-2.03333;-999;0.00833;0.00833;-9.99999;Spain
87159;OVIEDO EL CRISTO;43.35;-5.86667;-999;0.00833;0.00833;-9.99999;Spain
87160;HAMBANTOTA;6.11667;81.13333;-999;0.00833;0.00833;-9.99999;Sri Lanka
87161;COLOMBO;6.9;79.86667;-999;0.00833;0.00833;-9.99999;Sri Lanka
87162;PUTTALAM;8.03333;79.83333;-999;0.00833;0.00833;-9.99999;Sri Lanka
87163;TRINCOMALEE;8.58333;81.25;-999;0.00833;0.00833;-9.99999;Sri Lanka
87164;ZANDERIJ;5.46667;-55.2;-999;0.00833;0.00833;-9.99999;Suriname
87165;ZORG EN HOOP;5.8;-55.18333;-999;0.00833;0.00833;-9.99999;Suriname
87166;NICKERIE-VLIEGVELD;5.95;-57.03333;-999;0.00833;0.00833;-9.99999;Suriname
87167;GOTEBORG/SAVE;51.78333;11.88333;-999;0.00833;0.00833;-9.99999;Sweden
87168;FALSTERBO;55.38333;12.81667;-999;0.00833;0.00833;-9.99999;Sweden
87169;VAXJO;56.86667;14.8;-999;0.00833;0.00833;-9.99999;Sweden
87170;VISBY FLYGPLATS;57.66667;18.35;-999;0.00833;0.00833;-9.99999;Sweden
87171;JONKOPING FLYGPLATS;57.75;14.06667;-999;0.00833;0.00833;-9.99999;Sweden
87172;GOTSKA SANDON;58.4;19.2;-999;0.00833;0.00833;-9.99999;Sweden
87173;STOCKHOLM;59.35;18.05;-999;0.00833;0.00833;-9.99999;Sweden
87174;KARLSTAD FLYGPLATS;59.45;13.33333;-999;0.00833;0.00833;-9.99999;Sweden
87175;FALUN;60.61667;15.61667;-999;0.00833;0.00833;-9.99999;Sweden
87176;MALUNG;60.68333;13.7;-999;0.00833;0.00833;-9.99999;Sweden
87177;GAVLE;60.71667;17.16667;-999;0.00833;0.00833;-9.99999;Sweden
87178;SVEG;62.01667;14.18333;-999;0.00833;0.00833;-9.99999;Sweden
87179;HARNOSAND;62.63333;17.95;-999;0.00833;0.00833;-9.99999;Sweden
87180;OSTERSUND FROSON;63.2;14.48333;-999;0.00833;0.00833;-9.99999;Sweden
87181;STORLIEN-VISJOVALEN;63.3;12.13333;-999;0.00833;0.00833;-9.99999;Sweden
87182;HOLMOGADD;63.6;20.75;-999;0.00833;0.00833;-9.99999;Sweden
87183;STENSELE;65.06667;17.15;-999;0.00833;0.00833;-9.99999;Sweden
87184;HAPARANDA;65.83333;24.15;-999;0.00833;0.00833;-9.99999;Sweden
87185;KVIKKJAKK-ARRENJARKA;66.88333;18.01667;-999;0.00833;0.00833;-9.99999;Sweden
87186;KATTERJAKK;68.41667;18.16667;-999;0.00833;0.00833;-9.99999;Sweden
87187;KARESUANDO;68.45;22.45;-999;0.00833;0.00833;-9.99999;Sweden
87188;LUGANO;46;8.96667;-999;0.00833;0.00833;-9.99999;Switzerland
87189;GENEVA-COINTRIN;46.25;6.13333;-999;0.00833;0.00833;-9.99999;Switzerland
87190;PAYERNE;46.81667;6.95;-999;0.00833;0.00833;-9.99999;Switzerland
87191;SAENTIS;47.25;9.35;-999;0.00833;0.00833;-9.99999;Switzerland
87192;ZUERICH-METETSWISS;47.38333;8.56667;-999;0.00833;0.00833;-9.99999;Switzerland
87193;BASEL-BINNINGEN;47.55;7.58333;-999;0.00833;0.00833;-9.99999;Switzerland
87194;DAMASCUS INTL. AIRPORT;33.41667;36.51667;-999;0.00833;0.00833;-9.99999;Syria
87195;PALMYRA;34.55;38.3;-999;0.00833;0.00833;-9.99999;Syria
87196;DEIR EZZOR;35.31667;40.15;-999;0.00833;0.00833;-9.99999;Syria
87197;LATTAKIA;35.53333;35.76667;-999;0.00833;0.00833;-9.99999;Syria
87198;ALEPPO;36.18333;37.21667;-999;0.00833;0.00833;-9.99999;Syria
87199;KHORAG;37.5;71.5;-999;0.08333;0.08333;-9.99999;Tajikistan
87200;KURGAN-TYUBE;37.81667;68.78333;-999;0.00833;0.00833;-9.99999;Tajikistan
87201;MTWARA;-10.26667;40.18333;-999;0.00833;0.00833;-9.99999;Tanzania
87202;DARESSALAMAIRPORT;-6.86667;39.2;-999;0.00833;0.00833;-9.99999;Tanzania
87203;SONGEA;-2.46667;32.91667;-999;0.00833;0.00833;-9.99999;Tanzania
87204;MWANZA;-2.46667;32.91667;-999;0.00833;0.00833;-9.99999;Tanzania
87205;NARATHIWAT;6.41667;101.81667;-999;0.00833;0.00833;-9.99999;Thailand
87206;SATUN;6.65;100.08333;-999;0.00833;0.00833;-9.99999;Thailand
87207;PATTANI AIRPORT;6.78333;101.15;-999;0.00833;0.00833;-9.99999;Thailand
87208;HAT YAI AIRPORT;6.91667;100.43333;-999;0.00833;0.00833;-9.99999;Thailand
87209;SONGKHLA;7.2;100.6;-999;0.00833;0.00833;-9.99999;Thailand
87210;TRANG AIRPORT;7.51667;99.61667;-999;0.00833;0.00833;-9.99999;Thailand
87211;KO LANTA;7.53333;99.05;-999;0.00833;0.00833;-9.99999;Thailand
87212;PHUKET;7.88333;98.4;-999;0.00833;0.00833;-9.99999;Thailand
87213;PHUKET AIRPORT;8.13333;98.3;-999;0.00833;0.00833;-9.99999;Thailand
87214;NAKHON SI THAMMARAT;8.53333;99.93333;-999;0.00833;0.00833;-9.99999;Thailand
87215;TAKUA PA;8.85;98.26667;-999;0.00833;0.00833;-9.99999;Thailand
87216;SURAT THANI;9.13333;99.15;-999;0.00833;0.00833;-9.99999;Thailand
87217;KO SAMUI;9.46667;100.05;-999;0.00833;0.00833;-9.99999;Thailand
87218;RANONG;9.98333;98.61667;-999;0.00833;0.00833;-9.99999;Thailand
87219;CHUMPHON;10.48333;99.18333;-999;0.00833;0.00833;-9.99999;Thailand
87220;KHLONG YAI;11.76667;102.88333;-999;0.00833;0.00833;-9.99999;Thailand
87221;PRACHUAP KHIRI KHAN;11.83333;99.83333;-999;0.08333;0.08333;-9.99999;Thailand
87222;HUA HIN;12.58333;99.95;-999;0.00833;0.00833;-9.99999;Thailand
87223;RAYONG;12.61667;101.33333;-999;0.00833;0.00833;-9.99999;Thailand
87224;CHANTHABURI;12.61667;102.1;-999;0.00833;0.00833;-9.99999;Thailand
87225;SATTAHIP;12.68333;101.01667;-999;0.00833;0.00833;-9.99999;Thailand
87226;PHATTHAYA;12.91667;100.86667;-999;0.00833;0.00833;-9.99999;Thailand
87227;PHETCHABURI;13.15;100.06667;-999;0.00833;0.00833;-9.99999;Thailand
87228;CHON BURI;13.36667;100.98333;-999;0.00833;0.00833;-9.99999;Thailand
87229;BANGKOK METROPOLIS;13.71667;100.55;-999;0.00833;0.00833;-9.99999;Thailand
87230;KO SICHANG;13.81667;100.8;-999;0.00833;0.00833;-9.99999;Thailand
87231;KABIN BURI;13.98333;101.7;-999;0.00833;0.00833;-9.99999;Thailand
87232;KANCHANABURI;14.01667;99.53333;-999;0.00833;0.00833;-9.99999;Thailand
87233;PRACHIN BURI;14.05;101.36667;-999;0.00833;0.00833;-9.99999;Thailand
87234;SUPHAN BURI;14.46667;100.13333;-999;0.00833;0.00833;-9.99999;Thailand
87235;NANG RONG;14.58333;102.8;-999;0.00833;0.00833;-9.99999;Thailand
87236;CHOK CHAI;14.71667;102.16667;-999;0.00833;0.00833;-9.99999;Thailand
87237;LOP BURI;14.8;100.61667;-999;0.00833;0.00833;-9.99999;Thailand
87238;SURIN;14.88333;103.5;-999;0.00833;0.00833;-9.99999;Thailand
87239;NAKHON RATCHASIMA;14.96667;102.08333;-999;0.00833;0.00833;-9.99999;Thailand
87240;BUA CHUM;15.25;101.18333;-999;0.00833;0.00833;-9.99999;Thailand
87241;UBON RATCHATHANI;15.25;104.86667;-999;0.00833;0.00833;-9.99999;Thailand
87242;THA TUM;15.31667;103.66667;-999;0.00833;0.00833;-9.99999;Thailand
87243;NAKHON SAWAN;15.8;100.16667;-999;0.00833;0.00833;-9.99999;Thailand
87244;CHAIYAPHUM;15.8;102.03333;-999;0.00833;0.00833;-9.99999;Thailand
87245;ROI ET;16.05;103.68333;-999;0.00833;0.00833;-9.99999;Thailand
87246;KOSUM PHISAI;16.23333;103.06667;-999;0.00833;0.00833;-9.99999;Thailand
87247;KHON KAEN;16.26667;102.45;-999;0.00833;0.00833;-9.99999;Thailand
87248;PHETCHABUN;16.43333;101.15;-999;0.00833;0.00833;-9.99999;Thailand
87249;KAMPHAENG PHET;16.48333;99.88333;-999;0.00833;0.00833;-9.99999;Thailand
87250;MUKDAHAN;16.53333;104.71667;-999;0.00833;0.00833;-9.99999;Thailand
87251;MAE SOT;16.65;98.55;-999;0.00833;0.00833;-9.99999;Thailand
87252;LOM SAK;16.76667;101.23333;-999;0.00833;0.00833;-9.99999;Thailand
87253;PHITSANULOK;16.78333;100.26667;-999;0.00833;0.00833;-9.99999;Thailand
87254;TAK;16.88333;99.11667;-999;0.00833;0.00833;-9.99999;Thailand
87255;SAKON NAKHON;17.15;104.13333;-999;0.00833;0.00833;-9.99999;Thailand
87256;BHUMIBOL DAM;17.23333;99.05;-999;0.00833;0.00833;-9.99999;Thailand
87257;UDON THANI;17.38333;102.8;-999;0.00833;0.00833;-9.99999;Thailand
87258;NAKHON PHANOM;17.41667;100.78333;-999;0.00833;0.00833;-9.99999;Thailand
87259;LOEI;17.45;101.73333;-999;0.00833;0.00833;-9.99999;Thailand
87260;UTTARADIT;17.61667;100.1;-999;0.00833;0.00833;-9.99999;Thailand
87261;NONG KHAI;17.86667;102.71667;-999;0.00833;0.00833;-9.99999;Thailand
87262;MAE SARIANG;18.16667;97.93333;-999;0.00833;0.00833;-9.99999;Thailand
87263;PHRAE;18.16667;100.16667;-999;0.08333;0.08333;-9.99999;Thailand
87264;LAMPANG;18.28333;99.51667;-999;0.00833;0.00833;-9.99999;Thailand
87265;LAMPHUN;18.56667;99.03333;-999;0.00833;0.00833;-9.99999;Thailand
87266;NAN;18.76667;100.76667;-999;0.00833;0.00833;-9.99999;Thailand
87267;CHIANG MAI;18.78333;98.96667;-999;0.00833;0.00833;-9.99999;Thailand
87268;THA WANG PHA;19.1;100.8;-999;0.00833;0.00833;-9.99999;Thailand
87269;PHAYAO;19.13333;99.9;-999;0.00833;0.00833;-9.99999;Thailand
87270;MAE HONG SON;19.3;97.83333;-999;0.00833;0.00833;-9.99999;Thailand
87271;THUNG CHANG;19.4;100.88333;-999;0.00833;0.00833;-9.99999;Thailand
87272;CHIANG RAI;19.95;99.86667;-999;0.00833;0.00833;-9.99999;Thailand
87273;ANTALYA;36.7;30.73333;-999;0.00833;0.00833;-9.99999;Turkey
87274;SANLIURFA;37.13333;38.76667;-999;0.00833;0.00833;-9.99999;Turkey
87275;MUGLA;37.2;28.35;-999;0.00833;0.00833;-9.99999;Turkey
87276;ISPARTA;37.75;30.55;-999;0.00833;0.00833;-9.99999;Turkey
87277;DIYARBAKIR;37.88333;40.18333;-999;0.00833;0.00833;-9.99999;Turkey
87278;IZMIR;38.43333;27.16667;-999;0.00833;0.00833;-9.99999;Turkey
87279;AFYON;38.75;30.53333;-999;0.00833;0.00833;-9.99999;Turkey
87280;ERZINCAN;39.73333;39.5;-999;0.00833;0.00833;-9.99999;Turkey
87281;SIVAS;39.75;37.01667;-999;0.00833;0.00833;-9.99999;Turkey
87282;ANKARA;39.95;32.88333;-999;0.00833;0.00833;-9.99999;Turkey
87283;CANAKKALE;40.13333;26.4;-999;0.00833;0.00833;-9.99999;Turkey
87284;BURSA;40.18333;29.06667;-999;0.00833;0.00833;-9.99999;Turkey
87285;GOZTEPE/ISTANBUL;40.96667;29.08333;-999;0.00833;0.00833;-9.99999;Turkey
87286;SAMSUN;41.28333;36.33333;-999;0.00833;0.00833;-9.99999;Turkey
87287;KASTAMONU;41.36667;33.76667;-999;0.00833;0.00833;-9.99999;Turkey
87288;EDIRNE;41.66667;26.56667;-999;0.00833;0.00833;-9.99999;Turkey
87289;AL AIN INTERNATIONAL AP;24.25;55.61667;-999;0.00833;0.00833;-9.99999;United Arab Emirates
87290;ABU DHABI INTL AIRPORT;24.43333;54.65;-999;0.00833;0.00833;-9.99999;United Arab Emirates
87291;FUJAIRAH INTL AIRPORT;25.1;56.31667;-999;0.00833;0.00833;-9.99999;United Arab Emirates
87292;DUBAI INTERNATIONAL AP;25.25;55.33333;-999;0.00833;0.00833;-9.99999;United Arab Emirates
87293;SHARJAH INTERNATIONAL AP;25.33333;55.51667;-999;0.00833;0.00833;-9.99999;United Arab Emirates
87294;CAMBORNE;50.21667;-5.33333;-999;0.00833;0.00833;-9.99999;United Kingdom
87295;PLYMOUTH;50.35;-4.11667;-999;0.00833;0.00833;-9.99999;United Kingdom
87296;HURN;50.78333;-1.83333;-999;0.00833;0.00833;-9.99999;United Kingdom
87297;GATWICK;51.15;-0.18333;-999;0.00833;0.00833;-9.99999;United Kingdom
87298;RHOOSE;51.4;-3.35;-999;0.00833;0.00833;-9.99999;United Kingdom
87299;HEATHROW;51.48333;-0.45;-999;0.00833;0.00833;-9.99999;United Kingdom
87300;ELMDON;52.45;-1.75;-999;0.00833;0.00833;-9.99999;United Kingdom
87301;WADDINGTON;53.18333;-0.51667;-999;0.00833;0.00833;-9.99999;United Kingdom
87302;VALLEY;53.25;-4.53333;-999;0.00833;0.00833;-9.99999;United Kingdom
87303;RINGWAY;53.35;-2.28333;-999;0.00833;0.00833;-9.99999;United Kingdom
87304;LEEMING;54.3;-1.53333;-999;0.00833;0.00833;-9.99999;United Kingdom
87305;ALDERGROVE;54.65;-6.21667;-999;0.00833;0.00833;-9.99999;United Kingdom
87306;ESKDALEMUIR;55.31667;-3.2;-999;0.00833;0.00833;-9.99999;United Kingdom
87307;TURNHOUSE;55.95;-3.43333;-999;0.00833;0.00833;-9.99999;United Kingdom
87308;TIREE;56.5;-6.88333;-999;0.00833;0.00833;-9.99999;United Kingdom
87309;DYCE;57.2;-2.2;-999;0.00833;0.00833;-9.99999;United Kingdom
87310;STORNOWAY;58.21667;-6.33333;-999;0.00833;0.00833;-9.99999;United Kingdom
87311;LERWICK;60.13333;-1.18333;-999;0.00833;0.00833;-9.99999;United Kingdom
87312;HILO/WSO AP 87;19.71667;-155.06667;-999;0.00833;0.00833;-9.99999;United States
87313;KAHULUI/ARPT;20.9;-156.43333;-999;0.00833;0.00833;-9.99999;United States
87314;MOLOKAI/AIRPORT;21.15;-157.1;-999;0.00833;0.00833;-9.99999;United States
87315;HONOLULU/INT'L ARPT;21.33333;-157.91667;-999;0.00833;0.00833;-9.99999;United States
87316;WAIMANALO/EXP FARM 795.1;21.33333;-157.71667;-999;0.00833;0.00833;-9.99999;United States
87317;LIHUE/ARPT;21.98333;-159.35;-999;0.00833;0.00833;-9.99999;United States
87318;KEY WEST/INTL ARPT;24.55;-81.75;-999;0.00833;0.00833;-9.99999;United States
87319;MIAMI/INT'L ARPT;25.8;-80.3;-999;0.00833;0.00833;-9.99999;United States
87320;BROWNSVILLE/INT'L ARPT;25.9;-97.43333;-999;0.00833;0.00833;-9.99999;United States
87321;WEST PALM BEACH/INT'L AR;26.68333;-80.11667;-999;0.00833;0.00833;-9.99999;United States
87322;CORPUS CHRISTI/INT'L ARP;27.76667;-97.5;-999;0.00833;0.00833;-9.99999;United States
87323;TAMPA/INT'L ARPT;27.96667;-82.53333;-999;0.00833;0.00833;-9.99999;United States
87324;ORLANDO/INTL ARPT;28.45;-81.31667;-999;0.00833;0.00833;-9.99999;United States
87325;VICTORIA/REGIONAL AP;28.85;-96.91667;-999;0.00833;0.00833;-9.99999;United States
87326;DEL RIO/INT'L ARPT;29.36667;-100.91667;-999;0.00833;0.00833;-9.99999;United States
87327;SAN ANTONIO/INT'L AP;29.53333;-98.46667;-999;0.00833;0.00833;-9.99999;United States
87328;APALACHICOLA/MUNICIPAL A;29.73333;-85.03333;-999;0.00833;0.00833;-9.99999;United States
87329;PORT ARTHUR/WSO AP;29.95;-94.01667;-999;0.00833;0.00833;-9.99999;United States
87330;HOUSTON/INTERCONTINENTAL;29.96667;-95.35;-999;0.00833;0.00833;-9.99999;United States
87331;NEW ORLEANS/INT'L ARPT;29.98333;-90.25;-999;0.00833;0.00833;-9.99999;United States
87332;LAKE CHARLES/MUNICIPAL A;30.11667;-93.21667;-999;0.00833;0.00833;-9.99999;United States
87333;AUSTIN/MUNICIPAL AP;30.28333;-97.7;-999;0.00833;0.00833;-9.99999;United States
87334;TALLAHASSEE/MUNICIPAL AR;30.38333;-84.36667;-999;0.00833;0.00833;-9.99999;United States
87335;PENSACOLA/REGIONAL FAA A;30.46667;-87.2;-999;0.00833;0.00833;-9.99999;United States
87336;JACKSONVILLE/INTL ARPT;30.5;-81.7;-999;0.00833;0.00833;-9.99999;United States
87337;MOBILE/WSO AIRPORT;30.68333;-88.25;-999;0.00833;0.00833;-9.99999;United States
87338;SAN ANGELO/MATHIS FIELD;31.36667;-100.5;-999;0.00833;0.00833;-9.99999;United States
87339;WACO/MADISON COOPER ARPT;31.61667;-97.21667;-999;0.00833;0.00833;-9.99999;United States
87340;EL PASO/INT'L ARPT;31.8;-106.4;-999;0.00833;0.00833;-9.99999;United States
87341;MIDLAND/WSO AP;31.95;-102.18333;-999;0.00833;0.00833;-9.99999;United States
87342;TUCSON/INT'L ARPT;32.13333;-110.93333;-999;0.00833;0.00833;-9.99999;United States
87343;SAVANNAH/MUNICIPAL ARPT;32.13333;-81.2;-999;0.00833;0.00833;-9.99999;United States
87344;STEPHENVILLE/WSMO;32.21667;-98.18333;-999;0.00833;0.00833;-9.99999;United States
87345;MONTGOMERY/DANNELLY FIEL;32.3;-86.4;-999;0.00833;0.00833;-9.99999;United States
87346;JACKSON/THOMPSON FIELD;32.31667;-90.08333;-999;0.00833;0.00833;-9.99999;United States
87347;MERIDIAN/KEY FIELD;32.33333;-88.75;-999;0.00833;0.00833;-9.99999;United States
87348;LONGVIEW/WSMO;32.35;-94.65;-999;0.00833;0.00833;-9.99999;United States
87349;ABILENE/MUNICIPAL ARPT;32.41667;-99.68333;-999;0.00833;0.00833;-9.99999;United States
87350;SHREVEPORT/REGIONAL ARPT;32.46667;-93.81667;-999;0.00833;0.00833;-9.99999;United States
87351;YUMA/INT'L ARPT;32.66667;-114.6;-999;0.00833;0.00833;-9.99999;United States
87352;MACON/LEWIS B WILSON ARP;32.7;-83.65;-999;0.00833;0.00833;-9.99999;United States
87353;SAN DIEGO/LINDBERGH FIEL;32.73333;-117.16667;-999;0.00833;0.00833;-9.99999;United States
87354;DALLAS/FORT WORTH/REGION;32.9;-97.03333;-999;0.00833;0.00833;-9.99999;United States
87355;CENTREVILLE/WSMO;32.9;-87.25;-999;0.00833;0.00833;-9.99999;United States
87356;CHARLESTON/WSO AP;32.9;-80.03333;-999;0.00833;0.00833;-9.99999;United States
87357;ROSWELL/INDUSTRIAL AIR P;33.3;-104.53333;-999;0.00833;0.00833;-9.99999;United States
87358;AUGUSTA/BUSH FIELD;33.36667;-81.96667;-999;0.00833;0.00833;-9.99999;United States
87359;PHOENIX/SKY HARBOR INTL;33.43333;-112.01667;-999;0.00833;0.00833;-9.99999;United States
87360;BIRMINGHAM/MUNICIPAL ARP;33.56667;-86.75;-999;0.00833;0.00833;-9.99999;United States
87361;LUBBOCK/REGIONAL ARPT;33.65;-101.81667;-999;0.00833;0.00833;-9.99999;United States
87362;ATLANTA/HARTSFIELD INTL;33.65;-84.43333;-999;0.00833;0.00833;-9.99999;United States
87363;LONG BEACH/WSCMO;33.81667;-118.15;-999;0.00833;0.00833;-9.99999;United States
87364;LOS ANGELES/INT'L ARPT;33.93333;-118.4;-999;0.00833;0.00833;-9.99999;United States
87365;ATHENS/MUNICIPAL ARPT;33.95;-83.31667;-999;0.00833;0.00833;-9.99999;United States
87366;COLUMBIA/METRO ARPT;33.95;-81.11667;-999;0.00833;0.00833;-9.99999;United States
87367;WICHITA FALLS/MUNICIPAL;33.96667;-98.48333;-999;0.00833;0.00833;-9.99999;United States
87368;TUPELO/C D LEMONS ARPT;34.26667;-88.76667;-999;0.00833;0.00833;-9.99999;United States
87369;SANTA BARBARA/FAA ARPT;34.43333;-119.83333;-999;0.00833;0.00833;-9.99999;United States
87370;HUNTSVILLE/MADISON COUNT;34.65;-86.76667;-999;0.00833;0.00833;-9.99999;United States
87371;SANDBERG/WSMO;34.75;-118.73333;-999;0.00833;0.00833;-9.99999;United States
87372;NORTH LITTLE ROCK/ARPT;34.83333;-92.26667;-999;0.00833;0.00833;-9.99999;United States
87373;GREER/GREENV'L-SPARTANBR;34.9;-82.21667;-999;0.00833;0.00833;-9.99999;United States
87374;SANTA MARIA/PUBLIC ARPT;34.93333;-120.41667;-999;0.00833;0.00833;-9.99999;United States
87375;WINSLOW/MUNICIPAL ARPT;35.01667;-110.73333;-999;0.00833;0.00833;-9.99999;United States
87376;CHATTANOOGA/WSO AP;35.03333;-85.2;-999;0.00833;0.00833;-9.99999;United States
87377;ALBUQUERQUE/INT'L ARPT;35.05;-106.61667;-999;0.00833;0.00833;-9.99999;United States
87378;MEMPHIS/WSCMO AP;35.05;-90;-999;0.00833;0.00833;-9.99999;United States
87379;FAYETTEVILLE/POPE AFB;35.16667;-79.01667;-999;0.00833;0.00833;-9.99999;United States
87380;CHARLOTTE/DOUGLAS INT'L;35.21667;-80.93333;-999;0.00833;0.00833;-9.99999;United States
87381;AMARILLO/INT'L ARPT;35.23333;-101.7;-999;0.00833;0.00833;-9.99999;United States
87382;CAPE HATTERAS/NWS BLDG;35.26667;-75.55;-999;0.00833;0.00833;-9.99999;United States
87383;FORT SMITH/MUNICIPAL ARP;35.33333;-94.36667;-999;0.00833;0.00833;-9.99999;United States
87384;OKLAHOMA CITY/WSFO AP;35.4;-97.6;-999;0.00833;0.00833;-9.99999;United States
87385;BAKERSFIELD/MEADOWS FIEL;35.41667;-119.05;-999;0.00833;0.00833;-9.99999;United States
87386;ASHEVILLE/REGIONAL ARPT;35.43333;-82.55;-999;0.00833;0.00833;-9.99999;United States
87387;KNOXVILLE/MCGEE TYSON AP;35.81667;-83.98333;-999;0.00833;0.00833;-9.99999;United States
87388;RALEIGH/RALEIGH-DURHAM A;35.86667;-78.78333;-999;0.00833;0.00833;-9.99999;United States
87389;LAS VEGAS/MCCARRAN INT'L;36.08333;-115.16667;-999;0.00833;0.00833;-9.99999;United States
87390;GREENSBORO - HIGH POINT /W;36.08333;-79.95;-999;0.00833;0.00833;-9.99999;United States
87391;NASHVILLE/METRO ARPT;36.11667;-86.68333;-999;0.00833;0.00833;-9.99999;United States
87392;TULSA/WSO AP;36.2;-95.9;-999;0.00833;0.00833;-9.99999;United States
87393;DESERT ROCK;36.61667;-116.01667;-999;0.00833;0.00833;-9.99999;United States
87394;WEST PLAINS;36.73333;-91.83333;-999;0.00833;0.00833;-9.99999;United States
87395;FRESNO/AIR TERMINAL;36.78333;-119.71667;-999;0.00833;0.00833;-9.99999;United States
87396;MONETT/WSMO;36.88333;-93.9;-999;0.00833;0.00833;-9.99999;United States
87397;NORFOLK/INT'L ARPT;36.9;-76.2;-999;0.00833;0.00833;-9.99999;United States
87398;PADUCAH/BARKLEY FIELD;37.06667;-88.76667;-999;0.00833;0.00833;-9.99999;United States
87399;LANGLEY/AFB;37.08333;-76.35;-999;0.00833;0.00833;-9.99999;United States
87400;SPRINGFIELD/REGIONAL AP;37.23333;-93.38333;-999;0.00833;0.00833;-9.99999;United States
87401;ROANOKE/WOODRUM ARPT;37.31667;-79.96667;-999;0.00833;0.00833;-9.99999;United States
87402;LYNCHBURG/MUNICIPAL ARPT;37.33333;-79.2;-999;0.00833;0.00833;-9.99999;United States
87403;BISHOP/ARPT;37.36667;-118.36667;-999;0.00833;0.00833;-9.99999;United States
87404;ALAMOSA/BERGMAN FIELD;37.45;-105.86667;-999;0.00833;0.00833;-9.99999;United States
87405;RICHMOND/R E BYRD INT'L;37.5;-77.33333;-999;0.08333;0.08333;-9.99999;United States
87406;SAN FRANCISCO/INTERNATIO;37.61667;-122.38333;-999;0.00833;0.00833;-9.99999;United States
87407;CALIENTE;37.61667;-114.51667;-999;0.00833;0.00833;-9.99999;United States
87408;WICHITA/MID-CONTINENT AR;37.65;-97.43333;-999;0.00833;0.00833;-9.99999;United States
87409;DODGE CITY/MUNICIPAL AP;37.76667;-99.96667;-999;0.00833;0.00833;-9.99999;United States
87410;BECKLEY/RALEIGH CO MEM A;37.78333;-81.11667;-999;0.00833;0.00833;-9.99999;United States
87411;STOCKTON/METROPOLITAN AP;37.9;-121.25;-999;0.00833;0.00833;-9.99999;United States
87412;LEXINGTON/BLUEGRASS FIEL;38.03333;-84.6;-999;0.00833;0.00833;-9.99999;United States
87413;EVANSVILLE/DRESS REGIONA;38.05;-87.53333;-999;0.00833;0.00833;-9.99999;United States
87414;LOUISVILLE/STANDIFORD FI;38.18333;-85.73333;-999;0.00833;0.00833;-9.99999;United States
87415;PUEBLO/MEMORIAL AP;38.28333;-104.51667;-999;0.00833;0.00833;-9.99999;United States
87416;HUNTINGTON/TRI-STATE ARP;38.36667;-82.55;-999;0.00833;0.00833;-9.99999;United States
87417;CHARLESTON/KANAWHA ARPT;38.36667;-81.6;-999;0.00833;0.00833;-9.99999;United States
87418;SACRAMENTO/EXECUTIVE ARP;38.51667;-121.5;-999;0.00833;0.00833;-9.99999;United States
87419;SALEM/LECKRONE ARPT;38.65;-88.96667;-999;0.00833;0.00833;-9.99999;United States
87420;FORT CARSON/BUTTS AAF;38.68333;-104.76667;-999;0.00833;0.00833;-9.99999;United States
87421;ST LOUIS/LAMBERT INT'L A;38.75;-90.36667;-999;0.00833;0.00833;-9.99999;United States
87422;COLORADO SPRINGS/MUNICIP;38.81667;-104.71667;-999;0.00833;0.00833;-9.99999;United States
87423;COLUMBIA/REGIONAL ARPT;38.81667;-92.21667;-999;0.00833;0.00833;-9.99999;United States
87424;WASHINGTON DC/NATIONAL A;38.85;-77.03333;-999;0.00833;0.00833;-9.99999;United States
87425;ELKINS/RANDOLPH CO ARPT;38.88333;-79.85;-999;0.00833;0.00833;-9.99999;United States
87426;WASHINGTON DC/DULLES INT;38.95;-77.45;-999;0.00833;0.00833;-9.99999;United States
87427;CINCINNATI/GREATER CINCI;39.05;-84.66667;-999;0.00833;0.00833;-9.99999;United States
87428;TOPEKA/MUNICIPAL ARPT;39.06667;-95.63333;-999;0.00833;0.00833;-9.99999;United States
87429;GRAND JUNCTION/WALKER FI;39.1;-108.55;-999;0.00833;0.00833;-9.99999;United States
87430;LIMON;39.18333;-103.7;-999;0.00833;0.00833;-9.99999;United States
87431;BALTIMORE/BLT-WASHNGTN I;39.18333;-76.66667;-999;0.00833;0.00833;-9.99999;United States
87432;ELY/YELLAND FIELD;39.28333;-114.85;-999;0.00833;0.00833;-9.99999;United States
87433;KANSAS CITY/INTL ARPT;39.31667;-94.71667;-999;0.00833;0.00833;-9.99999;United States
87434;GOODLAND/RENNER FIELD;39.36667;-101.7;-999;0.00833;0.00833;-9.99999;United States
87435;ATLANTIC CITY/INTL AP;39.45;-74.56667;-999;0.00833;0.00833;-9.99999;United States
87436;RENO/CANNON INT'L ARPT;39.5;-119.78333;-999;0.00833;0.00833;-9.99999;United States
87437;CONCORDIA/BLOSSER MUNI A;39.55;-97.65;-999;0.00833;0.00833;-9.99999;United States
87438;INDIANAPOLIS/INT'L ARPT;39.73333;-86.26667;-999;0.00833;0.00833;-9.99999;United States
87439;DENVER/STAPLETON INT'L A;39.76667;-104.86667;-999;0.00833;0.00833;-9.99999;United States
87440;SPRINGFIELD/CAPITAL ARPT;39.85;-89.68333;-999;0.00833;0.00833;-9.99999;United States
87441;PHILADELPHIA/INT'L ARPT;39.88333;-75.25;-999;0.00833;0.00833;-9.99999;United States
87442;DAYTON/INT'L ARPT;39.9;-84.2;-999;0.00833;0.00833;-9.99999;United States
87443;COLUMBUS/PORT COLUMBUS I;40;-82.88333;-999;0.00833;0.00833;-9.99999;United States
87444;RED BLUFF/MUNICIPAL AP;40.15;-122.25;-999;0.00833;0.00833;-9.99999;United States
87445;SPICKARD/7 W;40.25;-93.71667;-999;0.00833;0.00833;-9.99999;United States
87446;ROOSEVELT;40.3;-109.98333;-999;0.00833;0.00833;-9.99999;United States
87447;REDDING/MUNICIPAL ARPT;40.5;-122.3;-999;0.00833;0.00833;-9.99999;United States
87448;PITTSBURGH/GR PITTSBURGH;40.5;-80.21667;-999;0.00833;0.00833;-9.99999;United States
87449;ALLENTOWN/A-B-E INTL AP;40.65;-75.43333;-999;0.00833;0.00833;-9.99999;United States
87450;NEW YORK/J F KENNEDY INT;40.65;-73.78333;-999;0.00833;0.00833;-9.99999;United States
87451;PEORIA/GREATER PEORIA AR;40.66667;-89.68333;-999;0.00833;0.00833;-9.99999;United States
87452;NEWARK/INT'L ARPT;40.7;-74.16667;-999;0.00833;0.00833;-9.99999;United States
87453;WENDOVER/USAF AUXILIARY;40.73333;-114.03333;-999;0.00833;0.00833;-9.99999;United States
87454;NEW YORK/LAGUARDIA ARPT;40.76667;-73.9;-999;0.00833;0.00833;-9.99999;United States
87455;SALT LAKE CITY/INT'L ARP;40.78333;-111.95;-999;0.00833;0.00833;-9.99999;United States
87456;EUREKA/WSO CITY;40.8;-124.16667;-999;0.00833;0.00833;-9.99999;United States
87457;LINCOLN/MUNICIPAL ARPT;40.85;-96.75;-999;0.00833;0.00833;-9.99999;United States
87458;WINNEMUCCA/MUNICIPAL ARP;40.9;-117.8;-999;0.00833;0.00833;-9.99999;United States
87459;AKRON/AKRON-CANTON REG A;40.91667;-81.43333;-999;0.00833;0.00833;-9.99999;United States
87460;GRAND ISLAND/ARPT;40.96667;-98.31667;-999;0.00833;0.00833;-9.99999;United States
87461;FORT WAYNE/BAER FIELD;41;-85.2;-999;0.00833;0.00833;-9.99999;United States
87462;NORTH PLATTE/LEE BIRD FL;41.13333;-100.68333;-999;0.00833;0.00833;-9.99999;United States
87463;CHEYENNE/WSFO AP;41.15;-104.81667;-999;0.00833;0.00833;-9.99999;United States
87464;BRIDGEPORT/SIKORSKY MEMO;41.16667;-73.13333;-999;0.00833;0.00833;-9.99999;United States
87465;YOUNGSTOWN/MUNICIPAL ARP;41.25;-80.66667;-999;0.00833;0.00833;-9.99999;United States
87466;WILLIAMSPORT-LYCOMING /C;41.25;-76.91667;-999;0.00833;0.00833;-9.99999;United States
87467;OMAHA/EPPLEY AIRFIELD;41.3;-95.9;-999;0.00833;0.00833;-9.99999;United States
87468;WILKES-BARRE/SCRANTON AP;41.33333;-75.73333;-999;0.00833;0.00833;-9.99999;United States
87469;OMAHA/WSFO;41.36667;-96.01667;-999;0.00833;0.00833;-9.99999;United States
87470;CLEVELAND/HOPKINS INTL A;41.41667;-81.86667;-999;0.00833;0.00833;-9.99999;United States
87471;MOLINE/QUAD CITY ARPT;41.43333;-90.5;-999;0.00833;0.00833;-9.99999;United States
87472;DES MOINES/INTL AP;41.53333;-93.65;-999;0.00833;0.00833;-9.99999;United States
87473;TOLEDO/EXPRESS ARPT;41.6;-83.8;-999;0.00833;0.00833;-9.99999;United States
87474;CHATHAM/WSMO;41.66667;-69.96667;-999;0.00833;0.00833;-9.99999;United States
87475;PROVIDENCE/T F GREEN STA;41.73333;-71.43333;-999;0.00833;0.00833;-9.99999;United States
87476;CHICAGO/MIDWAY AIRPORT;41.78333;-87.75;-999;0.00833;0.00833;-9.99999;United States
87477;SCOTTSBLUFF/COUNTY ARPT;41.86667;-103.6;-999;0.00833;0.00833;-9.99999;United States
87478;CEDAR RAPIDS/MUNICIPAL A;41.88333;-91.7;-999;0.00833;0.00833;-9.99999;United States
87479;HARTFORD/BRADLEY INT'L A;41.93333;-72.68333;-999;0.00833;0.00833;-9.99999;United States
87480;NORFOLK/KARL STEFAN MEM;41.98333;-97.43333;-999;0.00833;0.00833;-9.99999;United States
87481;CHICAGO/O'HARE INTL AP;42;-87.88333;-999;0.00833;0.00833;-9.99999;United States
87482;ERIE/INT'L ARPT;42.08333;-80.18333;-999;0.00833;0.00833;-9.99999;United States
87483;ROCKFORD/GREATER ROCKFOR;42.2;-89.1;-999;0.00833;0.00833;-9.99999;United States
87484;BINGHAMTON/EDWIN A LINK;42.21667;-75.98333;-999;0.00833;0.00833;-9.99999;United States
87485;MILTON/BLUE HILL OBSERVA;42.21667;-71.11667;-999;0.00833;0.00833;-9.99999;United States
87486;DETROIT/METROPOLITAN ARP;42.23333;-83.33333;-999;0.00833;0.00833;-9.99999;United States
87487;BOSTON/LOGAN INT'L ARPT;42.36667;-71.03333;-999;0.00833;0.00833;-9.99999;United States
87488;MEDFORD/JACKSON COUNTY A;42.38333;-122.88333;-999;0.00833;0.00833;-9.99999;United States
87489;SIOUX CITY/MUNICIPAL ARP;42.4;-96.38333;-999;0.00833;0.00833;-9.99999;United States
87490;DUBUQUE/MUNICIPAL AP;42.4;-90.7;-999;0.00833;0.00833;-9.99999;United States
87491;BIG PINEY;42.55;-110.11667;-999;0.00833;0.00833;-9.99999;United States
87492;WATERLOO/MUNICIPAL AP;42.55;-92.4;-999;0.00833;0.00833;-9.99999;United States
87493;ALBANY/COUNTY AP;42.75;-73.8;-999;0.00833;0.00833;-9.99999;United States
87494;LANSING/CAPITAL CITY ARP;42.76667;-84.6;-999;0.00833;0.00833;-9.99999;United States
87495;LANDER/WSO AP;42.81667;-108.73333;-999;0.00833;0.00833;-9.99999;United States
87496;VALENTINE/MILLER FIELD;42.86667;-100.55;-999;0.00833;0.00833;-9.99999;United States
87497;GRAND RAPIDS/KENT CO INT;42.88333;-85.51667;-999;0.00833;0.00833;-9.99999;United States
87498;POCATELLO/MUNICIPAL ARPT;42.91667;-112.6;-999;0.00833;0.00833;-9.99999;United States
87499;CASPER/WSO AP;42.91667;-106.46667;-999;0.00833;0.00833;-9.99999;United States
87500;BUFFALO/GREATER BUFFALO;42.93333;-78.73333;-999;0.00833;0.00833;-9.99999;United States
87501;MILWAUKEE/GENERAL MITCHE;42.95;-87.9;-999;0.00833;0.00833;-9.99999;United States
87502;FLINT/BISHOP ARPT;42.96667;-83.75;-999;0.00833;0.00833;-9.99999;United States
87503;SYRACUSE/HANCOCK INT'L A;43.11667;-76.11667;-999;0.00833;0.00833;-9.99999;United States
87504;MADISON/DANE CO REGIONAL;43.13333;-89.33333;-999;0.00833;0.00833;-9.99999;United States
87505;ROCHESTER/GREATER ROCHES;43.13333;-77.66667;-999;0.00833;0.00833;-9.99999;United States
87506;SPENCER;43.16667;-95.15;-999;0.00833;0.00833;-9.99999;United States
87507;MUSKEGON/COUNTY ARPT;43.16667;-86.23333;-999;0.00833;0.00833;-9.99999;United States
87508;CONCORD/MUNICIPAL ARPT;43.2;-71.5;-999;0.00833;0.00833;-9.99999;United States
87509;BOISE/AIR TERMINAL;43.56667;-116.21667;-999;0.00833;0.00833;-9.99999;United States
87510;SIOUX FALLS/FOSS FIELD;43.56667;-96.73333;-999;0.00833;0.00833;-9.99999;United States
87511;BURNS/WSO AP;43.58333;-118.95;-999;0.00833;0.00833;-9.99999;United States
87512;PORTLAND/INT'L JETPORT;43.65;-70.3;-999;0.00833;0.00833;-9.99999;United States
87513;LA CROSSE/MUNICIPAL ARPT;43.86667;-91.25;-999;0.00833;0.00833;-9.99999;United States
87514;ROCHESTER/MUNICIPAL ARPT;43.91667;-92.5;-999;0.00833;0.00833;-9.99999;United States
87515;RAPID CITY/REGIONAL ARPT;44.05;-103.06667;-999;0.00833;0.00833;-9.99999;United States
87516;EUGENE/MAHLON SWEET ARPT;44.11667;-123.21667;-999;0.00833;0.00833;-9.99999;United States
87517;MOUNT WASHINGTON;44.26667;-71.3;-999;0.00833;0.00833;-9.99999;United States
87518;HOUGHTON LAKE/ROSCOMMON;44.36667;-84.68333;-999;0.00833;0.00833;-9.99999;United States
87519;HURON/REGIONAL ARPT;44.38333;-98.21667;-999;0.00833;0.00833;-9.99999;United States
87520;BURLINGTON/INT'L ARPT;44.46667;-73.15;-999;0.00833;0.00833;-9.99999;United States
87521;GREEN BAY/AUSTIN STRAUBE;44.48333;-88.13333;-999;0.00833;0.00833;-9.99999;United States
87522;SHERIDAN/WSO AP;44.76667;-106.96667;-999;0.00833;0.00833;-9.99999;United States
87523;MINNEAPOLIS/INT'L ARPT;44.88333;-93.21667;-999;0.00833;0.00833;-9.99999;United States
87524;SALEM/MCNARY FIELD;44.91667;-123;-999;0.00833;0.00833;-9.99999;United States
87525;EASTPORT;44.91667;-67;-999;0.00833;0.00833;-9.99999;United States
87526;NEWPORT;44.93333;-72.2;-999;0.00833;0.00833;-9.99999;United States
87527;ALPENA/PHELPS COLLINS AP;45.06667;-83.56667;-999;0.00833;0.00833;-9.99999;United States
87528;ABERDEEN/REGIONAL ARPT;45.45;-98.43333;-999;0.00833;0.00833;-9.99999;United States
87529;ST CLOUD/WHITNEY MEMORIA;45.58333;-94.18333;-999;0.00833;0.00833;-9.99999;United States
87530;PORTLAND/INT'L ARPT;45.6;-122.6;-999;0.00833;0.00833;-9.99999;United States
87531;PENDLETON/MUNICIPAL ARPT;45.68333;-118.85;-999;0.00833;0.00833;-9.99999;United States
87532;ESCANABA;45.75;-87.03333;-999;0.00833;0.00833;-9.99999;United States
87533;BILLINGS/LOGAN INT'L ARP;45.8;-108.53333;-999;0.00833;0.00833;-9.99999;United States
87534;PARK FALLS;45.93333;-90.45;-999;0.00833;0.00833;-9.99999;United States
87535;ASTORIA/CLATSOP CNTY ARP;46.15;-123.88333;-999;0.00833;0.00833;-9.99999;United States
87536;LEWISTON/NEZ-PERCE COUNT;46.38333;-117.01667;-999;0.00833;0.00833;-9.99999;United States
87537;MILES CITY/MUNICIPAL ARP;46.43333;-105.86667;-999;0.00833;0.00833;-9.99999;United States
87538;SAULT STE MARIE/WSO CITY;46.46667;-84.35;-999;0.00833;0.00833;-9.99999;United States
87539;MARQUETTE/COUNTY ARPT;46.53333;-87.55;-999;0.00833;0.00833;-9.99999;United States
87540;YAKIMA/WSO AP;46.56667;-120.53333;-999;0.00833;0.00833;-9.99999;United States
87541;HELENA/ARPT;46.6;-112;-999;0.00833;0.00833;-9.99999;United States
87542;BISMARCK/MUNICIPAL ARPT;46.76667;-100.75;-999;0.00833;0.00833;-9.99999;United States
87543;DULUTH/INTL ARPT;46.83333;-92.18333;-999;0.00833;0.00833;-9.99999;United States
87544;CARIBOU/MUNICIPAL ARPT;46.86667;-68.01667;-999;0.00833;0.00833;-9.99999;United States
87545;FARGO/HECTOR FIELD;46.9;-96.8;-999;0.00833;0.00833;-9.99999;United States
87546;MISSOULA/JOHNSON-BELL FL;46.91667;-114.08333;-999;0.00833;0.00833;-9.99999;United States
87547;OLYMPIA/ARPT;46.96667;-122.9;-999;0.00833;0.00833;-9.99999;United States
87548;HOUGHTON/FAA AIRPORT;47.16667;-88.5;-999;0.08333;0.08333;-9.99999;United States
87549;SEATTLE/SEATTLE-TACOMA I;47.45;-122.3;-999;0.00833;0.00833;-9.99999;United States
87550;GREAT FALLS/INT'L ARPT;47.48333;-111.36667;-999;0.00833;0.00833;-9.99999;United States
87551;BEMIDJI/MUNICIPAL AP;47.5;-94.93333;-999;0.00833;0.00833;-9.99999;United States
87552;SPOKANE/INT'L ARPT;47.63333;-117.53333;-999;0.00833;0.00833;-9.99999;United States
87553;QUILLAYUTE/AIRPORT;47.95;-124.55;-999;0.00833;0.00833;-9.99999;United States
87554;WILLISTON;48.15;-103.61667;-999;0.00833;0.00833;-9.99999;United States
87555;GLASGOW/INT'L ARPT;48.21667;-106.61667;-999;0.00833;0.00833;-9.99999;United States
87556;KALISPELL/GLACIER PK INT;48.3;-114.26667;-999;0.00833;0.00833;-9.99999;United States
87557;HAVRE/CITY-COUNTY ARPT;48.55;-109.76667;-999;0.00833;0.00833;-9.99999;United States
87558;INTERNATIONAL FALLS/INT';48.56667;-93.38333;-999;0.00833;0.00833;-9.99999;United States
87559;ADAK;51.88333;-176.65;-999;0.00833;0.00833;-9.99999;United States
87560;SHEMYA/USAF BASE;52.71667;174.1;-999;0.00833;0.00833;-9.99999;United States
87561;ANNETTE/ISLAND AP;55.03333;-131.56667;-999;0.00833;0.00833;-9.99999;United States
87562;COLD BAY/ARPT;55.2;-162.71667;-999;0.00833;0.00833;-9.99999;United States
87563;WRANGELL/AIRPORT;56.48333;-132.36667;-999;0.00833;0.00833;-9.99999;United States
87564;PETERSBURG/1;56.81667;-132.96667;-999;0.00833;0.00833;-9.99999;United States
87565;SITKA/JAPONSKI AP;57.06667;-135.35;-999;0.00833;0.00833;-9.99999;United States
87566;ST PAUL ISLAND/ARPT;57.15;-170.21667;-999;0.00833;0.00833;-9.99999;United States
87567;KODIAK/STATE USCG BASE;57.75;-152.5;-999;0.00833;0.00833;-9.99999;United States
87568;JUNEAU/AP;58.36667;-134.58333;-999;0.00833;0.00833;-9.99999;United States
87569;GUSTAVUS/2 SW;58.4;-135.73333;-999;0.00833;0.00833;-9.99999;United States
87570;KING SALMON/ARPT;58.68333;-156.65;-999;0.00833;0.00833;-9.99999;United States
87571;DILLINGHAM/FAA AIRPORT;59.05;-158.51667;-999;0.00833;0.00833;-9.99999;United States
87572;YAKUTAT/STATE ARPT;59.51667;-139.66667;-999;0.00833;0.00833;-9.99999;United States
87573;HOMER/ARPT;59.63333;-151.5;-999;0.00833;0.00833;-9.99999;United States
87574;ILIAMNA/FAA AIRPORT;59.75;-154.91667;-999;0.00833;0.00833;-9.99999;United States
87575;SEWARD;60.11667;-149.45;-999;0.00833;0.00833;-9.99999;United States
87576;CORDOVA;60.5;-145.5;-999;0.08333;0.08333;-9.99999;United States
87577;KENAI/FAA AIRPORT;60.56667;-151.25;-999;0.00833;0.00833;-9.99999;United States
87578;BETHEL/WSO AIRPORT;60.78333;-161.8;-999;0.00833;0.00833;-9.99999;United States
87579;VALDEZ/WSO;61.13333;-146.35;-999;0.00833;0.00833;-9.99999;United States
87580;ANCHORAGE/INTL AP;61.16667;-150.01667;-999;0.00833;0.00833;-9.99999;United States
87581;ANCHORAGE/ELMENDORF AFB;61.25;-149.8;-999;0.00833;0.00833;-9.99999;United States
87582;PUNTILLA;62.1;-152.75;-999;0.00833;0.00833;-9.99999;United States
87583;GULKANA/INTERMEDIATE FIE;62.15;-145.45;-999;0.00833;0.00833;-9.99999;United States
87584;TALKEETNA/STATE ARPT;62.3;-150.1;-999;0.00833;0.00833;-9.99999;United States
87585;MC GRATH/ARPT;62.96667;-155.61667;-999;0.00833;0.00833;-9.99999;United States
87586;NORTHWAY/FAA AIRPORT;62.96667;-141.93333;-999;0.00833;0.00833;-9.99999;United States
87587;UNALAKLEET/FIELD;63.88333;-160.8;-999;0.00833;0.00833;-9.99999;United States
87588;BIG DELTA/ALLEN AAF;64;-145.73333;-999;0.00833;0.00833;-9.99999;United States
87589;NOME/MUNICIPAL ARPT;64.5;-165.43333;-999;0.00833;0.00833;-9.99999;United States
87590;NENANA/MUNICIPAL AIRPORT;64.55;-149.08333;-999;0.00833;0.00833;-9.99999;United States
87591;FAIRBANKS/INT'L ARPT;64.81667;-147.86667;-999;0.00833;0.00833;-9.99999;United States
87592;TANANA/FAA AIRPORT;65.16667;-152.1;-999;0.00833;0.00833;-9.99999;United States
87593;PORT CLARENCE;65.25;-166.86667;-999;0.00833;0.00833;-9.99999;United States
87594;WALES;65.61667;-168.05;-999;0.00833;0.00833;-9.99999;United States
87595;KOTZEBUE/RALPH WEIN MEMO;66.86667;-162.63333;-999;0.00833;0.00833;-9.99999;United States
87596;BETTLES/FIELD;66.91667;-151.51667;-999;0.00833;0.00833;-9.99999;United States
87597;UMIAT/ARPT;69.36667;-152.13333;-999;0.00833;0.00833;-9.99999;United States
87598;BARROW/W POST-W ROGERS A;71.3;-156.78333;-999;0.00833;0.00833;-9.99999;United States
87599;CARRASCO;-34.83333;-56;-999;0.08333;0.08333;-9.99999;Uruguay
87600;ROCHA;-34.5;-55.31667;-999;0.00833;0.00833;-9.99999;Uruguay
87601;COLONIA;-34.45;-50.1;-999;0.00833;0.00833;-9.99999;Uruguay
87602;TREINTA Y TRES;-33.21667;-54.38333;-999;0.00833;0.00833;-9.99999;Uruguay
87603;PASO DE LOS TOROS;-32.8;-56.53333;-999;0.00833;0.00833;-9.99999;Uruguay
87604;MELO;-32.36667;-54.2;-999;0.00833;0.00833;-9.99999;Uruguay
87605;PAYSANDU;-32.33333;-58.03333;-999;0.00833;0.00833;-9.99999;Uruguay
87606;SALTO;-31.4;-57.96667;-999;0.00833;0.00833;-9.99999;Uruguay
87607;RIVERA;-30.9;-55.55;-999;0.00833;0.00833;-9.99999;Uruguay
87608;ARTIGAS;-30.4;-56.51667;-999;0.00833;0.00833;-9.99999;Uruguay
87609;SAMARKAND;39.63333;66.95;-999;0.00833;0.00833;-9.99999;Uzbekistan
87610;ANDIZAN;40.73333;72.31667;-999;0.00833;0.00833;-9.99999;Uzbekistan
87611;TASHKENT;41.33333;69.3;-999;0.00833;0.00833;-9.99999;Uzbekistan
87612;CHIMBAJ;42.95;59.8;-999;0.00833;0.00833;-9.99999;Uzbekistan
87613;Santa Elena de Uairen;4.6;-61.11667;-999;0.00833;0.00833;-9.99999;Venezuela
87614;Puerto Ayacucho;5.6;-67.5;-999;0.00833;0.00833;-9.99999;Venezuela
87615;Guasdualito;7.23333;-70.8;-999;0.00833;0.00833;-9.99999;Venezuela
87616;Tumeremo;7.3;-61.45;-999;0.00833;0.00833;-9.99999;Venezuela
87617;San Antonio del Tchira;7.86667;-72.45;-999;0.00833;0.00833;-9.99999;Venezuela
87618;San Fernando de Apure;7.88333;-67.43333;-999;0.00833;0.00833;-9.99999;Venezuela
87619;Ciudad Bolivar;8.15;-63.55;-999;0.00833;0.00833;-9.99999;Venezuela
87620;Merida;8.6;-71.18333;-999;0.00833;0.00833;-9.99999;Venezuela
87621;Barinas;8.61667;-70.21667;-999;0.00833;0.00833;-9.99999;Venezuela
87622;El Vigia;8.63333;-71.65;-999;0.00833;0.00833;-9.99999;Venezuela
87623;Calabozo;8.93333;-67.41667;-999;0.00833;0.00833;-9.99999;Venezuela
87624;Guanare;9.01667;-69.73333;-999;0.00833;0.00833;-9.99999;Venezuela
87625;Temblador;9.01667;-62.61667;-999;0.00833;0.00833;-9.99999;Venezuela
87626;Valle de la Pascua;9.21667;-66.01667;-999;0.00833;0.00833;-9.99999;Venezuela
87627;Valera;9.35;-70.61667;-999;0.00833;0.00833;-9.99999;Venezuela
87628;Carrizal;9.41667;-66.91667;-999;0.00833;0.00833;-9.99999;Venezuela
87629;Acarigua;9.55;-69.23333;-999;0.00833;0.00833;-9.99999;Venezuela
87630;Maturn;9.75;-63.18333;-999;0.00833;0.00833;-9.99999;Venezuela
87631;Mene Grande;9.81667;-70.93333;-999;0.00833;0.00833;-9.99999;Venezuela
87632;San Juan de los Morros;9.91667;-67.33333;-999;0.00833;0.00833;-9.99999;Venezuela
87633;Barquisimeto;10.06667;-69.31667;-999;0.00833;0.00833;-9.99999;Venezuela
87634;Barcelona;10.11667;-64.68333;-999;0.00833;0.00833;-9.99999;Venezuela
87635;Valencia;10.16667;-67.93333;-999;0.00833;0.00833;-9.99999;Venezuela
87636;Maracay;10.25;-67.65;-999;0.00833;0.00833;-9.99999;Venezuela
87637;Palmichal;10.3;-68.23333;-999;0.00833;0.00833;-9.99999;Venezuela
87638;Cuman;10.45;-64.11667;-999;0.00833;0.00833;-9.99999;Venezuela
87639;Maracaibo;10.56667;-71.73333;-999;0.00833;0.00833;-9.99999;Venezuela
87640;Guiria;10.58333;-62.31667;-999;0.00833;0.00833;-9.99999;Venezuela
87641;Maiqueta;10.6;-66.98333;-999;0.00833;0.00833;-9.99999;Venezuela
87642;Porlamar;10.91667;-63.96667;-999;0.00833;0.00833;-9.99999;Venezuela
87643;Coro;11.41667;-69.68333;-999;0.00833;0.00833;-9.99999;Venezuela
87644;HIHIFO;-13.23333;-176.16667;-999;0.00833;0.00833;-9.99999;Wallis and Futuna [France]
